{"type": "FeatureCollection", "features": [{"type": "Feature", "properties": {"name": "Umuahia South", "state": "ab"}, "geometry": {"type": "Polygon", "coordinates": [[[7.529511593285463, 5.480034616104717], [7.526979109598301, 5.481992635351901], [7.520934185164549, 5.486176315684475], [7.510494135396073, 5.502916200022639], [7.498374734806191, 5.50296043587548], [7.498123279865524, 5.501759387685638], [7.496467066801756, 5.493848680272436], [7.494803598007707, 5.493395135976812], [7.492951812076512, 5.491962326200451], [7.487232322613636, 5.491874734931116], [7.463332655777492, 5.503474998272623], [7.463538818161965, 5.504026830373959], [7.454297492735122, 5.514908821385063], [7.455057768801055, 5.519769575205771], [7.451267380884985, 5.522363562628357], [7.449338017635455, 5.528879215603354], [7.451577055236953, 5.530341699409973], [7.452434268326897, 5.532447265928624], [7.451737234385917, 5.537247569120041], [7.459587939931509, 5.543629424558333], [7.451579396172235, 5.550320635988612], [7.449134981294378, 5.55763779624732], [7.448145504911167, 5.557681845940465], [7.439921991706626, 5.561725208651524], [7.437476280006365, 5.566249386699894], [7.415176421654564, 5.571039861200688], [7.417355060787486, 5.56213665028622], [7.408312320956895, 5.549856663154515], [7.406669139968869, 5.533220768323872], [7.392644405115277, 5.512364388405842], [7.390909672243652, 5.511228085108087], [7.38803243614808, 5.510386943802473], [7.376170634667119, 5.479182719806715], [7.364247322256176, 5.46577453586616], [7.364230615550525, 5.465674251565531], [7.363626479778247, 5.462047577134001], [7.36286886660497, 5.460214031252576], [7.368328639954825, 5.454959537152945], [7.369448233848971, 5.453882037825849], [7.385805480038925, 5.45508031700308], [7.429754148735014, 5.443049833283226], [7.437025545192796, 5.445377636668638], [7.442400421642219, 5.4470983050428], [7.450526022957661, 5.44519694578247], [7.454355702253906, 5.446593431042061], [7.477442441315645, 5.438069511898505], [7.486356630254306, 5.440473826905645], [7.490080007886093, 5.440309083697286], [7.51003959375231, 5.431183117906642], [7.522695859926046, 5.452823281269445], [7.529511593285463, 5.480034616104717]]]}}, {"type": "Feature", "properties": {"name": "Aba North", "state": "ab"}, "geometry": {"type": "Polygon", "coordinates": [[[7.39317599617533, 5.076375101030123], [7.400170982404973, 5.08253206480299], [7.398402015940349, 5.085450514129946], [7.397280064923109, 5.087446623263077], [7.396087708680852, 5.090915596177865], [7.397272072648093, 5.092397853378259], [7.397384798169924, 5.092446867329102], [7.398426338105082, 5.094624947083673], [7.396681231553657, 5.101866790020381], [7.400140007955031, 5.103549715646921], [7.394652429366147, 5.119321558043509], [7.385727924304319, 5.122687695280945], [7.388989680829184, 5.127665138835141], [7.385789466710548, 5.130161366354002], [7.377644831244027, 5.128540243937152], [7.366843357435073, 5.141309580073084], [7.365114159890595, 5.138775827442544], [7.364117732647287, 5.137905897039559], [7.361523675976912, 5.134861118146148], [7.354638226273153, 5.139500641441487], [7.349845595198133, 5.135221366772726], [7.352283073605008, 5.132818698424217], [7.347625559372091, 5.129763590817106], [7.346924919149728, 5.125356383989981], [7.335822891912983, 5.118712943647495], [7.328883590805106, 5.120341570906817], [7.319703237614362, 5.113550871975235], [7.323361269606949, 5.106408931127305], [7.327797094660241, 5.106823611220705], [7.327787057326873, 5.101718722940745], [7.32786740095986, 5.100411477407818], [7.321485778445947, 5.099889552261061], [7.317112478757963, 5.088170154828845], [7.320609378320228, 5.090814577131084], [7.321151962692966, 5.091158176608587], [7.328119665290387, 5.090697142758984], [7.328026152884718, 5.093449212111523], [7.333779292280553, 5.091401741796972], [7.340248176911871, 5.105106663341871], [7.346543531059183, 5.106854297887594], [7.350949554378474, 5.102932281599578], [7.355341637306765, 5.104245961781771], [7.358596279294886, 5.106638103565672], [7.358665381402261, 5.11207345132874], [7.365573530893812, 5.113574212979586], [7.365160692611937, 5.10811861428266], [7.374287008238866, 5.107266023708064], [7.376532473295072, 5.099612490024469], [7.380011969177076, 5.104489101590787], [7.387943092999365, 5.101823770050999], [7.388342314646138, 5.100949611935107], [7.389040952977666, 5.099982532268086], [7.379425213702689, 5.093097676116884], [7.384766525654697, 5.082146609078791], [7.38114599808938, 5.08411518636683], [7.378860797387915, 5.081320633040832], [7.382605221853566, 5.079878616005374], [7.386927831254468, 5.078457249202756], [7.39317599617533, 5.076375101030123]]]}}, {"type": "Feature", "properties": {"name": "Ukwa East", "state": "ab"}, "geometry": {"type": "Polygon", "coordinates": [[[7.538560256051028, 5.101324383713404], [7.5339689678936, 5.10090248116461], [7.504020013113177, 5.088824454784799], [7.490339208687601, 5.071578068672977], [7.487085660275056, 5.062075351696194], [7.487600076082686, 5.047105467143638], [7.480397675612267, 5.045722059825266], [7.483728429923133, 5.040846367365987], [7.482831369671999, 5.037266429801946], [7.4823699203356, 5.035075909725492], [7.483162084562593, 5.028068839305547], [7.466779669945879, 5.02434350384965], [7.451929645236987, 5.027710366839983], [7.426401078646904, 5.029659165338273], [7.41559893484299, 5.009862807322747], [7.415777559087132, 5.00690102776025], [7.415857239919717, 5.005579834641708], [7.418403083035912, 5.001617274217892], [7.414415908167655, 4.980833768163905], [7.412004287068214, 4.979026255857093], [7.400374946846341, 4.973747916233378], [7.399570150741908, 4.973548520348004], [7.391578530424908, 4.972417305414353], [7.388450483303188, 4.97446251033665], [7.387757582646373, 4.974421694605553], [7.379082286918049, 4.975486507196592], [7.37625284709128, 4.976515596017975], [7.369852151755424, 4.97910004702959], [7.366028958369782, 4.984639925692079], [7.359692804679241, 4.993917128672592], [7.356085612261268, 4.995104604294113], [7.351992158211601, 4.995103186962581], [7.343691836609025, 4.9827980287061], [7.3439954027657, 4.976540768042071], [7.339354620419442, 4.9734993283314], [7.334572969167255, 4.97413103821691], [7.326551833100666, 4.974787437190514], [7.319948852357697, 4.974277470329014], [7.311168632726265, 4.968926042802707], [7.298029999884648, 4.957137000072521], [7.299528999763595, 4.949968999569705], [7.30292099970444, 4.945761999816511], [7.307721669819273, 4.937862784839695], [7.308197370712151, 4.94053790370134], [7.308697696841307, 4.943427928156382], [7.314225715244618, 4.944174923933645], [7.318967107446099, 4.941930734116113], [7.32473315481127, 4.936218965333012], [7.330434522934922, 4.926855946344915], [7.334140184821706, 4.917140422792329], [7.325102508174268, 4.895590998325986], [7.317401905773409, 4.892904063271942], [7.310589919888912, 4.888614753068453], [7.305335686592684, 4.875463879554445], [7.30778598843267, 4.875533103969644], [7.319794177959011, 4.879632950400378], [7.326064586711368, 4.876126766237348], [7.330787182182746, 4.873486041947331], [7.352412224344732, 4.871914865178951], [7.360141276798515, 4.866603851386685], [7.362020016310737, 4.865313052655324], [7.370382078170394, 4.863550043299881], [7.373507022631031, 4.862891197270983], [7.416359900688917, 4.866746902047964], [7.429212093163642, 4.862449168794171], [7.436501026401288, 4.854000092130605], [7.446667670576574, 4.845414639574017], [7.455207825181049, 4.84506607134216], [7.460362910919628, 4.845418931138795], [7.4661884313511, 4.845414639574017], [7.471591472768296, 4.842277049746087], [7.474380015925021, 4.836699963432636], [7.474561179854618, 4.836541450727395], [7.478563308649825, 4.833039761375915], [7.486754894123123, 4.827636719059399], [7.487277984791206, 4.824673652567071], [7.488712310824553, 4.821804522960406], [7.496728897220862, 4.829091072095366], [7.497859000592427, 4.830831050712447], [7.499560832666361, 4.832575798434391], [7.500690936937247, 4.834317206973594], [7.49713611563925, 4.845830916863349], [7.498723983824846, 4.859117984607337], [7.495840072961073, 4.860826014808765], [7.493529797362328, 4.862538815014375], [7.491219044223556, 4.864252090061939], [7.481891154553182, 4.879758834802431], [7.481759071124259, 4.893033027852027], [7.477023125217102, 4.907999992305861], [7.480790137954557, 4.932847977152448], [7.491569042377478, 4.944478035033342], [7.49141883940797, 4.959482192749022], [7.473587990193664, 4.965109824558795], [7.460275173060836, 4.977698802557768], [7.471143246163933, 4.995911120801622], [7.483599663193957, 4.996338367122007], [7.491909026580345, 5.00778102877149], [7.504658222399087, 5.012110232900966], [7.504820979904366, 5.012221541091321], [7.506365775959864, 5.013278008873044], [7.511973858306987, 5.026020049685599], [7.511932850120957, 5.030059814209096], [7.509670258375763, 5.034508704613074], [7.511018491410312, 5.035589858784988], [7.512274741785973, 5.036597252361332], [7.515445709052301, 5.038217545603288], [7.527913094214, 5.037692069933144], [7.531323909770663, 5.040605067569857], [7.533027171766605, 5.0423498152918], [7.53415107701062, 5.044668198278771], [7.534115791210866, 5.048130989253821], [7.525102139052535, 5.050471305806184], [7.518901825259093, 5.053178786771639], [7.540215969091776, 5.068956851577468], [7.54690694759762, 5.088057040799868], [7.538560256051028, 5.101324383713404]]]}}, {"type": "Feature", "properties": {"name": "Ukwa West", "state": "ab"}, "geometry": {"type": "Polygon", "coordinates": [[[7.183692103307976, 4.949898768813171], [7.181393146576511, 4.949262142334078], [7.181011391562492, 4.949128430232918], [7.168517113074358, 4.944752215842129], [7.15962600703466, 4.935448169897199], [7.150316237804191, 4.924333096195483], [7.143767834218238, 4.91319608802911], [7.14163638341239, 4.904555524118166], [7.141855510423511, 4.901298027681889], [7.144011346346588, 4.899053812683348], [7.144369752262321, 4.898680713644069], [7.146099436339966, 4.897577162755908], [7.146338310664532, 4.895850075020974], [7.147241115784936, 4.890325069346545], [7.149656564398981, 4.88849100995219], [7.155928135075442, 4.883728981907041], [7.183763074206581, 4.875218496836226], [7.188429721954151, 4.870896158131245], [7.198855971625846, 4.86169199988592], [7.218010078802138, 4.857304672572639], [7.224565148163094, 4.857883737944178], [7.247022313229195, 4.867324488934059], [7.257359000317649, 4.867384999817943], [7.261951989992383, 4.868702706264912], [7.263761979931473, 4.869221982908243], [7.271389961177817, 4.873023987367162], [7.305335686592684, 4.875463879554445], [7.310589919888912, 4.888614753068453], [7.317401905773409, 4.892904063271942], [7.325102508174268, 4.895590998325986], [7.334140184821706, 4.917140422792329], [7.330434522934922, 4.926855946344915], [7.32473315481127, 4.936218965333012], [7.318967107446099, 4.941930734116113], [7.314225715244618, 4.944174923933645], [7.308697696841307, 4.943427928156382], [7.308197370712151, 4.94053790370134], [7.307721669819273, 4.937862784839695], [7.295082999780675, 4.960412000013832], [7.293815999808601, 4.967578000424453], [7.295003859440612, 4.973820220826553], [7.285465639927395, 4.98268057005231], [7.289834577004171, 4.987623720658235], [7.284654137578457, 4.989069424914078], [7.278898616777781, 5.000741414584638], [7.270446519291454, 5.003499171249814], [7.272584956030926, 5.006131744984089], [7.27582461261585, 5.010021781380146], [7.285552225754657, 5.021421152364326], [7.290594136310403, 5.032769029966801], [7.292609449566498, 5.050262165766412], [7.301990304808783, 5.055539994575156], [7.302588961911113, 5.054874372154586], [7.303266636146361, 5.055401452215278], [7.307349884689472, 5.065130277640264], [7.295792921006523, 5.081671098842207], [7.283023574978074, 5.089983343656456], [7.27929243889497, 5.085828053122214], [7.276436566194604, 5.080121543574421], [7.272040446209701, 5.076477476254581], [7.256077815338983, 5.07795710473664], [7.248316765006734, 5.017261982154821], [7.235092163272782, 4.981004238255025], [7.217877864971513, 4.961559772365661], [7.209084034100954, 4.95650100671611], [7.199394225762944, 4.95424699810053], [7.183692103307976, 4.949898768813171]]]}}, {"type": "Feature", "properties": {"name": "Bende", "state": "ab"}, "geometry": {"type": "Polygon", "coordinates": [[[7.73414993267329, 5.51781177539317], [7.723173000233828, 5.521093000441681], [7.709127000011108, 5.523407000132977], [7.684501000221019, 5.528211000437352], [7.67366999987064, 5.52954900008632], [7.660502999713742, 5.529082000134224], [7.645444999587085, 5.525876999823709], [7.641508999740608, 5.513375999802577], [7.614676999843709, 5.565147000433797], [7.614557999751923, 5.572062000061294], [7.620377000098529, 5.57518900037212], [7.628016999884665, 5.576903000273319], [7.637309000310154, 5.580890999819815], [7.632261097571643, 5.584212290564778], [7.648908488436064, 5.6141939392989], [7.664240126180914, 5.615919492790397], [7.670349862056526, 5.61683220664105], [7.68712063630835, 5.621868097135007], [7.692303520990777, 5.625439244725385], [7.700144700017916, 5.633952306353876], [7.706956168792203, 5.64239176296951], [7.703381000332968, 5.643829000108326], [7.695335999856582, 5.645579999917118], [7.657896000000449, 5.627088999757575], [7.647325999994962, 5.629571000001704], [7.640684000366377, 5.632680000381754], [7.637541000217027, 5.638030999830846], [7.635005000180684, 5.641344999771945], [7.633247000049039, 5.643636000201298], [7.683068999834518, 5.714451000413362], [7.688304000229493, 5.738556999605919], [7.712461065625746, 5.740641207225963], [7.716913371654812, 5.747879834187074], [7.717513027903976, 5.7496056880521], [7.728859552026734, 5.761426392314206], [7.730545780863167, 5.772922996199384], [7.736959806849654, 5.782518669800822], [7.738628533979693, 5.786932147600567], [7.73440554787777, 5.796064107372729], [7.725003441655531, 5.816395604273794], [7.719586895119164, 5.817124742213139], [7.707206686639324, 5.821338294426766], [7.617618084207265, 5.827282429140837], [7.566697597616098, 5.843938827614863], [7.56244747986733, 5.843801732264183], [7.551944732963079, 5.843462944159569], [7.527677999739922, 5.83413699972283], [7.528734999920346, 5.828126999561448], [7.527224000387378, 5.820319000121799], [7.532185999884064, 5.813322000310109], [7.535427766278417, 5.814889005123518], [7.545883222332918, 5.791693403128079], [7.554619310432884, 5.758349908721357], [7.555393013376943, 5.748995683304202], [7.555706332681154, 5.742571649661954], [7.543877242240967, 5.711829384918246], [7.54592500033857, 5.707096000280217], [7.547822999731693, 5.696234000298944], [7.54592500033857, 5.69280999978173], [7.546696999966628, 5.683581999609657], [7.546555999759619, 5.674827999712477], [7.535011999803999, 5.674331000175584], [7.522528999713643, 5.672698999559259], [7.504491999806021, 5.670009999661829], [7.490798999674155, 5.664940999727378], [7.482710174335125, 5.663979080370325], [7.490165310380803, 5.689512111195029], [7.478683299794511, 5.685683922075384], [7.47800358229955, 5.682625639861442], [7.472495238364615, 5.675302099812086], [7.472749340010068, 5.673590474121113], [7.470852580782037, 5.648480342294022], [7.499742358123399, 5.64353662241723], [7.501879354148912, 5.641632852973828], [7.502421452887802, 5.640949993247659], [7.515443953575641, 5.633023774327796], [7.516578476215727, 5.6278678342332], [7.515600437410285, 5.618955136370516], [7.516039854255894, 5.615948245015545], [7.521895020838599, 5.608655880864262], [7.534702383907927, 5.59377156140846], [7.544332556402424, 5.596129026233598], [7.546370042443527, 5.595876153961399], [7.57472632486008, 5.584963886374283], [7.579915028156051, 5.576690780055515], [7.585627642301915, 5.570533005094148], [7.581740278690972, 5.559258447419438], [7.579756992990895, 5.550986376220351], [7.578078965971542, 5.532154368429417], [7.570559609338545, 5.521924815777652], [7.570502916976068, 5.521192848571161], [7.57128331267478, 5.503224618021761], [7.574665718648021, 5.497859677282349], [7.575978638003789, 5.495165449625858], [7.600664510159049, 5.48533492796463], [7.606227174944195, 5.475022816649698], [7.629648640772189, 5.467777253217719], [7.642403084135083, 5.472880725065465], [7.65729242630448, 5.459014609037013], [7.658100858367959, 5.446245655112932], [7.66030883788261, 5.447381021317142], [7.663176060027183, 5.447402954882534], [7.66776180296489, 5.447441102325058], [7.675851821704271, 5.441156863798255], [7.691372871061219, 5.43724298457613], [7.700029850297426, 5.431540966242665], [7.704679965807827, 5.482944965238005], [7.704071998923666, 5.486402988007512], [7.702318192330779, 5.489850997725398], [7.69998979629213, 5.493295193418476], [7.691304206923633, 5.501883030977126], [7.690116882388281, 5.505912780650362], [7.691235065246133, 5.508808136286518], [7.691780090378927, 5.511697768637134], [7.692903995622942, 5.514016150724842], [7.694026946686279, 5.516333102890428], [7.695939063636899, 5.518277644897466], [7.710626124895782, 5.519352913006571], [7.711226940371034, 5.516471862886192], [7.710693835751954, 5.512427806797916], [7.713566780282747, 5.511874199434828], [7.73414993267329, 5.51781177539317]]]}}, {"type": "Feature", "properties": {"name": "Obi Nwga", "state": "ab"}, "geometry": {"type": "Polygon", "coordinates": [[[7.53245536212529, 5.172527276812446], [7.540123939668149, 5.193620205408195], [7.542372226796886, 5.255970001414482], [7.551987171071119, 5.269320965989834], [7.5530991549021, 5.272792815835828], [7.553071022309894, 5.275679110802344], [7.543169021633105, 5.291182040618708], [7.526863082665159, 5.303542585422008], [7.509970848675778, 5.304297436777347], [7.500010885793813, 5.27770684279659], [7.496036987616947, 5.276970581327305], [7.481651514905536, 5.259193338901525], [7.485292508342638, 5.244002864140896], [7.483503474405893, 5.24236044487867], [7.474975644110714, 5.237292866772407], [7.469202941762376, 5.236163696897165], [7.46536293465175, 5.231764690088426], [7.465046422754256, 5.231964817122673], [7.448650853753918, 5.232979482617054], [7.438868169730313, 5.2267681854035], [7.433786151209972, 5.216400790064483], [7.421217628290947, 5.22316845735844], [7.414072665720994, 5.21977899260645], [7.409631389876779, 5.216028077733654], [7.404885689922708, 5.214634079998859], [7.401789886194365, 5.209573182956092], [7.399625827769796, 5.20603546676341], [7.383570813142569, 5.204773269171085], [7.382387667756689, 5.205021217655144], [7.379701024982353, 5.200363233076814], [7.381918573283599, 5.193068279777322], [7.383394080172707, 5.1854777669854], [7.384266566448957, 5.181793706814176], [7.382632971334601, 5.179301091871935], [7.377873241057273, 5.174967034101371], [7.371908052314836, 5.173107342230082], [7.367018590335704, 5.17124061855975], [7.365130239768803, 5.169704681725705], [7.371191382576285, 5.142907449619145], [7.367988573014259, 5.140304674920856], [7.377644831244027, 5.128540243937152], [7.383303746870467, 5.130593665065646], [7.388989680829184, 5.127665138835141], [7.385652872282265, 5.122822787841415], [7.394652429366147, 5.119321558043509], [7.400140007955031, 5.103549715646921], [7.396681231553657, 5.101866790020381], [7.398426338105082, 5.094624947083673], [7.397384798169924, 5.092446867329102], [7.397272072648093, 5.092397853378259], [7.396087708680852, 5.090915596177865], [7.397280064923109, 5.087446623263077], [7.398402015940349, 5.085450514129946], [7.400170982404973, 5.08253206480299], [7.39317599617533, 5.076375101030123], [7.389438454221306, 5.067399492892321], [7.382360104435293, 5.065133776902314], [7.383781812980317, 5.046665525093943], [7.412700724758679, 5.046392778703819], [7.41203351683339, 5.044994227701523], [7.419148362906697, 5.039137495399132], [7.426401078646904, 5.029659165338273], [7.451929645236987, 5.027710366839983], [7.466779669945879, 5.02434350384965], [7.483162084562593, 5.028068839305547], [7.4823699203356, 5.035075909725492], [7.482831369671999, 5.037266429801946], [7.483728429923133, 5.040846367365987], [7.480397675612267, 5.045722059825266], [7.487600076082686, 5.047105467143638], [7.487085660275056, 5.062075351696194], [7.490339208687601, 5.071578068672977], [7.504020013113177, 5.088824454784799], [7.5339689678936, 5.10090248116461], [7.538560256051028, 5.101324383713404], [7.533444880776699, 5.115651130695198], [7.533771992083814, 5.140470982050203], [7.52788400744106, 5.156005860282278], [7.53245536212529, 5.172527276812446]]]}}, {"type": "Feature", "properties": {"name": "Ohafia", "state": "ab"}, "geometry": {"type": "Polygon", "coordinates": [[[7.890100001713733, 5.684799670868188], [7.886259079093293, 5.687846183654528], [7.870554446630479, 5.693556786016927], [7.869914387439053, 5.699878924672703], [7.863103239722761, 5.708303740325391], [7.853772849037796, 5.717927048294712], [7.84079875525839, 5.724126516725391], [7.835488433044816, 5.729311144293945], [7.830545709616842, 5.735343500702072], [7.823441049265057, 5.74016880774434], [7.808084912188974, 5.743934282641078], [7.803929806015788, 5.744953156063332], [7.801998895033023, 5.749458312551155], [7.796791076646912, 5.761609076997331], [7.793935775915372, 5.777313708560825], [7.793112737962531, 5.789659689742962], [7.79298400900484, 5.79159069065787], [7.786321639731909, 5.804915428304412], [7.780373095641892, 5.806818962125476], [7.769443999940677, 5.81372738411153], [7.725003441655531, 5.816395604273794], [7.73440554787777, 5.796064107372729], [7.738628533979693, 5.786932147600567], [7.736959806849654, 5.782518669800822], [7.730545780863167, 5.772922996199384], [7.728859552026734, 5.761426392314206], [7.717513027903976, 5.7496056880521], [7.716913371654812, 5.747879834187074], [7.712461065625746, 5.740641207225963], [7.688304000229493, 5.738556999605919], [7.683068999834518, 5.714451000413362], [7.633247000049039, 5.643636000201298], [7.635005000180684, 5.641344999771945], [7.637541000217027, 5.638030999830846], [7.640684000366377, 5.632680000381754], [7.647325999994962, 5.629571000001704], [7.657896000000449, 5.627088999757575], [7.695335999856582, 5.645579999917118], [7.703381000332968, 5.643829000108326], [7.706956168792203, 5.64239176296951], [7.714151999715057, 5.639499000078843], [7.720296999806749, 5.634325999845089], [7.723079584055597, 5.632253103897654], [7.725993999923219, 5.630082000184188], [7.741237522993345, 5.606058455333482], [7.746552580137518, 5.607732572100588], [7.754285827928641, 5.610706898104922], [7.767643946610917, 5.614874005730826], [7.774191487747032, 5.580618551105317], [7.78903453731408, 5.574756695365238], [7.799142124809237, 5.576906408703849], [7.802108179748757, 5.575541739659627], [7.805284721912415, 5.574080227120817], [7.75659600010539, 5.553756000339206], [7.760380187195949, 5.535091338394579], [7.785245843720759, 5.531428218937208], [7.793620866609729, 5.526194684437201], [7.805500960301117, 5.516922338694997], [7.807479109073654, 5.5047601231812], [7.811812652432025, 5.499533517058239], [7.824801999612646, 5.506288000291022], [7.836607999959256, 5.508851999819967], [7.847469999940586, 5.510051000253497], [7.86706799988832, 5.509488000370993], [7.872657000420304, 5.526904999566113], [7.871950000192385, 5.540282000414038], [7.874616999974592, 5.548299999645337], [7.879326000394656, 5.554211999784002], [7.887265999626209, 5.558384999767952], [7.888220999599525, 5.548040000245862], [7.897100999911288, 5.525970999661979], [7.90083400028891, 5.513385000217625], [7.91291240528335, 5.525071922231461], [7.90794277234113, 5.535781860344628], [7.904579163097935, 5.568675518360521], [7.909989834363387, 5.587515831390533], [7.917696953251834, 5.649620055820947], [7.890100001713733, 5.684799670868188]]]}}, {"type": "Feature", "properties": {"name": "Isiala-Ngwa South", "state": "ab"}, "geometry": {"type": "Polygon", "coordinates": [[[7.271048931063376, 5.211805561977144], [7.28233759910097, 5.213218967981049], [7.303478850968247, 5.226988761222401], [7.306863840693723, 5.229193484291898], [7.304687508321877, 5.240805872293208], [7.305194234926034, 5.242085481659672], [7.305649907916973, 5.248087146904368], [7.30760226143525, 5.253905085151587], [7.332959377673205, 5.246095939076383], [7.336140383172221, 5.259813372888914], [7.331355864881289, 5.263126064316452], [7.328753054210154, 5.267679554867584], [7.331635768975616, 5.271289279776511], [7.33464146423222, 5.275053000095909], [7.363081555369547, 5.280526319933756], [7.376642506246696, 5.281068664187558], [7.380664040613055, 5.281714391805792], [7.386832653304339, 5.276547322600891], [7.383428204947734, 5.273452221243076], [7.378706344222451, 5.267056873276147], [7.377003335835354, 5.264168559331608], [7.37670209442615, 5.257870810289717], [7.37996446968458, 5.256511327635735], [7.388291295207182, 5.257115047921161], [7.398204628241047, 5.255542124669375], [7.398712768579458, 5.253357680412648], [7.398197476832138, 5.252111879259871], [7.386905099091109, 5.245229669813455], [7.385748796669702, 5.23843798882217], [7.381285332751929, 5.23638344893709], [7.386558789956268, 5.22617503395071], [7.38230671438339, 5.215263455244326], [7.382387667756689, 5.205021217655144], [7.383570813142569, 5.204773269171085], [7.399625827769796, 5.20603546676341], [7.401789886194365, 5.209573182956092], [7.404885689922708, 5.214634079998859], [7.409631389876779, 5.216028077733654], [7.414072665720994, 5.21977899260645], [7.421217628290947, 5.22316845735844], [7.433786151209972, 5.216400790064483], [7.438868169730313, 5.2267681854035], [7.448650853753918, 5.232979482617054], [7.465046422754256, 5.231964817122673], [7.46536293465175, 5.231764690088426], [7.485292508342638, 5.244002864140896], [7.481651514905536, 5.259193338901525], [7.496036987616947, 5.276970581327305], [7.500010885793813, 5.27770684279659], [7.509970848675778, 5.304297436777347], [7.509584118612224, 5.304559117909037], [7.499223103963118, 5.309452070156965], [7.492402912664318, 5.318554497991727], [7.492640831908886, 5.325299916058327], [7.499650558026872, 5.330763866759071], [7.504807371363142, 5.33201146026073], [7.511941208420069, 5.341507937741198], [7.500983268762866, 5.350383867721348], [7.497700092185539, 5.354015885025149], [7.496137318682372, 5.353962542637305], [7.487834878277056, 5.339773500746503], [7.479327221574067, 5.333533399147086], [7.451591512738162, 5.340624555279078], [7.440548005286246, 5.33740497426021], [7.421928671870774, 5.325692161663994], [7.404307524772491, 5.327653913996983], [7.395407650342861, 5.335471434559111], [7.391452553392696, 5.331319645984934], [7.386038792955958, 5.329178601211538], [7.380376442818601, 5.330080094221046], [7.380054108710169, 5.326859625571331], [7.379748124276546, 5.323773683808497], [7.37414270572134, 5.326840363891733], [7.369137354405439, 5.335350904720542], [7.369613368262378, 5.343645075859627], [7.371439528011877, 5.344374962934239], [7.372789674803698, 5.344807702313688], [7.373366489172213, 5.34477108281925], [7.371652132240172, 5.345404692072918], [7.370674175272995, 5.345766134999167], [7.365456092924376, 5.343801167589845], [7.36225395335731, 5.343743380752471], [7.359950491921722, 5.34184046386639], [7.358602779594662, 5.339971516172568], [7.352184634713183, 5.333839424949531], [7.327973889683335, 5.32854025882591], [7.320392830564742, 5.328913217570971], [7.305262033915767, 5.335988235368802], [7.305656052984489, 5.338026914810314], [7.300609582866002, 5.342437317828001], [7.292263508254337, 5.327637195600119], [7.291099548105706, 5.303534985251417], [7.279310225686402, 5.278070927031706], [7.276494418682546, 5.25567150113892], [7.267375862406197, 5.239419460339889], [7.264343654236313, 5.215610503621917], [7.271048931063376, 5.211805561977144]]]}}, {"type": "Feature", "properties": {"name": "Aba South", "state": "ab"}, "geometry": {"type": "Polygon", "coordinates": [[[7.324683657025219, 5.090662347988996], [7.328215351357414, 5.084825485307931], [7.326051535749798, 5.083732703801275], [7.323020020057925, 5.083054201290395], [7.318342264783723, 5.08198969087158], [7.318133495264647, 5.080744682021532], [7.31784208704272, 5.07948879856923], [7.317698557942151, 5.078284021790239], [7.321512961354131, 5.072073111285079], [7.320758343822547, 5.070488851179562], [7.318548860641442, 5.065530561386367], [7.318231658064633, 5.065328206731408], [7.321893109279642, 5.058066379060222], [7.324360483849318, 5.05616385158055], [7.325698734409116, 5.055151626846168], [7.335055951870743, 5.055862154215106], [7.336963677431811, 5.047374687292006], [7.333259585761311, 5.043952212924353], [7.334139556195623, 5.042573947030064], [7.334789784021382, 5.04075394943527], [7.346035052575644, 5.040361432234363], [7.34760415640676, 5.043051039174145], [7.359532932199102, 5.040493574119182], [7.368822829110343, 5.053752481391939], [7.367786478263383, 5.062928552910421], [7.370664671237648, 5.070251359113001], [7.377439417994765, 5.072473861779372], [7.378699042626749, 5.083041417427523], [7.384766525654697, 5.082146609078791], [7.379425213702689, 5.093097676116884], [7.389040952977666, 5.099982532268086], [7.384642629653683, 5.104635530105668], [7.380011969177076, 5.104489101590787], [7.376532473295072, 5.099612490024469], [7.374287008238866, 5.107266023708064], [7.365160692611937, 5.10811861428266], [7.365754559025731, 5.11341457971912], [7.361532221334983, 5.113776087396559], [7.355341637306765, 5.104245961781771], [7.350949554378474, 5.102932281599578], [7.346543531059183, 5.106854297887594], [7.340248176911871, 5.105106663341871], [7.333779292280553, 5.091401741796972], [7.328026152884718, 5.093449212111523], [7.328119665290387, 5.090697142758984], [7.324683657025219, 5.090662347988996]]]}}, {"type": "Feature", "properties": {"name": "Umu-Nneochi", "state": "ab"}, "geometry": {"type": "Polygon", "coordinates": [[[7.339062690590765, 6.042149544166193], [7.318281651377163, 5.998603343669402], [7.27259588189446, 5.997651576758926], [7.264029979699842, 5.991465091840553], [7.259271145147295, 5.977664470738773], [7.254629762053924, 5.965185674978954], [7.254772298302953, 5.963266621557409], [7.254918770884615, 5.962140949145521], [7.256415844415756, 5.950538635349801], [7.263219356887873, 5.934323311171909], [7.273681640595271, 5.922770023917508], [7.284521102666815, 5.918389797651116], [7.335178852322201, 5.911439418694272], [7.362891674311356, 5.903785706045539], [7.37668085064081, 5.905986785961431], [7.387948035673332, 5.912797928281805], [7.391950606934984, 5.911909103122639], [7.394222260249137, 5.9101715086083], [7.395909785907918, 5.907576560709742], [7.396443367167706, 5.904415607394412], [7.390317750164115, 5.882975452355311], [7.440935212889826, 5.886638248056727], [7.45521028033022, 5.890590207272282], [7.461550709397784, 5.899169250360671], [7.474303378398247, 5.909466721611977], [7.474512391633596, 5.909492563630977], [7.513162188284412, 5.924385339411913], [7.517171020626165, 5.931425085799106], [7.529133840254588, 5.951950052053292], [7.53049575917197, 5.972089088640587], [7.527294931715801, 5.979359051579024], [7.523626197790861, 5.987691764963017], [7.520816639276518, 6.000288162368861], [7.53016705696416, 6.005994174591535], [7.533384799768726, 6.010976791046119], [7.520060062122241, 6.020018577595351], [7.512820649153696, 6.021104436120879], [7.510541916376383, 6.021446228860441], [7.493885993643744, 6.016687393408517], [7.475801944803948, 6.012404442311208], [7.46152544024693, 6.01478385868819], [7.451531410146515, 6.013832091777658], [7.43059205967586, 6.006217957392892], [7.415839671663548, 6.006217957392892], [7.404417992096683, 6.012404442311208], [7.386810303352888, 6.036674976069321], [7.384793282284193, 6.037316798831228], [7.376340388897859, 6.040006161155475], [7.361588000885604, 6.040482044610712], [7.345400170781318, 6.041680393935053], [7.339062690590765, 6.042149544166193]]]}}, {"type": "Feature", "properties": {"name": "Isuikwuato", "state": "ab"}, "geometry": {"type": "Polygon", "coordinates": [[[7.534576807973338, 5.834697727917842], [7.526593000066953, 5.844423000121424], [7.525859000392586, 5.856202000122266], [7.527328999833514, 5.869013000049961], [7.5051529619397, 5.882827331316321], [7.503497155369473, 5.900165637134478], [7.506054256199036, 5.91190339062905], [7.513162188284412, 5.924385339411913], [7.474512391633596, 5.909492563630977], [7.474303378398247, 5.909466721611977], [7.461550709397784, 5.899169250360671], [7.45521028033022, 5.890590207272282], [7.440935212889826, 5.886638248056727], [7.390317750164115, 5.882975452355311], [7.386432648348091, 5.860856533102549], [7.392399311079373, 5.833835125190944], [7.394280910435725, 5.755751133308195], [7.400300980306042, 5.71271181140105], [7.399729251603731, 5.710363388359724], [7.396841049175123, 5.70866107874582], [7.381607532861381, 5.705608845371955], [7.391441821782678, 5.689754485681021], [7.392855769178482, 5.688793144587976], [7.404486945815961, 5.691243209006927], [7.417466416641844, 5.692906830685729], [7.430237351772405, 5.698228480759838], [7.443100373883169, 5.701918942305383], [7.449480293980457, 5.703862051692397], [7.453875681017905, 5.703759984935402], [7.460142050015634, 5.703474984383092], [7.472430551928483, 5.698939429910808], [7.478683299794511, 5.685683922075384], [7.490165310380803, 5.689512111195029], [7.482710174335125, 5.663979080370325], [7.490798999674155, 5.664940999727378], [7.504491999806021, 5.670009999661829], [7.522528999713643, 5.672698999559259], [7.535011999803999, 5.674331000175584], [7.546555999759619, 5.674827999712477], [7.546696999966628, 5.683581999609657], [7.54592500033857, 5.69280999978173], [7.547822999731693, 5.696234000298944], [7.54592500033857, 5.707096000280217], [7.543877242240967, 5.711829384918246], [7.555706332681154, 5.742571649661954], [7.555393013376943, 5.748995683304202], [7.545883222332918, 5.791693403128079], [7.535427766278417, 5.814889005123518], [7.532185999884064, 5.813322000310109], [7.527224000387378, 5.820319000121799], [7.528734999920346, 5.828126999561448], [7.527677999739922, 5.83413699972283], [7.534576807973338, 5.834697727917842]]]}}, {"type": "Feature", "properties": {"name": "Isiala-Ngwa North", "state": "ab"}, "geometry": {"type": "Polygon", "coordinates": [[[7.36286886660497, 5.460214031252576], [7.35597419705158, 5.446313857898247], [7.336299419282795, 5.4320983894292], [7.323980331427208, 5.410081863387347], [7.321912765761567, 5.382541656372382], [7.313356875719307, 5.36336994226906], [7.311897755377174, 5.361371039841686], [7.308726310570819, 5.359957694991692], [7.305711746200188, 5.358143329850861], [7.300609582866002, 5.342437317828001], [7.305656052984489, 5.338026914810314], [7.305262033915767, 5.335988235368802], [7.320392830564742, 5.328913217570971], [7.327973889683335, 5.32854025882591], [7.352184634713183, 5.333839424949531], [7.358602779594662, 5.339971516172568], [7.359950491921722, 5.34184046386639], [7.36225395335731, 5.343743380752471], [7.365456092924376, 5.343801167589845], [7.370674175272995, 5.345766134999167], [7.371652132240172, 5.345404692072918], [7.373366489172213, 5.34477108281925], [7.372789674803698, 5.344807702313688], [7.371439528011877, 5.344374962934239], [7.369613368262378, 5.343645075859627], [7.369137354405439, 5.335350904720542], [7.379494250159553, 5.323802533160404], [7.379748124276546, 5.323773683808497], [7.380054108710169, 5.326859625571331], [7.380376442818601, 5.330080094221046], [7.386038792955958, 5.329178601211538], [7.391452553392696, 5.331319645984934], [7.395407650342861, 5.335471434559111], [7.404307524772491, 5.327653913996983], [7.421928671870774, 5.325692161663994], [7.440548005286246, 5.33740497426021], [7.451591512738162, 5.340624555279078], [7.479327221574067, 5.333533399147086], [7.487834878277056, 5.339773500746503], [7.497700092185539, 5.354015885025149], [7.500983268762866, 5.350383867721348], [7.511941208420069, 5.341507937741198], [7.504807371363142, 5.33201146026073], [7.499650558026872, 5.330763866759071], [7.492640831908886, 5.325299916058327], [7.492402912664318, 5.318554497991727], [7.499223103963118, 5.309452070156965], [7.509584118612224, 5.304559117909037], [7.509970848675778, 5.304297436777347], [7.526863082665159, 5.303542585422008], [7.530765716764449, 5.315764706575976], [7.530004231110411, 5.326529387321443], [7.528295181077794, 5.33422032290963], [7.520755659845861, 5.340969902139307], [7.527128115570122, 5.351656677313883], [7.526968305143214, 5.35621987424787], [7.526916708339456, 5.361966930629421], [7.5249325179214, 5.366725680645686], [7.512073469015434, 5.375917117081315], [7.514179067909708, 5.381503889093267], [7.504961499873389, 5.410665651098952], [7.510406714098622, 5.4237085151359], [7.510114876000785, 5.426601846398114], [7.51003959375231, 5.431183117906642], [7.490080007886093, 5.440309083697286], [7.486356630254306, 5.440473826905645], [7.477442441315645, 5.438069511898505], [7.454355702253906, 5.446593431042061], [7.450526022957661, 5.44519694578247], [7.442400421642219, 5.4470983050428], [7.437025545192796, 5.445377636668638], [7.429754148735014, 5.443049833283226], [7.385805480038925, 5.45508031700308], [7.369448233848971, 5.453882037825849], [7.368328639954825, 5.454959537152945], [7.36286886660497, 5.460214031252576]]]}}, {"type": "Feature", "properties": {"name": "Osisioma Ngwa", "state": "ab"}, "geometry": {"type": "Polygon", "coordinates": [[[7.256077815338983, 5.07795710473664], [7.272040446209701, 5.076477476254581], [7.284161856784294, 5.089867186321612], [7.295792921006523, 5.081671098842207], [7.307349884689472, 5.065130277640264], [7.315904440137842, 5.062581682598648], [7.321512961354131, 5.072073111285079], [7.318342264783723, 5.08198969087158], [7.323020020057925, 5.083054201290395], [7.326051535749798, 5.083732703801275], [7.328215351357414, 5.084825485307931], [7.324683657025219, 5.090662347988996], [7.317112478757963, 5.088170154828845], [7.321485778445947, 5.099889552261061], [7.32786740095986, 5.100411477407818], [7.327787057326873, 5.101718722940745], [7.327797094660241, 5.106823611220705], [7.323361269606949, 5.106408931127305], [7.319703237614362, 5.113550871975235], [7.328883590805106, 5.120341570906817], [7.335822891912983, 5.118712943647495], [7.346924919149728, 5.125356383989981], [7.347625559372091, 5.129763590817106], [7.352283073605008, 5.132818698424217], [7.349845595198133, 5.135221366772726], [7.354638226273153, 5.139500641441487], [7.361523675976912, 5.134861118146148], [7.371191382576285, 5.142907449619145], [7.364515808557769, 5.166536801831967], [7.365130239768803, 5.169704681725705], [7.367018590335704, 5.17124061855975], [7.371908052314836, 5.173107342230082], [7.377873241057273, 5.174967034101371], [7.382632971334601, 5.179301091871935], [7.384266566448957, 5.181793706814176], [7.383394080172707, 5.1854777669854], [7.381918573283599, 5.193068279777322], [7.379701024982353, 5.200363233076814], [7.386452615995495, 5.228758968751436], [7.384933379571862, 5.230064636873522], [7.381788239935361, 5.232010536856819], [7.381285332751929, 5.23638344893709], [7.385748796669702, 5.23843798882217], [7.386905099091109, 5.245229669813455], [7.398197476832138, 5.252111879259871], [7.398712768579458, 5.253357680412648], [7.398204628241047, 5.255542124669375], [7.388291295207182, 5.257115047921161], [7.37996446968458, 5.256511327635735], [7.37670209442615, 5.257870810289717], [7.377003335835354, 5.264168559331608], [7.378706344222451, 5.267056873276147], [7.383428204947734, 5.273452221243076], [7.386832653304339, 5.276547322600891], [7.380664040613055, 5.281714391805792], [7.33464146423222, 5.275053000095909], [7.331635768975616, 5.271289279776511], [7.328753054210154, 5.267679554867584], [7.331355864881289, 5.263126064316452], [7.336140383172221, 5.259813372888914], [7.332959377673205, 5.246095939076383], [7.30760226143525, 5.253905085151587], [7.305649907916973, 5.248087146904368], [7.305194234926034, 5.242085481659672], [7.304687508321877, 5.240805872293208], [7.306863840693723, 5.229193484291898], [7.303478850968247, 5.226988761222401], [7.28233759910097, 5.213218967981049], [7.271048931063376, 5.211805561977144], [7.286756991741811, 5.191782950722654], [7.290813923423855, 5.182426929359337], [7.292564869273349, 5.172623158032366], [7.287724971630212, 5.147019863176183], [7.28021812366751, 5.131694794079522], [7.279316663932946, 5.122850561604196], [7.278979301253798, 5.119540691349869], [7.27869892141814, 5.116788863914962], [7.256077815338983, 5.07795710473664]]]}}, {"type": "Feature", "properties": {"name": "Arochukwu", "state": "ab"}, "geometry": {"type": "Polygon", "coordinates": [[[7.880370140269804, 5.366795539982206], [7.97269821165321, 5.354471207280426], [7.97726392668892, 5.354492186665141], [7.982965945921705, 5.355668068226805], [7.985239029157924, 5.357976913004165], [7.986370086710167, 5.36028099137468], [7.987501144262467, 5.362585067946554], [7.984013081438604, 5.376361847121586], [7.980556965231813, 5.383243084400874], [7.978248118655813, 5.388978957712766], [7.973660945796041, 5.393556118420179], [7.956337929352003, 5.437153816795274], [7.934503078054661, 5.469237804381237], [7.91291240528335, 5.525071922231461], [7.90083400028891, 5.513385000217625], [7.897100999911288, 5.525970999661979], [7.888220999599525, 5.548040000245862], [7.887265999626209, 5.558384999767952], [7.879326000394656, 5.554211999784002], [7.874616999974592, 5.548299999645337], [7.871950000192385, 5.540282000414038], [7.872657000420304, 5.526904999566113], [7.86706799988832, 5.509488000370993], [7.847469999940586, 5.510051000253497], [7.836607999959256, 5.508851999819967], [7.824801999612646, 5.506288000291022], [7.811812652432025, 5.499533517058239], [7.807479109073654, 5.5047601231812], [7.805500960301117, 5.516922338694997], [7.793620866609729, 5.526194684437201], [7.785245843720759, 5.531428218937208], [7.760380187195949, 5.535091338394579], [7.75659600010539, 5.553756000339206], [7.805284721912415, 5.574080227120817], [7.802108179748757, 5.575541739659627], [7.799142124809237, 5.576906408703849], [7.78903453731408, 5.574756695365238], [7.774191487747032, 5.580618551105317], [7.767643946610917, 5.614874005730826], [7.754285827928641, 5.610706898104922], [7.746552580137518, 5.607732572100588], [7.741237522993345, 5.606058455333482], [7.725993999923219, 5.630082000184188], [7.706956168792203, 5.64239176296951], [7.700144700017916, 5.633952306353876], [7.692303520990777, 5.625439244725385], [7.68712063630835, 5.621868097135007], [7.670349862056526, 5.61683220664105], [7.664240126180914, 5.615919492790397], [7.648908488436064, 5.6141939392989], [7.632261097571643, 5.584212290564778], [7.637309000310154, 5.580890999819815], [7.628016999884665, 5.576903000273319], [7.620377000098529, 5.57518900037212], [7.614557999751923, 5.572062000061294], [7.614676999843709, 5.565147000433797], [7.618918000265523, 5.556317999775899], [7.622467000251902, 5.547503999809805], [7.631248999641684, 5.534220999699414], [7.634109000230239, 5.525647000009087], [7.641508999740608, 5.513375999802577], [7.645444999587085, 5.525876999823709], [7.660502999713742, 5.529082000134224], [7.67366999987064, 5.52954900008632], [7.751385212157857, 5.514488220155272], [7.760076999653847, 5.505323886588144], [7.761395930977471, 5.488019942966048], [7.778172015726, 5.473149776141327], [7.792839049982206, 5.439794064444584], [7.79860591932777, 5.436378002243032], [7.809011936052059, 5.427803992660188], [7.821098803666928, 5.423285007297295], [7.85608387017453, 5.422412872655968], [7.865297794157925, 5.418447971296871], [7.872947216141142, 5.398887158315745], [7.875703723647973, 5.394809047599495], [7.876439094788452, 5.39372110444549], [7.883984089294358, 5.384547233568014], [7.8761119843806, 5.368900775550401], [7.877982615605276, 5.367052077891117], [7.880370140269804, 5.366795539982206]]]}}, {"type": "Feature", "properties": {"name": "Umuahia North", "state": "ab"}, "geometry": {"type": "Polygon", "coordinates": [[[7.529511593285463, 5.480034616104717], [7.534454364377439, 5.483603624207944], [7.535633021247008, 5.488925349825081], [7.538070041898948, 5.496086978631183], [7.544172200986338, 5.499448605768578], [7.551256465613449, 5.499640316047817], [7.560661649315705, 5.500313109662329], [7.57128331267478, 5.503224618021761], [7.570502916976068, 5.521192848571161], [7.570559609338545, 5.521924815777652], [7.578078965971542, 5.532154368429417], [7.579756992990895, 5.550986376220351], [7.581740278690972, 5.559258447419438], [7.585627642301915, 5.570533005094148], [7.579915028156051, 5.576690780055515], [7.57472632486008, 5.584963886374283], [7.546370042443527, 5.595876153961399], [7.544332556402424, 5.596129026233598], [7.534702383907927, 5.59377156140846], [7.521895020838599, 5.608655880864262], [7.516039854255894, 5.615948245015545], [7.515600437410285, 5.618955136370516], [7.516578476215727, 5.6278678342332], [7.515443953575641, 5.633023774327796], [7.502421452887802, 5.640949993247659], [7.501879354148912, 5.641632852973828], [7.499742358123399, 5.64353662241723], [7.470852580782037, 5.648480342294022], [7.472749340010068, 5.673590474121113], [7.472495238364615, 5.675302099812086], [7.47800358229955, 5.682625639861442], [7.478683299794511, 5.685683922075384], [7.472430551928483, 5.698939429910808], [7.460142050015634, 5.703474984383092], [7.453875681017905, 5.703759984935402], [7.449480293980457, 5.703862051692397], [7.443100373883169, 5.701918942305383], [7.430237351772405, 5.698228480759838], [7.417466416641844, 5.692906830685729], [7.404486945815961, 5.691243209006927], [7.392855769178482, 5.688793144587976], [7.408195972066494, 5.677010059866404], [7.415196418979576, 5.663758756361574], [7.417584419385491, 5.648530005555358], [7.432285786160151, 5.609393119896595], [7.425965308552179, 5.585613250850884], [7.415235043062808, 5.575928688258387], [7.414919853168726, 5.573634623838871], [7.415176421654564, 5.571039861200688], [7.437476280006365, 5.566249386699894], [7.439921991706626, 5.561725208651524], [7.448145504911167, 5.557681845940465], [7.449134981294378, 5.55763779624732], [7.451579396172235, 5.550320635988612], [7.459587939931509, 5.543629424558333], [7.451737234385917, 5.537247569120041], [7.452434268326897, 5.532447265928624], [7.451577055236953, 5.530341699409973], [7.449338017635455, 5.528879215603354], [7.451267380884985, 5.522363562628357], [7.455057768801055, 5.519769575205771], [7.454297492735122, 5.514908821385063], [7.463538818161965, 5.504026830373959], [7.463332655777492, 5.503474998272623], [7.487232322613636, 5.491874734931116], [7.492951812076512, 5.491962326200451], [7.494803598007707, 5.493395135976812], [7.496467066801756, 5.493848680272436], [7.498123279865524, 5.501759387685638], [7.498374734806191, 5.50296043587548], [7.510494135396073, 5.502916200022639], [7.520934185164549, 5.486176315684475], [7.526979109598301, 5.481992635351901], [7.529511593285463, 5.480034616104717]]]}}, {"type": "Feature", "properties": {"name": "Ugwunagbo", "state": "ab"}, "geometry": {"type": "Polygon", "coordinates": [[[7.378860797387915, 5.081320633040832], [7.377439417994765, 5.072473861779372], [7.370664671237648, 5.070251359113001], [7.367786478263383, 5.062928552910421], [7.368822829110343, 5.053752481391939], [7.360182159978763, 5.040690758571714], [7.34760415640676, 5.043051039174145], [7.346035052575644, 5.040361432234363], [7.334789784021382, 5.04075394943527], [7.334139556195623, 5.042573947030064], [7.333259585761311, 5.043952212924353], [7.336963677431811, 5.047374687292006], [7.335055951870743, 5.055862154215106], [7.325698734409116, 5.055151626846168], [7.318231658064633, 5.065328206731408], [7.317675817684915, 5.064978167208722], [7.316565545263757, 5.063695124230662], [7.315904440137842, 5.062581682598648], [7.307349884689472, 5.065130277640264], [7.303266636146361, 5.055401452215278], [7.302588961911113, 5.054874372154586], [7.301990304808783, 5.055539994575156], [7.292609449566498, 5.050262165766412], [7.290594136310403, 5.032769029966801], [7.285552225754657, 5.021421152364326], [7.27582461261585, 5.010021781380146], [7.272584956030926, 5.006131744984089], [7.270446519291454, 5.003499171249814], [7.278898616777781, 5.000741414584638], [7.284654137578457, 4.989069424914078], [7.289834577004171, 4.987623720658235], [7.285465639927395, 4.98268057005231], [7.295003859440612, 4.973820220826553], [7.293815999808601, 4.967578000424453], [7.295082999780675, 4.960412000013832], [7.296563999728846, 4.958768999789584], [7.298029999884648, 4.957137000072521], [7.311168632726265, 4.968926042802707], [7.319948852357697, 4.974277470329014], [7.326551833100666, 4.974787437190514], [7.334572969167255, 4.97413103821691], [7.339354620419442, 4.9734993283314], [7.3439954027657, 4.976540768042071], [7.343691836609025, 4.9827980287061], [7.351992158211601, 4.995103186962581], [7.356085612261268, 4.995104604294113], [7.359692804679241, 4.993917128672592], [7.366028958369782, 4.984639925692079], [7.369852151755424, 4.97910004702959], [7.391578530424908, 4.972417305414353], [7.414415908167655, 4.980833768163905], [7.418403083035912, 5.001617274217892], [7.415857239919717, 5.005579834641708], [7.415777559087132, 5.00690102776025], [7.41559893484299, 5.009862807322747], [7.426401078646904, 5.029659165338273], [7.419148362906697, 5.039137495399132], [7.41203351683339, 5.044994227701523], [7.412700724758679, 5.046392778703819], [7.383781812980317, 5.046665525093943], [7.382360104435293, 5.065133776902314], [7.389438454221306, 5.067399492892321], [7.39317599617533, 5.076375101030123], [7.386927831254468, 5.078457249202756], [7.382605221853566, 5.079878616005374], [7.378860797387915, 5.081320633040832]]]}}, {"type": "Feature", "properties": {"name": "Ikwuano", "state": "ab"}, "geometry": {"type": "Polygon", "coordinates": [[[7.658100858367959, 5.446245655112932], [7.65729242630448, 5.459014609037013], [7.642403084135083, 5.472880725065465], [7.629648640772189, 5.467777253217719], [7.606227174944195, 5.475022816649698], [7.600664510159049, 5.48533492796463], [7.587076822437439, 5.488740522057469], [7.583765415241771, 5.490850361255241], [7.578281560745495, 5.493637995197389], [7.57128331267478, 5.503224618021761], [7.560661649315705, 5.500313109662329], [7.551256465613449, 5.499640316047817], [7.544172200986338, 5.499448605768578], [7.538070041898948, 5.496086978631183], [7.505002687923763, 5.414020225752893], [7.514179067909708, 5.381503889093267], [7.512073469015434, 5.375917117081315], [7.5249325179214, 5.366725680645686], [7.526916708339456, 5.361966930629421], [7.526968305143214, 5.35621987424787], [7.527128115570122, 5.351656677313883], [7.520755659845861, 5.340969902139307], [7.528295181077794, 5.33422032290963], [7.530004231110411, 5.326529387321443], [7.530765716764449, 5.315764706575976], [7.526863082665159, 5.303542585422008], [7.5349561222273, 5.295500302696837], [7.539398209260014, 5.294913194688206], [7.538529873355003, 5.296339034718699], [7.535634995258874, 5.299201012017136], [7.534471035110244, 5.30092287109369], [7.535016060243038, 5.303812980984333], [7.53784799568848, 5.307299137245423], [7.540698050674564, 5.30905294473763], [7.543559073792267, 5.30965423595427], [7.556207180417118, 5.306293010813874], [7.572082996133418, 5.32431316372157], [7.591633796962185, 5.318698883246896], [7.603020190729239, 5.326870918358225], [7.609962939837828, 5.320579051781863], [7.625466823834927, 5.318396091406555], [7.648910999343173, 5.324934006199499], [7.66251707100605, 5.340625763068545], [7.670481371717983, 5.351851376939521], [7.667626017926409, 5.356610298726366], [7.664770665034212, 5.360655381840445], [7.660895999850538, 5.36712400027244], [7.652848000135123, 5.369106999988105], [7.638470999936771, 5.365197999588077], [7.624836999827721, 5.364508000144156], [7.619643000424162, 5.37174900041606], [7.621983999561962, 5.388088000261064], [7.630078999646173, 5.402103999999667], [7.632672999659235, 5.406592000120781], [7.636445999183536, 5.425255775333824], [7.658100858367959, 5.446245655112932]]]}}]}