{"type": "FeatureCollection", "features": [{"type": "Feature", "properties": {"name": "Onitsha South", "state": "an"}, "geometry": {"type": "Polygon", "coordinates": [[[6.790597504371362, 6.131723850974993], [6.792389740793965, 6.132937379956161], [6.785181099927854, 6.140034364594271], [6.791432737131174, 6.142483273384414], [6.788504269356622, 6.153038644118169], [6.778299403994367, 6.150860770308327], [6.774276294015806, 6.15497883340646], [6.773085790376967, 6.155314619574085], [6.770756060643748, 6.152474431050223], [6.768030166958681, 6.152656077915708], [6.764783858987926, 6.155804634076674], [6.757916736568177, 6.134914213020579], [6.767558876341127, 6.13113654511551], [6.776387609001006, 6.12808295196669], [6.778954330777765, 6.127158274434862], [6.790597504371362, 6.131723850974993]]]}}, {"type": "Feature", "properties": {"name": "Anambra West", "state": "an"}, "geometry": {"type": "Polygon", "coordinates": [[[6.661695818407338, 6.557928405671419], [6.673863887608377, 6.468333243584368], [6.675435146215079, 6.465829282795198], [6.681765079295019, 6.455741882382029], [6.699773788329708, 6.381690025174578], [6.707312106268716, 6.368577003226164], [6.712247588355581, 6.354946854913464], [6.712820052703307, 6.353365898017842], [6.723134636254485, 6.265575642901638], [6.726152896838755, 6.259857178665925], [6.731006144917728, 6.239092827272202], [6.742698193067213, 6.209370135623317], [6.746167058063349, 6.20412848384251], [6.75120166162742, 6.196520910012055], [6.753652095667746, 6.192818164626658], [6.76258828472163, 6.185627974251645], [6.781198811975628, 6.18548596860262], [6.785922245615211, 6.206476127171584], [6.786634091390226, 6.210275323947087], [6.783955305992606, 6.220820323699002], [6.782172537632562, 6.238922164726148], [6.784161635651003, 6.255777897931694], [6.826119584851028, 6.29343055417678], [6.837173608974922, 6.333790446771729], [6.835462477911051, 6.338640130837405], [6.832676032872655, 6.341870731249287], [6.833167623886766, 6.34532792574322], [6.833888369352792, 6.347747727076012], [6.831382395880894, 6.350662911863935], [6.826924389049339, 6.359661156836978], [6.830181103974837, 6.374200479268779], [6.843903209765358, 6.377481593700622], [6.847368135730903, 6.380225043051325], [6.849389935796921, 6.38657899702315], [6.852546212637662, 6.390061827591296], [6.854557017592356, 6.404768869088059], [6.851384671665301, 6.420999647215979], [6.851008988873787, 6.434691289371528], [6.848648592258769, 6.450420708049307], [6.845089560334998, 6.464411837036721], [6.835901424411247, 6.478393375653809], [6.835802284947533, 6.489270958188229], [6.837490264763971, 6.499797270927388], [6.843184423022763, 6.51939643100053], [6.844755605187061, 6.529987964373106], [6.858279709940689, 6.558272026732709], [6.858206446670238, 6.558774819702194], [6.856465545348669, 6.560626091221195], [6.821155340646499, 6.57934309910479], [6.808571363777446, 6.589365769914423], [6.808122635351367, 6.580162525380274], [6.793305873867041, 6.572318553958155], [6.764108181247593, 6.56360292363604], [6.715736329268225, 6.560348269956762], [6.672033235745289, 6.5675242519427], [6.661695818407338, 6.557928405671419]]]}}, {"type": "Feature", "properties": {"name": "Idemili South", "state": "an"}, "geometry": {"type": "Polygon", "coordinates": [[[6.971863828952564, 6.028657254728557], [6.963907012398749, 6.032252595880664], [6.957530999855805, 6.040109999576885], [6.962721599822032, 6.045764403304645], [6.975168463353953, 6.048827794567103], [6.975780209189338, 6.05349604760454], [6.968295612252746, 6.061719466380339], [6.967847335286365, 6.067687612093664], [6.968644307289026, 6.075788995565745], [6.976743648400713, 6.085174716140273], [6.976006073021892, 6.091686826685759], [6.969922475941587, 6.097079358625535], [6.961715593000292, 6.092458452195842], [6.951622636575451, 6.098039956878551], [6.944405570860454, 6.093045217562803], [6.935827876755184, 6.097832064198428], [6.929185780899104, 6.092013937093554], [6.929944823095184, 6.090820425222489], [6.931610443067541, 6.08795693796236], [6.929358288854019, 6.086862713943162], [6.927728344987202, 6.086188930175013], [6.926171388298997, 6.086013606442805], [6.917135372699363, 6.089968815808277], [6.917817248567189, 6.091000908365288], [6.918799426952035, 6.092051990107279], [6.919663875987112, 6.093527996120201], [6.915980455233864, 6.096833510058502], [6.914517654865904, 6.09670457965268], [6.912578791178305, 6.095885613830035], [6.91164434790835, 6.09467608773133], [6.90763529883003, 6.097430351429637], [6.904139384025427, 6.099188067375451], [6.893229565292245, 6.092192319420064], [6.89345159711354, 6.087982761095589], [6.886330290310696, 6.081855982167895], [6.877901978993179, 6.078416269595209], [6.873687108373417, 6.080220272747454], [6.874517731208357, 6.084093489123291], [6.864777565332417, 6.07799764327666], [6.846621130061123, 6.073818841766183], [6.845293013062133, 6.097004698707906], [6.826227195928425, 6.097949309712931], [6.812546094726542, 6.093683538364644], [6.787815367085557, 6.079317526083003], [6.782313036917174, 6.076571270847523], [6.777519322159037, 6.056487647786753], [6.785106986798041, 6.054708504593862], [6.804304847790547, 6.051899072883941], [6.809307330269121, 6.050161098855654], [6.816222482781427, 6.045537396433758], [6.821202707039333, 6.041880030838797], [6.830868412647192, 6.041240701896925], [6.834460626856469, 6.041071575392948], [6.865296089243145, 6.049646253172114], [6.864017652592622, 6.051173914444632], [6.86301329602685, 6.052329140377594], [6.867104315611698, 6.057403600096109], [6.878938123895352, 6.053691296716011], [6.880638855199038, 6.058837729177924], [6.881284491086433, 6.058661495331819], [6.882697280155412, 6.05806744095969], [6.884107873079927, 6.057912468885377], [6.887078151235755, 6.070278524734192], [6.891386659266971, 6.071137539166159], [6.900763817396296, 6.067171493869409], [6.902781992295161, 6.059041016429831], [6.921369871022762, 6.049493042869699], [6.919367898309929, 6.046509872932347], [6.918517186419081, 6.044985883591721], [6.924262294869038, 6.036543661560756], [6.925588207629744, 6.02386815978781], [6.931010846173649, 6.017628070778869], [6.950171915901251, 6.019167169629213], [6.955300519303591, 6.024061695690762], [6.958044128733604, 6.022529927214407], [6.958823813967911, 6.022168314316275], [6.960028877630634, 6.021489092347792], [6.961865940760617, 6.025761410760538], [6.967666414173721, 6.017946238328307], [6.968274489875853, 6.018102646619866], [6.970603128731454, 6.018402492281268], [6.970676229224637, 6.022669254682398], [6.970666067784862, 6.023564167352504], [6.973685133262336, 6.02332366525502], [6.971863828952564, 6.028657254728557]]]}}, {"type": "Feature", "properties": {"name": "Nnewi South", "state": "an"}, "geometry": {"type": "Polygon", "coordinates": [[[6.943684939608318, 6.017576075575448], [6.946635986661477, 6.007603250589568], [6.951576541824011, 6.002665284575244], [6.951814932313312, 5.992700210846124], [6.945837627904268, 5.992637528998785], [6.944836165356776, 5.982203182730757], [6.954950266641561, 5.975842029685964], [6.952498564557175, 5.971209971662915], [6.951417174762867, 5.969497441253964], [6.946192884394122, 5.975375865204057], [6.940890442040313, 5.972866473409056], [6.936201182638513, 5.975545242618921], [6.925479588412315, 5.968425732661501], [6.920907380271444, 5.979889996925863], [6.911070188338556, 5.978372023150371], [6.909933859859791, 5.977891989323894], [6.910468274791072, 5.975571038772443], [6.902189565695949, 5.982432443302685], [6.898403651007754, 5.979906360989844], [6.895940759558471, 5.978570634827008], [6.895427496681691, 5.978246461604954], [6.890599289325792, 5.98136920002861], [6.883981062376165, 5.975315649297841], [6.878001473689096, 5.977393943875484], [6.869292495652189, 5.967613422721342], [6.873019163004017, 5.964079391051087], [6.871246743142706, 5.963037962631915], [6.871951318798381, 5.957458118997067], [6.868122171900779, 5.950746545116999], [6.863845301119795, 5.943426725562972], [6.867840529416924, 5.933865456425735], [6.880612887274992, 5.929046905989992], [6.8990183726998, 5.912508857397881], [6.925986993105312, 5.910975741737161], [6.930176403917983, 5.901688939393068], [6.937064065054585, 5.903164438188298], [6.942083168803265, 5.895292417810879], [6.948961808840465, 5.902341569308021], [6.948129626581078, 5.905645592170401], [6.953449347609364, 5.904311759080485], [6.955428466750391, 5.905071241044993], [6.955778190611056, 5.906997979173468], [6.971981354156242, 5.902374104081673], [6.981258761282845, 5.904750487944739], [6.99373183825378, 5.895229012908658], [7.003111839140104, 5.905193329408689], [7.025525569649346, 5.909841060816348], [7.036722700192513, 5.916715022580263], [7.029204763589007, 5.925390082686192], [7.028969168192589, 5.931314806433193], [7.053315507604623, 5.949301389447612], [7.051886072084585, 5.951756874979822], [7.05709489231549, 5.956408350265178], [7.054124534119978, 5.967171254849575], [7.046375691185233, 5.969730452898148], [7.04590324583819, 5.983115032332933], [7.03260980190089, 5.987109054639234], [7.015753242218409, 5.985678179304557], [7.014529245128585, 5.987544294133897], [7.014098192877327, 5.990663127701225], [7.013674186814342, 5.993329288415964], [6.998269642829825, 5.996005790434936], [6.995731463736092, 6.010643987030448], [6.997083571049984, 6.023356058835077], [6.997990379052794, 6.02315254495403], [6.999083865627938, 6.023113600712179], [7.001197398341333, 6.023794096120696], [6.998717399988095, 6.03383199065388], [6.996776531711646, 6.032806232921359], [6.995520978310537, 6.032988404091611], [6.993622706422798, 6.032540717080451], [6.993168802398372, 6.036848903154407], [6.988455222630478, 6.031893534359199], [6.971863828952564, 6.028657254728557], [6.973685133262336, 6.02332366525502], [6.970666067784862, 6.023564167352504], [6.970676229224637, 6.022669254682398], [6.970603128731454, 6.018402492281268], [6.968274489875853, 6.018102646619866], [6.967666414173721, 6.017946238328307], [6.961865940760617, 6.025761410760538], [6.960028877630634, 6.021489092347792], [6.958823813967911, 6.022168314316275], [6.958044128733604, 6.022529927214407], [6.955300519303591, 6.024061695690762], [6.943684939608318, 6.017576075575448]]]}}, {"type": "Feature", "properties": {"name": "Oyi", "state": "an"}, "geometry": {"type": "Polygon", "coordinates": [[[6.808351040668015, 6.205097954806831], [6.804631726173284, 6.187815296338897], [6.798474516885506, 6.180208066948751], [6.809065975614317, 6.179901200280199], [6.811635623785037, 6.172976648053918], [6.820305535272269, 6.169213904398191], [6.831872162170612, 6.17516805216394], [6.842923016184272, 6.170358097448286], [6.848384018907382, 6.179557572024351], [6.859150215010459, 6.163222518404552], [6.86614522821975, 6.160108051045768], [6.877262346979762, 6.162548319149664], [6.882815148900022, 6.160095163760843], [6.887753347838782, 6.165150147761153], [6.889259730252377, 6.157016353621884], [6.901832512360613, 6.159643102447262], [6.902505021789352, 6.163057750015184], [6.9033661523261, 6.165070334728227], [6.903991765707474, 6.165107678176867], [6.908380449198432, 6.16605139255779], [6.909353474283478, 6.166352624074364], [6.906817318664366, 6.181850593230365], [6.910223267090146, 6.180475965093763], [6.911208211789585, 6.184246110169909], [6.913500426303699, 6.184045636896656], [6.92189589527942, 6.186800185680056], [6.929858025927217, 6.211905151801375], [6.94599928104202, 6.211636471246209], [6.952440719263848, 6.219002500664942], [6.956090380366788, 6.219606673309386], [6.959201976190286, 6.219947573022125], [6.958995070965784, 6.227695977987025], [6.957138446681995, 6.231127086745687], [6.957300501816746, 6.23796070672131], [6.964646985370109, 6.245696752303331], [6.964868627784995, 6.252161714991189], [6.96309740761933, 6.257011292936852], [6.961201631350264, 6.267914527733296], [6.967480150188806, 6.275076167331292], [6.966719614218846, 6.282925907904371], [6.947248519403672, 6.282923618230427], [6.930836621412993, 6.29557936909265], [6.911353036813239, 6.281461075967911], [6.910413259664267, 6.28138688999303], [6.901190638337312, 6.275420775848147], [6.898161826007538, 6.270671377881854], [6.891598320106425, 6.260095416270474], [6.878622445669407, 6.250248199594807], [6.862799722329385, 6.248854388918971], [6.845334203810523, 6.241272756032913], [6.841752301227757, 6.237418952422786], [6.820547273937564, 6.231961841965472], [6.820384059576725, 6.229154232282042], [6.820333062620819, 6.228797803076191], [6.821628672725126, 6.226369212669056], [6.817641519440599, 6.215388350192256], [6.821627136683048, 6.208449519429848], [6.817141058413142, 6.206063672000937], [6.817823144722411, 6.203503168136763], [6.817831841166594, 6.202053854002202], [6.816358398221553, 6.20112569159744], [6.808351040668015, 6.205097954806831]]]}}, {"type": "Feature", "properties": {"name": "Ayamelum", "state": "an"}, "geometry": {"type": "Polygon", "coordinates": [[[6.939323224986879, 6.703344310891282], [6.94233085918188, 6.702848046999804], [6.943624927848191, 6.698354768757611], [6.945170277886064, 6.680429534795223], [6.941852114083872, 6.67667498396338], [6.938281218303644, 6.676722703789778], [6.935440963229894, 6.679820502214454], [6.933140574777724, 6.679877339367749], [6.932084092606829, 6.67828223523702], [6.932013813286915, 6.672430545433372], [6.941798423658383, 6.662442868143899], [6.938901448343188, 6.658484594788263], [6.936285415839336, 6.657823450991543], [6.93627580658324, 6.655248058850873], [6.938079622676469, 6.650978109252378], [6.938502286051687, 6.646954208769785], [6.934163997870257, 6.637221643963755], [6.941373821344826, 6.625106435113935], [6.942338158978885, 6.622537024364249], [6.931094221421233, 6.609303649743708], [6.926066835815845, 6.596057592883653], [6.917578492953112, 6.591163564147223], [6.914972051718848, 6.586350092183068], [6.916710655272595, 6.582673724812594], [6.92347066034273, 6.577313784303726], [6.923591980685387, 6.573568013553029], [6.920698656617731, 6.570935060304862], [6.914185975902114, 6.569161483016103], [6.909826682255641, 6.57180823905901], [6.907009736710052, 6.572198036710063], [6.905052591603862, 6.570934905621471], [6.90482234537501, 6.565715003045], [6.899844918008625, 6.554887122442778], [6.904275600738458, 6.548362062559193], [6.910677340187135, 6.515916546611379], [6.908455791701499, 6.512060852626291], [6.908398243184422, 6.511392302013178], [6.893297501878237, 6.492584898774112], [6.893276155570163, 6.485593515228572], [6.893254236393943, 6.472790386167446], [6.892480807743141, 6.455475662371953], [6.895695249136509, 6.434097884309949], [6.891808676928918, 6.4119826711634], [6.908695597723693, 6.396589410972581], [6.927771877570137, 6.406686976422861], [6.953254024753505, 6.419793099671836], [6.983626079080352, 6.429705652993562], [7.008364405093289, 6.437779521707625], [7.024422538569354, 6.45039010501938], [7.029859244308739, 6.451178839232114], [7.031846694769172, 6.450784071927444], [7.036256312678745, 6.47383070032663], [7.045408249091452, 6.471216202066103], [7.049659251773107, 6.474356650838786], [7.046279429552101, 6.512179851818757], [7.0484585759026, 6.527432441853762], [7.055431365964807, 6.545300007689264], [7.063275337386983, 6.554887295112621], [7.078092097971989, 6.557501793373092], [7.082911570212843, 6.561288440109479], [7.082997554393671, 6.561355997181579], [7.08419434879022, 6.562295437084799], [7.088551044295286, 6.568832397697065], [7.092037200556433, 6.575804710219245], [7.10946846030123, 6.593236445705429], [7.128643036047322, 6.635507583808021], [7.131693840398441, 6.64335155523014], [7.13256549839906, 6.652067661293586], [7.129078864597943, 6.659475803265764], [7.116877078914115, 6.666448593327971], [7.112667760708632, 6.66897415673202], [7.101624488879111, 6.675600052200707], [7.090293883655875, 6.677342891561239], [7.070247649909163, 6.685623169074063], [7.060660361586486, 6.684315680724126], [7.0506377222531, 6.682572364722887], [7.016646385022682, 6.706104754730688], [7.007494450408615, 6.708719731430506], [6.997133686670338, 6.71144626273491], [6.990934848664381, 6.713077545692215], [6.982655047792264, 6.713077545692215], [6.96870946856717, 6.711334228791657], [6.956507682883284, 6.710027217981747], [6.943870067749458, 6.706104754730688], [6.939323224986879, 6.703344310891282]]]}}, {"type": "Feature", "properties": {"name": "Orumba North", "state": "an"}, "geometry": {"type": "Polygon", "coordinates": [[[7.150612371963462, 6.228644272615156], [7.138696553603097, 6.211103954783709], [7.150726738748062, 6.178302478176875], [7.150109854186496, 6.176410313585166], [7.123144331046092, 6.154631850679436], [7.108543281847005, 6.150748710284802], [7.107254079412257, 6.145068216325171], [7.100165818197979, 6.140986821284798], [7.094015224323186, 6.121114541602878], [7.086460739271729, 6.112147198234652], [7.076700087738914, 6.116878682605147], [7.076452318219935, 6.116031746068302], [7.076407917791244, 6.111277563708654], [7.075801587673197, 6.109046503993], [7.067185551871773, 6.094718195788175], [7.067735089802625, 6.079391186853854], [7.069937623022952, 6.078311569623281], [7.071970099840257, 6.077783856439851], [7.074196296022308, 6.078752462256375], [7.073646818346049, 6.066867153396458], [7.061780715407735, 6.057052496675453], [7.062212130985131, 6.055755194047038], [7.063066570565809, 6.05437399456423], [7.044505583366004, 6.052895388611319], [7.044229486101926, 6.052350786159877], [7.046682097400947, 6.050411703037696], [7.047206370677486, 6.049820488724606], [7.04190241206669, 6.048251286867469], [7.040398133167344, 6.043926749320065], [7.035176354605142, 6.044106634413708], [7.034826219754279, 6.044143574066766], [7.034437646979882, 6.044150158902767], [7.033321511878341, 6.036707492856578], [7.041100143956555, 6.040276557617062], [7.043360887594929, 6.034412074957345], [7.051625807385165, 6.037480554583965], [7.053839351005308, 6.029872693869777], [7.07392588697013, 6.025456299568646], [7.074356044395984, 6.034286091629895], [7.067809155268321, 6.043211564362252], [7.08155662823583, 6.044495054303354], [7.081626455196783, 6.044038725706685], [7.082029122146309, 6.043336159136459], [7.082522617025177, 6.039780111163225], [7.095369145569634, 6.049248734841285], [7.098724963086624, 6.043104116062182], [7.09663704126649, 6.038256852971415], [7.103093955022075, 6.0298291639848], [7.11737129864656, 6.025602244248205], [7.120252700401863, 6.030595452917851], [7.132401562781922, 6.030796256242297], [7.134574112605264, 6.02298615418772], [7.128064402350333, 6.012916241991036], [7.138503970082184, 6.005180479695412], [7.144496331840287, 6.009254089304818], [7.148471280425326, 6.012756029567186], [7.146061716075394, 6.016067817176065], [7.161568460815886, 6.025952044551275], [7.167343510394744, 6.033332516182725], [7.178720375844705, 6.038222425124843], [7.179685947348617, 6.0380350046118], [7.18066990908909, 6.036587106909508], [7.182287888375413, 6.031445546974453], [7.183692499909, 6.031353444705758], [7.188503999659929, 6.029516000263243], [7.187185786894588, 6.046684889995731], [7.193909855955155, 6.045747541915603], [7.195713892382287, 6.04812162801079], [7.200495438413782, 6.042699412148181], [7.204677207687041, 6.047158841707244], [7.209404357325297, 6.046957771284156], [7.210216012558988, 6.050348569730772], [7.218214013565898, 6.048271455962947], [7.221813139964468, 6.050838577938066], [7.222526172844653, 6.051120507305598], [7.22464969342866, 6.051863656682485], [7.235628605275963, 6.051989554574334], [7.244344711339409, 6.049375058112503], [7.253496170212145, 6.051989554574334], [7.264390469344733, 6.054168700924834], [7.270818552634125, 6.078984653718862], [7.262754803991072, 6.079352674286554], [7.261300592148643, 6.079419043354221], [7.259596824733705, 6.087724208705311], [7.259524858285602, 6.087979362557576], [7.254803181022055, 6.104719639000166], [7.249721050086464, 6.106487751108887], [7.248377800195385, 6.108726025185945], [7.239712715369592, 6.114240169748086], [7.236537534779472, 6.118392282977538], [7.229471683771237, 6.127632140710773], [7.223957539209096, 6.142599582704634], [7.221594334011343, 6.157567023799174], [7.223957539209096, 6.191440104677156], [7.218442917106984, 6.196166991713369], [7.208990097215235, 6.202468873140049], [7.204263686819729, 6.208770751868769], [7.199536799783516, 6.234766961426203], [7.189296245725188, 6.239493370023069], [7.150612371963462, 6.228644272615156]]]}}, {"type": "Feature", "properties": {"name": "Idemili North", "state": "an"}, "geometry": {"type": "Polygon", "coordinates": [[[6.963529497688228, 6.093192342152918], [6.965346299991779, 6.09953302662791], [6.969939162862147, 6.101272034876558], [6.969397163948031, 6.123437603762454], [6.977895009047472, 6.129591070071854], [6.97931495042468, 6.131984781172775], [6.978492146295537, 6.137723070962977], [6.962357701746612, 6.158844240069698], [6.947678812627146, 6.158467725405274], [6.940305015763897, 6.153142448365372], [6.915802962336898, 6.150673344399365], [6.911094050949714, 6.14018783480077], [6.90083981820311, 6.140896743390044], [6.897164414905887, 6.142195080238821], [6.893610716861133, 6.142975761921946], [6.891198155970187, 6.14334754615237], [6.887753347838782, 6.165150147761153], [6.882815148900022, 6.160095163760843], [6.877262346979762, 6.162548319149664], [6.86614522821975, 6.160108051045768], [6.859150215010459, 6.163222518404552], [6.848384018907382, 6.179557572024351], [6.843023864359907, 6.170390847159922], [6.831872162170612, 6.17516805216394], [6.820305535272269, 6.169213904398191], [6.826668003125917, 6.15379599558878], [6.827626366563607, 6.1535788929516], [6.828378357175495, 6.152176949706529], [6.83521288276836, 6.155048990418607], [6.835714188259203, 6.154196354877911], [6.836436087555455, 6.153567538111417], [6.837276912299728, 6.152333336414415], [6.832788018252472, 6.143356870323373], [6.83430331834353, 6.132374478999054], [6.828451236435455, 6.128168642069227], [6.824464263015386, 6.120785093857023], [6.820566548207694, 6.118708428850937], [6.810840970234665, 6.120699538652843], [6.808937376159008, 6.118225018070177], [6.807676511361933, 6.119371781382654], [6.806737506730599, 6.12036052032181], [6.805339364020483, 6.121604439193561], [6.803299801444723, 6.115290044599931], [6.792751291638865, 6.111872477832662], [6.797896873342097, 6.103300945881983], [6.813771162908893, 6.092881886290058], [6.81811380290975, 6.095612627320918], [6.826227195928425, 6.097949309712931], [6.845293013062133, 6.097004698707906], [6.846621130061123, 6.073818841766183], [6.864777565332417, 6.07799764327666], [6.874517731208357, 6.084093489123291], [6.873687108373417, 6.080220272747454], [6.877901978993179, 6.078416269595209], [6.886330290310696, 6.081855982167895], [6.89345159711354, 6.087982761095589], [6.893229565292245, 6.092192319420064], [6.904139384025427, 6.099188067375451], [6.90763529883003, 6.097430351429637], [6.91164434790835, 6.09467608773133], [6.912578791178305, 6.095885613830035], [6.914517654865904, 6.09670457965268], [6.915980455233864, 6.096833510058502], [6.919663875987112, 6.093527996120201], [6.918799426952035, 6.092051990107279], [6.917817248567189, 6.091000908365288], [6.917135372699363, 6.089968815808277], [6.926171388298997, 6.086013606442805], [6.927728344987202, 6.086188930175013], [6.929358288854019, 6.086862713943162], [6.931610443067541, 6.08795693796236], [6.929944823095184, 6.090820425222489], [6.929185780899104, 6.092013937093554], [6.935827876755184, 6.097832064198428], [6.944405570860454, 6.093045217562803], [6.951622636575451, 6.098039956878551], [6.963529497688228, 6.093192342152918]]]}}, {"type": "Feature", "properties": {"name": "Anaocha", "state": "an"}, "geometry": {"type": "Polygon", "coordinates": [[[6.971863828952564, 6.028657254728557], [6.988455222630478, 6.031893534359199], [6.992905195818196, 6.036860136586085], [6.993622706422798, 6.032540717080451], [7.008042678926529, 6.039198303758781], [7.015136810015804, 6.035330938372169], [7.019327112056601, 6.036654259286706], [7.028178181178191, 6.045992083767715], [7.030518947391556, 6.055015053801753], [7.035497934182388, 6.051386387371906], [7.038080623422104, 6.059162952808094], [7.039675250912126, 6.058974750784159], [7.040534777957703, 6.059351018135033], [7.040875609321972, 6.059501911783855], [7.043852753801616, 6.058788071312506], [7.044229486101926, 6.052350786159877], [7.063066570565809, 6.05437399456423], [7.062212130985131, 6.055755194047038], [7.061780715407735, 6.057052496675453], [7.073646818346049, 6.066867153396458], [7.074196296022308, 6.078752462256375], [7.071970099840257, 6.077783856439851], [7.069937623022952, 6.078311569623281], [7.067735089802625, 6.079391186853854], [7.067185551871773, 6.094718195788175], [7.075801587673197, 6.109046503993], [7.076407917791244, 6.111277563708654], [7.076452318219935, 6.116031746068302], [7.076700087738914, 6.116878682605147], [7.064805877389404, 6.117982673261793], [7.06225993894509, 6.128411700039976], [7.059854155345022, 6.132875398680767], [7.055345149758921, 6.125528958294865], [7.051382154063219, 6.1317860732687], [7.045592741411951, 6.130064394955923], [7.034831208293667, 6.138626959766441], [7.034658017753372, 6.138570253914111], [7.034720767049805, 6.137641574399197], [7.034808841255085, 6.136355691362098], [7.02742098888757, 6.138105773862435], [7.020656730923463, 6.135616272373113], [7.012441170423699, 6.140777108376881], [7.015271578820375, 6.157034185379416], [7.01074306064379, 6.163588422867463], [7.016288621222941, 6.165173092164537], [7.014943176086774, 6.169303811421798], [7.006776893938536, 6.166533093727367], [7.008735317880678, 6.148550266281802], [6.999378238015311, 6.13252234103328], [6.97931495042468, 6.131984781172775], [6.977895009047472, 6.129591070071854], [6.969397163948031, 6.123437603762454], [6.969939162862147, 6.101272034876558], [6.962465326313804, 6.095104379063912], [6.963053893022789, 6.094308386422938], [6.963529497688228, 6.093192342152918], [6.969922475941587, 6.097079358625535], [6.976006073021892, 6.091686826685759], [6.976743648400713, 6.085174716140273], [6.968644307289026, 6.075788995565745], [6.967847335286365, 6.067687612093664], [6.975376799399839, 6.049807900014628], [6.962054804685522, 6.0454056619418], [6.957530999855805, 6.040109999576885], [6.963907012398749, 6.032252595880664], [6.971863828952564, 6.028657254728557]]]}}, {"type": "Feature", "properties": {"name": "Nnewi North", "state": "an"}, "geometry": {"type": "Polygon", "coordinates": [[[6.876121833955494, 6.055082018220617], [6.866471448298739, 6.033374906626705], [6.864073256775441, 6.016814848926174], [6.870750095240737, 6.01897836955618], [6.873790474650718, 6.014278944217949], [6.864834667785715, 6.010252165904774], [6.866771474723805, 6.009160767555443], [6.867787162747391, 6.008520692176262], [6.8690448781187, 6.007505582416741], [6.86194848433513, 5.996843435176459], [6.863508014883053, 5.988823077023426], [6.874229304239066, 5.989467345041987], [6.879622251665637, 5.975314573708658], [6.883981062376165, 5.975315649297841], [6.890599289325792, 5.98136920002861], [6.895427496681691, 5.978246461604954], [6.895940759558471, 5.978570634827008], [6.898403651007754, 5.979906360989844], [6.902189565695949, 5.982432443302685], [6.910468274791072, 5.975571038772443], [6.909933859859791, 5.977891989323894], [6.911070188338556, 5.978372023150371], [6.920907380271444, 5.979889996925863], [6.925479588412315, 5.968425732661501], [6.936201182638513, 5.975545242618921], [6.940890442040313, 5.972866473409056], [6.946192884394122, 5.975375865204057], [6.951417174762867, 5.969497441253964], [6.952498564557175, 5.971209971662915], [6.954950266641561, 5.975842029685964], [6.944836165356776, 5.982203182730757], [6.945837627904268, 5.992637528998785], [6.951814932313312, 5.992700210846124], [6.950949309662974, 6.004819754428183], [6.946635986661477, 6.007603250589568], [6.943766959577545, 6.019066852053641], [6.931010846173649, 6.017628070778869], [6.925588207629744, 6.02386815978781], [6.924262294869038, 6.036543661560756], [6.918517186419081, 6.044985883591721], [6.919367898309929, 6.046509872932347], [6.921369871022762, 6.049493042869699], [6.902781992295161, 6.059041016429831], [6.900763817396296, 6.067171493869409], [6.891386659266971, 6.071137539166159], [6.887078151235755, 6.070278524734192], [6.884107873079927, 6.057912468885377], [6.882697280155412, 6.05806744095969], [6.881284491086433, 6.058661495331819], [6.880638855199038, 6.058837729177924], [6.878938123895352, 6.053691296716011], [6.878015081331, 6.05415562658095], [6.877288321199103, 6.054599761270026], [6.876121833955494, 6.055082018220617]]]}}, {"type": "Feature", "properties": {"name": "Njikoka", "state": "an"}, "geometry": {"type": "Polygon", "coordinates": [[[6.97931495042468, 6.131984781172775], [6.999378238015311, 6.13252234103328], [7.008735317880678, 6.148550266281802], [7.006776893938536, 6.166533093727367], [7.0161921167728, 6.168364313961945], [7.016731281023851, 6.174283150746874], [7.024758965054218, 6.175899624568046], [7.029523379000807, 6.172066295822958], [7.040779426829147, 6.172280160001435], [7.039611880184168, 6.183778075098132], [7.027732051792782, 6.197928743816533], [7.030228126426948, 6.202337564027403], [7.026112951051914, 6.201607250674101], [7.022042611377458, 6.200915586585097], [7.026975979158181, 6.219019356658009], [7.030639147178931, 6.217329928033791], [7.033016079628396, 6.216322947246283], [7.036104784108545, 6.223944008209457], [7.030745409273266, 6.224192096088416], [7.027931631139893, 6.236727231676468], [7.02757242662625, 6.236809825413161], [7.018358499944839, 6.236939180298975], [7.010330231355169, 6.241082079074715], [7.000736792568944, 6.236803179423248], [6.995400369331605, 6.230548393693482], [6.990963732190551, 6.210048418699614], [7.0004106462344, 6.203771932328834], [7.002125175836227, 6.202231751594127], [6.986762969235713, 6.184498950066541], [6.953143328102158, 6.183852431944217], [6.953297353190351, 6.182930855274776], [6.952565224105854, 6.181360102087069], [6.949956968039714, 6.17677027802597], [6.960268633290866, 6.168646908827839], [6.953415785809909, 6.165398945205197], [6.953451478103261, 6.16225805576471], [6.953165941555028, 6.161115914967525], [6.953446351068294, 6.15905892982579], [6.962357701746612, 6.158844240069698], [6.978492146295537, 6.137723070962977], [6.97931495042468, 6.131984781172775]]]}}, {"type": "Feature", "properties": {"name": "Dunukofia", "state": "an"}, "geometry": {"type": "Polygon", "coordinates": [[[6.889259730252377, 6.157016353621884], [6.891198155970187, 6.14334754615237], [6.911094050949714, 6.14018783480077], [6.915802962336898, 6.150673344399365], [6.940305015763897, 6.153142448365372], [6.953446351068294, 6.15905892982579], [6.953165941555028, 6.161115914967525], [6.953451478103261, 6.16225805576471], [6.953415785809909, 6.165398945205197], [6.960268633290866, 6.168646908827839], [6.949956968039714, 6.17677027802597], [6.952565224105854, 6.181360102087069], [6.953297353190351, 6.182930855274776], [6.953143328102158, 6.183852431944217], [6.986762969235713, 6.184498950066541], [6.999276558866143, 6.197669463874718], [7.000859755073691, 6.200175370796785], [7.002125175836227, 6.202231751594127], [7.0004106462344, 6.203771932328834], [6.990963732190551, 6.210048418699614], [6.995400369331605, 6.230548393693482], [7.000736792568944, 6.236803179423248], [7.010330231355169, 6.241082079074715], [7.010937405936602, 6.24347010196368], [7.011070648591613, 6.254312288081678], [7.001271730006408, 6.265085819055344], [7.002268319127666, 6.282085578686576], [7.001452205055273, 6.288260465048495], [7.0012133082476, 6.290153135059199], [6.992959632680936, 6.291664829768138], [6.987814674207925, 6.304861711698663], [6.980610447214417, 6.294096640647524], [6.966719614218846, 6.282925907904371], [6.967480150188806, 6.275076167331292], [6.961201631350264, 6.267914527733296], [6.96309740761933, 6.257011292936852], [6.964868627784995, 6.252161714991189], [6.964646985370109, 6.245696752303331], [6.957300501816746, 6.23796070672131], [6.957138446681995, 6.231127086745687], [6.958995070965784, 6.227695977987025], [6.959201976190286, 6.219947573022125], [6.956090380366788, 6.219606673309386], [6.952440719263848, 6.219002500664942], [6.94599928104202, 6.211636471246209], [6.929858025927217, 6.211905151801375], [6.92189589527942, 6.186800185680056], [6.905774349706519, 6.179726139150034], [6.905984897185306, 6.179232405051494], [6.90937268380236, 6.17667821442808], [6.909353474283478, 6.166352624074364], [6.908380449198432, 6.16605139255779], [6.903991765707474, 6.165107678176867], [6.9033661523261, 6.165070334728227], [6.902505021789352, 6.163057750015184], [6.901832512360613, 6.159643102447262], [6.889259730252377, 6.157016353621884]]]}}, {"type": "Feature", "properties": {"name": "Aguata", "state": "an"}, "geometry": {"type": "Polygon", "coordinates": [[[7.036722700192513, 5.916715022580263], [7.053009033040496, 5.929456710858574], [7.075957298090884, 5.93044662521163], [7.14632320385283, 5.917619704585775], [7.188812733321015, 5.899531364181144], [7.195188521932778, 5.904941082165237], [7.202844619583573, 5.920961856904228], [7.194096610070574, 5.927239946766178], [7.19227303407331, 5.931459667429749], [7.18217071300802, 5.927837866424454], [7.177126242981785, 5.929161770998974], [7.155483914051445, 5.94649757220526], [7.163024048620969, 5.958477912425792], [7.159257484645252, 5.965919183623498], [7.153171692319802, 5.965555764886687], [7.152829170230063, 5.973112106138842], [7.152413607002416, 5.978228277313178], [7.158103094182479, 5.988817372623714], [7.147936692824146, 5.991813572838169], [7.138503970082184, 6.005180479695412], [7.12859194376324, 6.012017574651395], [7.134574112605264, 6.02298615418772], [7.132401562781922, 6.030796256242297], [7.120252700401863, 6.030595452917851], [7.11737129864656, 6.025602244248205], [7.103093955022075, 6.0298291639848], [7.09663704126649, 6.038256852971415], [7.098724963086624, 6.043104116062182], [7.095369145569634, 6.049248734841285], [7.082522617025177, 6.039780111163225], [7.082029122146309, 6.043336159136459], [7.081626455196783, 6.044038725706685], [7.08155662823583, 6.044495054303354], [7.067809155268321, 6.043211564362252], [7.074356044395984, 6.034286091629895], [7.07392588697013, 6.025456299568646], [7.053839351005308, 6.029872693869777], [7.051625807385165, 6.037480554583965], [7.043360887594929, 6.034412074957345], [7.042065435771292, 6.040098134821108], [7.032163310988039, 6.037980199926324], [7.034437646979882, 6.044150158902767], [7.034826219754279, 6.044143574066766], [7.035176354605142, 6.044106634413708], [7.040398133167344, 6.043926749320065], [7.04190241206669, 6.048251286867469], [7.047206370677486, 6.049820488724606], [7.042773739116797, 6.054945223243521], [7.043852753801616, 6.058788071312506], [7.040875609321972, 6.059501911783855], [7.040534777957703, 6.059351018135033], [7.039675250912126, 6.058974750784159], [7.038080623422104, 6.059162952808094], [7.035497934182388, 6.051386387371906], [7.030518947391556, 6.055015053801753], [7.028178181178191, 6.045992083767715], [7.019327112056601, 6.036654259286706], [7.015136810015804, 6.035330938372169], [7.008042678926529, 6.039198303758781], [7.00042363873996, 6.03696890509093], [7.001197398341333, 6.023794096120696], [6.999083865627938, 6.023113600712179], [6.997990379052794, 6.02315254495403], [6.997083571049984, 6.023356058835077], [6.995627994036738, 6.009465133209403], [6.998269642829825, 5.996005790434936], [7.013674186814342, 5.993329288415964], [7.014098192877327, 5.990663127701225], [7.014529245128585, 5.987544294133897], [7.015753242218409, 5.985678179304557], [7.039536686968574, 5.986414429082686], [7.040082742724451, 5.985891617204402], [7.0402696083558, 5.985514249982714], [7.041306348609169, 5.982667641198702], [7.04590324583819, 5.983115032332933], [7.046375691185233, 5.969730452898148], [7.054124534119978, 5.967171254849575], [7.05709489231549, 5.956408350265178], [7.051886072084585, 5.951756874979822], [7.053315507604623, 5.949301389447612], [7.028969168192589, 5.931314806433193], [7.029204763589007, 5.925390082686192], [7.036722700192513, 5.916715022580263]]]}}, {"type": "Feature", "properties": {"name": "Onitsha North", "state": "an"}, "geometry": {"type": "Polygon", "coordinates": [[[6.790597504371362, 6.131723850974993], [6.79685530372933, 6.129641297208138], [6.808937376159008, 6.118225018070177], [6.810840970234665, 6.120699538652843], [6.813738861958939, 6.12068611177466], [6.815340005037228, 6.119144152180922], [6.816114058716892, 6.118649770570528], [6.824464263015386, 6.120785093857023], [6.828451236435455, 6.128168642069227], [6.83430331834353, 6.132374478999054], [6.832788018252472, 6.143356870323373], [6.833577533076721, 6.147402215140175], [6.83777091799351, 6.150540847282343], [6.837459307401161, 6.151172999634298], [6.837276912299728, 6.152333336414415], [6.836436087555455, 6.153567538111417], [6.826668003125917, 6.15379599558878], [6.820305535272269, 6.169213904398191], [6.810410391926098, 6.173613899561872], [6.809065975614317, 6.179901200280199], [6.798474516885506, 6.180208066948751], [6.804631726173284, 6.187815296338897], [6.808351040668015, 6.205097954806831], [6.794824698401158, 6.199070463730948], [6.785922245615211, 6.206476127171584], [6.781198811975628, 6.18548596860262], [6.76258828472163, 6.185627974251645], [6.762889384937239, 6.185385704087025], [6.767301082978634, 6.181836129433862], [6.769402026981993, 6.167984008655139], [6.764783858987926, 6.155804634076674], [6.768030166958681, 6.152656077915708], [6.770756060643748, 6.152474431050223], [6.773085790376967, 6.155314619574085], [6.774276294015806, 6.15497883340646], [6.778299403994367, 6.150860770308327], [6.788504269356622, 6.153038644118169], [6.791432737131174, 6.142483273384414], [6.785181099927854, 6.140034364594271], [6.792389740793965, 6.132937379956161], [6.790597504371362, 6.131723850974993]]]}}, {"type": "Feature", "properties": {"name": "Awka North", "state": "an"}, "geometry": {"type": "Polygon", "coordinates": [[[7.160240612714176, 6.303374831982978], [7.160220785360991, 6.303683860621732], [7.16105273559532, 6.311966893657257], [7.161759235800162, 6.315592934966048], [7.158941497951844, 6.322989087176666], [7.152319655727581, 6.328936895621268], [7.141934871996796, 6.359654902951434], [7.142255437138772, 6.371430902813984], [7.141812381636157, 6.379890936817333], [7.143867590616878, 6.388251376300047], [7.137090661205093, 6.395135254888146], [7.130693286166263, 6.399374732757735], [7.115351676738555, 6.401490210704708], [7.113865431044871, 6.403149294404443], [7.099976105313033, 6.418653822316116], [7.089444361568098, 6.426258469752611], [7.063539685907813, 6.427917762994412], [7.063885474335223, 6.431197290122896], [7.063673844972016, 6.434746699300774], [7.064800738663223, 6.437224864835684], [7.03224207271353, 6.442438967684268], [7.03178587991448, 6.44599583044328], [7.031846694769172, 6.450784071927444], [7.029859244308739, 6.451178839232114], [7.024422538569354, 6.45039010501938], [7.008364405093289, 6.437779521707625], [6.983626079080352, 6.429705652993562], [6.953254024753505, 6.419793099671836], [6.9641234621281, 6.407872862942327], [6.969184682027503, 6.3929310983915], [6.963826852227498, 6.362626268387601], [6.974932866158895, 6.342489606010531], [6.975981504442927, 6.337065905367297], [6.977323427833994, 6.334289512051384], [6.976629733075754, 6.329915113391792], [6.975618452629533, 6.327607772280942], [6.980978383245827, 6.316079338690599], [6.987814674207925, 6.304861711698663], [6.992959632680936, 6.291664829768138], [7.0012133082476, 6.290153135059199], [7.001452205055273, 6.288260465048495], [7.002268319127666, 6.282085578686576], [7.001271730006408, 6.265085819055344], [7.010397961996375, 6.25613893616304], [7.011070648591613, 6.254312288081678], [7.010937405936602, 6.24347010196368], [7.010330231355169, 6.241082079074715], [7.018358499944839, 6.236939180298975], [7.033536781697194, 6.235843275446825], [7.0471443291475, 6.247357551010225], [7.04966147669586, 6.247984027740756], [7.052964877227339, 6.245542443928684], [7.056180188265103, 6.244606395368919], [7.06255086692903, 6.256507209440201], [7.070669948159605, 6.259629490108921], [7.079115967128246, 6.26346317138831], [7.087460217914781, 6.271098554954392], [7.095089499580808, 6.268523291416841], [7.096228558401322, 6.262846393846075], [7.097122748016432, 6.260863316788686], [7.099292769845476, 6.260761956898818], [7.10021161257589, 6.260877758102083], [7.10111934598109, 6.260947160583044], [7.103101617245898, 6.25372302979406], [7.125208472992711, 6.222388490436515], [7.129151403014873, 6.222673821040075], [7.128615199332046, 6.221355107352394], [7.128849434054189, 6.218682044340937], [7.12935056327791, 6.216357360703682], [7.131239507397424, 6.216643733621481], [7.13483348157996, 6.215811765400701], [7.1352160513797, 6.215331627252851], [7.135331280614139, 6.213172994438196], [7.13562723311037, 6.211178022947422], [7.13691856963635, 6.210453063258285], [7.138696553603097, 6.211103954783709], [7.150612371963462, 6.228644272615156], [7.150740028929249, 6.229958853918049], [7.143441514314475, 6.23555519471654], [7.145463520325279, 6.240359790372054], [7.143777200657325, 6.24175853562798], [7.143282454821474, 6.243106487174714], [7.142341498661267, 6.24386191679406], [7.148446915093132, 6.251020725326271], [7.149125099243975, 6.262474536770526], [7.145203114432206, 6.274676323353674], [7.142588615272416, 6.289057255388059], [7.145431561117675, 6.291900373903161], [7.150432586694592, 6.296901702551565], [7.160240612714176, 6.303374831982978]]]}}, {"type": "Feature", "properties": {"name": "Ihiala", "state": "an"}, "geometry": {"type": "Polygon", "coordinates": [[[6.867840529416924, 5.933865456425735], [6.835763043030056, 5.916025456609589], [6.82640151331924, 5.906276854193493], [6.81067454889137, 5.912061102038251], [6.814594236834637, 5.921723567388767], [6.800986571573048, 5.927222839862225], [6.787339612233382, 5.904295948099559], [6.78150423073572, 5.901916082960895], [6.767786036996085, 5.899815099387354], [6.761220246817004, 5.892732504801302], [6.759931222448017, 5.885024866104743], [6.748428568823442, 5.889594703632724], [6.742227328728291, 5.873753733947694], [6.759806671740535, 5.852484808926818], [6.767281443583784, 5.835862715991595], [6.775505170827046, 5.829561017127276], [6.784340979352748, 5.808941490757263], [6.787539780636394, 5.804319931419741], [6.800801804060086, 5.784558646064738], [6.804370724029752, 5.786072780634356], [6.81068086572941, 5.787612914604381], [6.819803715369233, 5.783531666153522], [6.848801612804209, 5.764101028239907], [6.865512370799308, 5.747912406732212], [6.876645564940929, 5.744104384909463], [6.883652686622213, 5.754102229934006], [6.885502337562855, 5.787097453784497], [6.891510962660846, 5.80886983907186], [6.908863067676464, 5.820805550435864], [6.948365687826254, 5.838615894208203], [6.99373183825378, 5.895229012908658], [6.981258761282845, 5.904750487944739], [6.971981354156242, 5.902374104081673], [6.955778190611056, 5.906997979173468], [6.955428466750391, 5.905071241044993], [6.953449347609364, 5.904311759080485], [6.948129626581078, 5.905645592170401], [6.948961808840465, 5.902341569308021], [6.942083168803265, 5.895292417810879], [6.937064065054585, 5.903164438188298], [6.930176403917983, 5.901688939393068], [6.925986993105312, 5.910975741737161], [6.8990183726998, 5.912508857397881], [6.880612887274992, 5.929046905989992], [6.867840529416924, 5.933865456425735]]]}}, {"type": "Feature", "properties": {"name": "Ekwusigo", "state": "an"}, "geometry": {"type": "Polygon", "coordinates": [[[6.777519322159037, 6.056487647786753], [6.776531999652093, 6.017137999619024], [6.782677496169583, 6.017640862735675], [6.784677704412559, 6.01554780129004], [6.786636208394327, 6.013703737837261], [6.795281369639554, 6.00616600895421], [6.795719277422791, 6.004970659768162], [6.791881238928056, 6.002184870335554], [6.802801111182362, 5.990836837150368], [6.803298656607751, 5.987979565104922], [6.800371352555942, 5.973496227269095], [6.794947034078405, 5.961774693947007], [6.79886368321246, 5.94992598299774], [6.800986571573048, 5.927222839862225], [6.814594236834637, 5.921723567388767], [6.81067454889137, 5.912061102038251], [6.82640151331924, 5.906276854193493], [6.835763043030056, 5.916025456609589], [6.868550316643848, 5.934584163128648], [6.863845301119795, 5.943426725562972], [6.868122171900779, 5.950746545116999], [6.871951318798381, 5.957458118997067], [6.871246743142706, 5.963037962631915], [6.873019163004017, 5.964079391051087], [6.869755185153736, 5.968953246195383], [6.878001473689096, 5.977393943875484], [6.874229304239066, 5.989467345041987], [6.863508014883053, 5.988823077023426], [6.86194848433513, 5.996843435176459], [6.8690448781187, 6.007505582416741], [6.867787162747391, 6.008520692176262], [6.866771474723805, 6.009160767555443], [6.864834667785715, 6.010252165904774], [6.873790474650718, 6.014278944217949], [6.870750095240737, 6.01897836955618], [6.864073256775441, 6.016814848926174], [6.868268914279042, 6.039250292666907], [6.875203591072932, 6.048526150261694], [6.876121833955494, 6.055082018220617], [6.867104315611698, 6.057403600096109], [6.86301329602685, 6.052329140377594], [6.864017652592622, 6.051173914444632], [6.865296089243145, 6.049646253172114], [6.834460626856469, 6.041071575392948], [6.830868412647192, 6.041240701896925], [6.821202707039333, 6.041880030838797], [6.816222482781427, 6.045537396433758], [6.809307330269121, 6.050161098855654], [6.804304847790547, 6.051899072883941], [6.785106986798041, 6.054708504593862], [6.777519322159037, 6.056487647786753]]]}}, {"type": "Feature", "properties": {"name": "Anambra East", "state": "an"}, "geometry": {"type": "Polygon", "coordinates": [[[6.808571363777446, 6.589365769914423], [6.821155340646499, 6.57934309910479], [6.856465545348669, 6.560626091221195], [6.858206446670238, 6.558774819702194], [6.858279709940689, 6.558272026732709], [6.844755605187061, 6.529987964373106], [6.843184423022763, 6.51939643100053], [6.837490264763971, 6.499797270927388], [6.835802284947533, 6.489270958188229], [6.835901424411247, 6.478393375653809], [6.845089560334998, 6.464411837036721], [6.848648592258769, 6.450420708049307], [6.851008988873787, 6.434691289371528], [6.851384671665301, 6.420999647215979], [6.854557017592356, 6.404768869088059], [6.852546212637662, 6.390061827591296], [6.849389935796921, 6.38657899702315], [6.847368135730903, 6.380225043051325], [6.843903209765358, 6.377481593700622], [6.830181103974837, 6.374200479268779], [6.826924389049339, 6.359661156836978], [6.831382395880894, 6.350662911863935], [6.833888369352792, 6.347747727076012], [6.833167623886766, 6.34532792574322], [6.832676032872655, 6.341870731249287], [6.835462477911051, 6.338640130837405], [6.837173608974922, 6.333790446771729], [6.826119584851028, 6.29343055417678], [6.784161635651003, 6.255777897931694], [6.782172537632562, 6.238922164726148], [6.783955305992606, 6.220820323699002], [6.786634091390226, 6.210275323947087], [6.785922245615211, 6.206476127171584], [6.797733129280516, 6.198952949319221], [6.805899791841966, 6.204846040312532], [6.817831841166594, 6.202053854002202], [6.817823144722411, 6.203503168136763], [6.817141058413142, 6.206063672000937], [6.821627136683048, 6.208449519429848], [6.817641519440599, 6.215388350192256], [6.821628672725126, 6.226369212669056], [6.820333062620819, 6.228797803076191], [6.820384059576725, 6.229154232282042], [6.820547273937564, 6.231961841965472], [6.841752301227757, 6.237418952422786], [6.845334203810523, 6.241272756032913], [6.862799722329385, 6.248854388918971], [6.878622445669407, 6.250248199594807], [6.891598320106425, 6.260095416270474], [6.898161826007538, 6.270671377881854], [6.901190638337312, 6.275420775848147], [6.910413259664267, 6.28138688999303], [6.911353036813239, 6.281461075967911], [6.930836621412993, 6.29557936909265], [6.947248519403672, 6.282923618230427], [6.966719614218846, 6.282925907904371], [6.980610447214417, 6.294096640647524], [6.987814674207925, 6.304861711698663], [6.980978383245827, 6.316079338690599], [6.975618452629533, 6.327607772280942], [6.976629733075754, 6.329915113391792], [6.977323427833994, 6.334289512051384], [6.975981504442927, 6.337065905367297], [6.974932866158895, 6.342489606010531], [6.963826852227498, 6.362626268387601], [6.969184682027503, 6.3929310983915], [6.9641234621281, 6.407872862942327], [6.953254024753505, 6.419793099671836], [6.927771877570137, 6.406686976422861], [6.908695597723693, 6.396589410972581], [6.891808676928918, 6.4119826711634], [6.895695249136509, 6.434097884309949], [6.892480807743141, 6.455475662371953], [6.893254236393943, 6.472790386167446], [6.893276155570163, 6.485593515228572], [6.893297501878237, 6.492584898774112], [6.908398243184422, 6.511392302013178], [6.908455791701499, 6.512060852626291], [6.910677340187135, 6.515916546611379], [6.904275600738458, 6.548362062559193], [6.899844918008625, 6.554887122442778], [6.90482234537501, 6.565715003045], [6.905052591603862, 6.570934905621471], [6.907009736710052, 6.572198036710063], [6.909826682255641, 6.57180823905901], [6.914185975902114, 6.569161483016103], [6.920698656617731, 6.570935060304862], [6.923591980685387, 6.573568013553029], [6.92347066034273, 6.577313784303726], [6.916710655272595, 6.582673724812594], [6.914972051718848, 6.586350092183068], [6.917578492953112, 6.591163564147223], [6.926066835815845, 6.596057592883653], [6.931094221421233, 6.609303649743708], [6.942338158978885, 6.622537024364249], [6.941373821344826, 6.625106435113935], [6.934163997870257, 6.637221643963755], [6.938502286051687, 6.646954208769785], [6.938079622676469, 6.650978109252378], [6.93627580658324, 6.655248058850873], [6.936285415839336, 6.657823450991543], [6.938901448343188, 6.658484594788263], [6.941798423658383, 6.662442868143899], [6.932013813286915, 6.672430545433372], [6.932084092606829, 6.67828223523702], [6.933140574777724, 6.679877339367749], [6.935440963229894, 6.679820502214454], [6.938281218303644, 6.676722703789778], [6.941852114083872, 6.67667498396338], [6.945170277886064, 6.680429534795223], [6.946504477000076, 6.68661118675692], [6.94233085918188, 6.702848046999804], [6.939323224986879, 6.703344310891282], [6.93760288666391, 6.698826333668421], [6.935648665253723, 6.695632849176718], [6.922922389556675, 6.699064654010613], [6.918727963224967, 6.698635678293954], [6.913103616638637, 6.695442192902931], [6.909815110678835, 6.696418646203597], [6.860965587392002, 6.753429071894175], [6.859981059977997, 6.753170013185581], [6.85300826991579, 6.744453907122193], [6.842113495041815, 6.730508803638429], [6.833833694169698, 6.722229003665632], [6.819452763034633, 6.712641716242274], [6.806379317551489, 6.70305442791954], [6.800278187288541, 6.693467139596862], [6.79897069893866, 6.679522037911795], [6.808993815812016, 6.615897178611931], [6.808993815812016, 6.598030090316456], [6.808571363777446, 6.589365769914423]]]}}, {"type": "Feature", "properties": {"name": "Ogbaru", "state": "an"}, "geometry": {"type": "Polygon", "coordinates": [[[6.757916736568177, 6.134914213020579], [6.756189345761754, 6.125429153332789], [6.755804061808078, 6.123312472992268], [6.755330085814876, 6.120709896144831], [6.753343199229334, 6.118430498768532], [6.749240875166322, 6.113724232287552], [6.74166815815903, 6.10864975368321], [6.737713813941411, 6.105999947139878], [6.722111224853165, 6.097548007934279], [6.713315964060541, 6.087072848633113], [6.704537202230142, 6.081095483070158], [6.699099557598572, 6.060996256771887], [6.703152852422249, 6.051150246986367], [6.720231323416897, 6.045729509609203], [6.725514463621664, 6.040748672013649], [6.726493835222357, 6.028930187278377], [6.724527836290633, 6.012269973880223], [6.715875148619261, 5.969895840920344], [6.709439321267723, 5.959330717938315], [6.702993968297051, 5.940621355191411], [6.700139110931275, 5.929344791129267], [6.673549187844799, 5.889146084024617], [6.6673844467349, 5.872970368687618], [6.660915851685274, 5.856529237334485], [6.657929897446877, 5.840404510859514], [6.656049576027158, 5.834293372940863], [6.650763512126446, 5.817113399963489], [6.648280593674485, 5.771679867831665], [6.643630027603763, 5.747325420132086], [6.639077859955307, 5.739461142917435], [6.600627332385557, 5.706621920865018], [6.601873333187825, 5.687458521893291], [6.626002526795219, 5.683523453744442], [6.653137033447365, 5.681609277346297], [6.668868064609569, 5.689925194092496], [6.679419999933089, 5.695760000024052], [6.691257999956804, 5.699708999570703], [6.69259293741419, 5.725047927020285], [6.694906234735015, 5.746217728765203], [6.714305400873627, 5.761296272105312], [6.730119594144014, 5.750690390049499], [6.751369688260581, 5.749550841997802], [6.761678866886257, 5.75784617685963], [6.793964945625817, 5.774196454203036], [6.800801804060086, 5.784558646064738], [6.787539780636394, 5.804319931419741], [6.784340979352748, 5.808941490757263], [6.775505170827046, 5.829561017127276], [6.767281443583784, 5.835862715991595], [6.759806671740535, 5.852484808926818], [6.742227328728291, 5.873753733947694], [6.748428568823442, 5.889594703632724], [6.759931222448017, 5.885024866104743], [6.761220246817004, 5.892732504801302], [6.767786036996085, 5.899815099387354], [6.78150423073572, 5.901916082960895], [6.787339612233382, 5.904295948099559], [6.800986571573048, 5.927222839862225], [6.79886368321246, 5.94992598299774], [6.794947034078405, 5.961774693947007], [6.800371352555942, 5.973496227269095], [6.803298656607751, 5.987979565104922], [6.802801111182362, 5.990836837150368], [6.791881238928056, 6.002184870335554], [6.795719277422791, 6.004970659768162], [6.795281369639554, 6.00616600895421], [6.786636208394327, 6.013703737837261], [6.784677704412559, 6.01554780129004], [6.782677496169583, 6.017640862735675], [6.776531999652093, 6.017137999619024], [6.777519322159037, 6.056487647786753], [6.782313036917174, 6.076571270847523], [6.787815367085557, 6.079317526083003], [6.812546094726542, 6.093683538364644], [6.794214378890501, 6.107981489054509], [6.792909600197959, 6.111199742674046], [6.792853341308728, 6.111490203909852], [6.792751291638865, 6.111872477832662], [6.803299801444723, 6.115290044599931], [6.805339364020483, 6.121604439193561], [6.80424359586533, 6.122642449289629], [6.79685530372933, 6.129641297208138], [6.790597504371362, 6.131723850974993], [6.778954330777765, 6.127158274434862], [6.776387609001006, 6.12808295196669], [6.767558876341127, 6.13113654511551], [6.757916736568177, 6.134914213020579]]]}}, {"type": "Feature", "properties": {"name": "Awka South", "state": "an"}, "geometry": {"type": "Polygon", "coordinates": [[[7.138696553603097, 6.211103954783709], [7.13691856963635, 6.210453063258285], [7.13562723311037, 6.211178022947422], [7.135331280614139, 6.213172994438196], [7.1352160513797, 6.215331627252851], [7.13483348157996, 6.215811765400701], [7.131239507397424, 6.216643733621481], [7.12935056327791, 6.216357360703682], [7.128849434054189, 6.218682044340937], [7.128615199332046, 6.221355107352394], [7.129151403014873, 6.222673821040075], [7.125208472992711, 6.222388490436515], [7.103101617245898, 6.25372302979406], [7.10111934598109, 6.260947160583044], [7.10021161257589, 6.260877758102083], [7.099292769845476, 6.260761956898818], [7.097122748016432, 6.260863316788686], [7.096228558401322, 6.262846393846075], [7.095089499580808, 6.268523291416841], [7.08668530178528, 6.270951525692396], [7.079115967128246, 6.26346317138831], [7.070669948159605, 6.259629490108921], [7.06255086692903, 6.256507209440201], [7.056180188265103, 6.244606395368919], [7.052964877227339, 6.245542443928684], [7.04966147669586, 6.247984027740756], [7.0471443291475, 6.247357551010225], [7.03553772918292, 6.236685594864355], [7.029457536036489, 6.235871684130984], [7.027564350714272, 6.229245190613085], [7.028401052966274, 6.227913189442177], [7.029400787016755, 6.226533311962839], [7.030745409273266, 6.224192096088416], [7.036104784108545, 6.223944008209457], [7.033016079628396, 6.216322947246283], [7.030639147178931, 6.217329928033791], [7.026975979158181, 6.219019356658009], [7.022042611377458, 6.200915586585097], [7.026112951051914, 6.201607250674101], [7.030228126426948, 6.202337564027403], [7.027732051792782, 6.197928743816533], [7.039611880184168, 6.183778075098132], [7.040779426829147, 6.172280160001435], [7.029523379000807, 6.172066295822958], [7.024758965054218, 6.175899624568046], [7.016513904093472, 6.174048503235895], [7.016288621222941, 6.165173092164537], [7.01074306064379, 6.163588422867463], [7.015271578820375, 6.157034185379416], [7.012441170423699, 6.140777108376881], [7.020656730923463, 6.135616272373113], [7.02742098888757, 6.138105773862435], [7.034808841255085, 6.136355691362098], [7.034720767049805, 6.137641574399197], [7.034658017753372, 6.138570253914111], [7.034831208293667, 6.138626959766441], [7.045592741411951, 6.130064394955923], [7.051382154063219, 6.1317860732687], [7.055345149758921, 6.125528958294865], [7.059854155345022, 6.132875398680767], [7.06225993894509, 6.128411700039976], [7.064805877389404, 6.117982673261793], [7.076700087738914, 6.116878682605147], [7.086460739271729, 6.112147198234652], [7.094015224323186, 6.121114541602878], [7.100165818197979, 6.140986821284798], [7.107254079412257, 6.145068216325171], [7.108543281847005, 6.150748710284802], [7.123144331046092, 6.154631850679436], [7.150109854186496, 6.176410313585166], [7.150726738748062, 6.178302478176875], [7.138696553603097, 6.211103954783709]]]}}, {"type": "Feature", "properties": {"name": "Orumba South", "state": "an"}, "geometry": {"type": "Polygon", "coordinates": [[[7.270818552634125, 6.078984653718862], [7.264390469344733, 6.054168700924834], [7.253496170212145, 6.051989554574334], [7.244344711339409, 6.049375058112503], [7.235628605275963, 6.051989554574334], [7.22464969342866, 6.051863656682485], [7.222526172844653, 6.051120507305598], [7.221813139964468, 6.050838577938066], [7.218214013565898, 6.048271455962947], [7.210216012558988, 6.050348569730772], [7.209404357325297, 6.046957771284156], [7.204677207687041, 6.047158841707244], [7.200495438413782, 6.042699412148181], [7.195713892382287, 6.04812162801079], [7.193909855955155, 6.045747541915603], [7.187185786894588, 6.046684889995731], [7.188503999659929, 6.029516000263243], [7.183692499909, 6.031353444705758], [7.182287888375413, 6.031445546974453], [7.18066990908909, 6.036587106909508], [7.179685947348617, 6.0380350046118], [7.178720375844705, 6.038222425124843], [7.167343510394744, 6.033332516182725], [7.161568460815886, 6.025952044551275], [7.146061716075394, 6.016067817176065], [7.148471280425326, 6.012756029567186], [7.144496331840287, 6.009254089304818], [7.138503970082184, 6.005180479695412], [7.147936692824146, 5.991813572838169], [7.158103094182479, 5.988817372623714], [7.152413607002416, 5.978228277313178], [7.152829170230063, 5.973112106138842], [7.153171692319802, 5.965555764886687], [7.159257484645252, 5.965919183623498], [7.163024048620969, 5.958477912425792], [7.155483914051445, 5.94649757220526], [7.177126242981785, 5.929161770998974], [7.18217071300802, 5.927837866424454], [7.19227303407331, 5.931459667429749], [7.194096610070574, 5.927239946766178], [7.202844619583573, 5.920961856904228], [7.217018126585344, 5.930910109713864], [7.245119571710916, 5.931290627260694], [7.256916523079099, 5.934653758963861], [7.259231566883329, 5.936359881703254], [7.260983943554209, 5.938930988574327], [7.254629762053924, 5.965185674978954], [7.259271145147295, 5.977664470738773], [7.264029979699842, 5.991465091840553], [7.27259588189446, 5.997651576758926], [7.318281651377163, 5.998603343669402], [7.322564601575152, 6.00383853921727], [7.339062690590765, 6.042149544166193], [7.328451157195218, 6.042402267150976], [7.310148239449745, 6.045017242052154], [7.303809242102886, 6.045017242052154], [7.301763753894193, 6.046517726711784], [7.299537386840996, 6.048146257743667], [7.29782556329917, 6.050829353591837], [7.297211831760649, 6.052591210915693], [7.297342593186158, 6.056205451320579], [7.309481081886474, 6.078960749738883], [7.284896134349196, 6.077741556827448], [7.270818552634125, 6.078984653718862]]]}}]}