{"type": "FeatureCollection", "features": [{"type": "Feature", "properties": {"name": "Agatu", "state": "be"}, "geometry": {"type": "Polygon", "coordinates": [[[7.750169633621738, 7.751789612100993], [7.792123024158286, 7.764951371908353], [7.795404465044101, 7.775634605552625], [7.80559356259289, 7.789543672302671], [7.846111725975447, 7.792705252445501], [7.847704204985121, 7.795374301782658], [7.914081889967292, 7.780089130209262], [7.938644710584981, 7.796542380826281], [7.977583151841031, 7.785532175269736], [7.968711829087681, 7.766626943778476], [7.97101798759013, 7.753115332406708], [7.974825241391841, 7.742218116772733], [7.998462817005475, 7.719742745831127], [7.999545000001774, 7.709120999734409], [8.026496214928443, 7.702723336912527], [8.034879834436879, 7.733479551040489], [8.038216704137653, 7.736705169208221], [8.089342490663455, 7.748644801616365], [8.102042705806298, 7.757305683010884], [8.117789000262178, 7.774400000059984], [8.127605999717161, 7.782297000006622], [8.135124000172539, 7.79069599972064], [8.14607799989983, 7.797654000431805], [8.157239000179743, 7.802994000272918], [8.167149000326162, 7.802365000044745], [8.174339000044881, 7.804777999804912], [8.186651000343431, 7.810099999715248], [8.198121999630644, 7.820504000159531], [8.206502000267164, 7.825202000072295], [8.215219497581813, 7.834565163851266], [8.191029549374264, 7.848986148991628], [8.18544769305663, 7.852242470913325], [8.183121681120724, 7.853172779100532], [8.180357933172104, 7.852580546754893], [8.175678253348735, 7.85503339817285], [8.159862517741033, 7.859685422044663], [8.139393805879479, 7.861546040217604], [8.11380863236252, 7.863872051254191], [8.095201491955322, 7.868988991348942], [8.072406769057181, 7.877362251566694], [7.994720935822556, 7.922950745880257], [7.980317342671299, 7.93367679085128], [7.972856997752274, 7.939232349193617], [7.931921004850551, 7.957374573377933], [7.903079032771188, 7.969004153718743], [7.892915690906477, 7.974630446438027], [7.877028942132029, 7.983425139758424], [7.867259979064841, 7.986216068816589], [7.838418006985478, 7.985285758830742], [7.810972214396202, 7.991333008011964], [7.782595634281165, 7.998776435783952], [7.760732173750853, 8.003428458756389], [7.676837921133199, 8.014471054295768], [7.664317608171132, 7.935101986067878], [7.663638114607352, 7.905889033751976], [7.669752598004038, 7.884828567984073], [7.692851066923254, 7.838631152605672], [7.693428473045628, 7.837876091708324], [7.728178500837203, 7.79243421566656], [7.744690417828565, 7.768656730723592], [7.750169633621738, 7.751789612100993]]]}}, {"type": "Feature", "properties": {"name": "Okpokwu", "state": "be"}, "geometry": {"type": "Polygon", "coordinates": [[[7.889743210081122, 6.834539936269096], [7.96405145411137, 6.914423966193112], [7.938155000053257, 6.965910999593007], [7.947703999739872, 6.971507999594564], [7.978323999852762, 6.982049000061352], [7.988497999583046, 6.983488999917483], [8.053436000371164, 6.973432000186733], [8.02630900036013, 6.996444000190479], [8.004433999729372, 7.041746000177795], [7.97191178959747, 7.07461656180493], [7.969154307225551, 7.091552128727812], [7.972146188895522, 7.105242447081309], [7.958412965685852, 7.107717375056836], [7.955462074215404, 7.106203153252977], [7.952696166994542, 7.104682978836479], [7.934814103188387, 7.113212971101802], [7.935174172849827, 7.114547030820859], [7.936896345789762, 7.12474541117183], [7.935037565831067, 7.149942910337074], [7.915555236684895, 7.144871936390814], [7.897530502630616, 7.152608071905036], [7.843375903774984, 7.159417610734181], [7.842872367965469, 7.176536865983621], [7.846407852940104, 7.187064474645865], [7.829205029988202, 7.192816547445773], [7.833369053838794, 7.226844710115301], [7.830632620099379, 7.256308648825154], [7.824522054149554, 7.279891938662104], [7.815486849738363, 7.280016833809896], [7.810923284981641, 7.283867246975888], [7.805253638644558, 7.290614718194718], [7.801155285088385, 7.292601656041654], [7.795867408154436, 7.274342614420163], [7.794219444571752, 7.268652196441735], [7.797056197685436, 7.233145237163001], [7.79386520431575, 7.225825309690322], [7.789968967094183, 7.216886044055741], [7.784870359679417, 7.214988727247999], [7.779389874043488, 7.208916560550904], [7.767755885225995, 7.206273519607294], [7.749927141324576, 7.199318096353124], [7.729324444867302, 7.192704225719467], [7.721550695208464, 7.187063131058721], [7.718049202808515, 7.183600029817569], [7.710073687550675, 7.183112262720783], [7.739046039743016, 7.165197466290067], [7.74030512927834, 7.164117438968674], [7.742826630444711, 7.147731016972898], [7.755890161801574, 7.133967598126219], [7.762342260586877, 7.11879344426211], [7.762209156427502, 7.108609632028958], [7.767031726832784, 7.106160749319201], [7.772387536755446, 7.100071875916399], [7.772929457428575, 7.098282931911854], [7.772717039359918, 7.090683132720471], [7.768560478982977, 7.083166206055637], [7.767004372154076, 7.075001359225382], [7.762493207295734, 7.070466604250441], [7.750394956062394, 7.070824494854605], [7.744720513640857, 7.068384369742944], [7.740962959073329, 7.064657999167366], [7.747022000165202, 7.057858000346471], [7.757509999986553, 7.050307000167948], [7.7663241033747, 7.045340852998038], [7.773697610656257, 7.029179637430389], [7.762369109846588, 7.023743044106254], [7.763299108666956, 7.009199326687622], [7.760662220884853, 7.007287288877308], [7.7517572598897, 7.005250518696528], [7.749791874295624, 7.00366238431161], [7.73818572309267, 6.986052872642006], [7.735109626208327, 6.970467063104536], [7.736759401025608, 6.965938916347966], [7.740845789101911, 6.964969528121287], [7.742825413661933, 6.964469055402617], [7.73648371924827, 6.957618692748497], [7.731747250834985, 6.954704944177877], [7.718516999559938, 6.950042999884602], [7.709432207430496, 6.943641650741654], [7.685858361374301, 6.903469837862758], [7.712426707026964, 6.887181675793727], [7.710019687758404, 6.881281871361296], [7.706840671559803, 6.876191524219507], [7.70938809118752, 6.86677601630015], [7.711925623668662, 6.860918930564253], [7.71375657410664, 6.871025968573633], [7.719094670082995, 6.872472403078973], [7.737623294279672, 6.870358495348341], [7.750177383079802, 6.87836217917129], [7.757404299968528, 6.879265508596404], [7.762781619875909, 6.879937649303145], [7.776034355101444, 6.875824928177963], [7.785626410730345, 6.872848033709829], [7.791776023444754, 6.889339760921303], [7.803624837816074, 6.891231445275025], [7.818617992326551, 6.891946633830116], [7.833513654931267, 6.886397394124515], [7.839559538941614, 6.880725384369043], [7.854948521057452, 6.880725384369043], [7.863614081624632, 6.879937649303145], [7.874642371648179, 6.868908881739571], [7.876217841780033, 6.86339473717743], [7.882596969574536, 6.858291625957804], [7.888034344409505, 6.853941917285681], [7.890397548707938, 6.843700885687383], [7.889743210081122, 6.834539936269096]]]}}, {"type": "Feature", "properties": {"name": "Apa", "state": "be"}, "geometry": {"type": "Polygon", "coordinates": [[[7.752635479343951, 7.708192348098407], [7.753994464672871, 7.679658890245662], [7.754673958236651, 7.661315917595573], [7.754673958236651, 7.647728443912627], [7.752448082213277, 7.647782803433699], [7.752448081313958, 7.63973120463146], [7.741043157016122, 7.638731556915843], [7.732554110883541, 7.63901335498241], [7.72425571113223, 7.620496190846552], [7.72625829898135, 7.614466453264242], [7.731815974327787, 7.612703556324107], [7.736204634436376, 7.59938117220338], [7.737407710597438, 7.539083313444223], [7.755783081324182, 7.530394076425523], [7.75529839260679, 7.523608621440758], [7.754532336598118, 7.512884140390838], [7.76412105574218, 7.433673383419944], [7.768290042951151, 7.427002906758787], [7.776211261640469, 7.419498920438855], [7.792887211375728, 7.414913176601885], [7.79218887971308, 7.409864057979917], [7.815919345401539, 7.408826814106249], [7.816634079798973, 7.411250586845142], [7.821511481869436, 7.41638228661327], [7.828319541313817, 7.420463835437715], [7.833370091656434, 7.42250023599712], [7.83595690788502, 7.4253249543832], [7.854799999820159, 7.445901000330934], [7.915712000208714, 7.489340999887304], [7.932206000006943, 7.496432000436528], [7.997240999872304, 7.538189999768747], [8.076825999820073, 7.611871999992843], [8.062683999666888, 7.690540999967197], [7.999545000001774, 7.709120999734409], [7.998462817005475, 7.719742745831127], [7.974825241391841, 7.742218116772733], [7.97101798759013, 7.753115332406708], [7.968711829087681, 7.766626943778476], [7.977583151841031, 7.785532175269736], [7.938644710584981, 7.796542380826281], [7.914081889967292, 7.780089130209262], [7.847704204985121, 7.795374301782658], [7.846111725975447, 7.792705252445501], [7.80559356259289, 7.789543672302671], [7.795404465044101, 7.775634605552625], [7.792123024158286, 7.764951371908353], [7.750169633621738, 7.751789612100993], [7.752635479343951, 7.744198798935486], [7.752635479343951, 7.708192348098407]]]}}, {"type": "Feature", "properties": {"name": "Kwande", "state": "be"}, "geometry": {"type": "Polygon", "coordinates": [[[9.737985610947248, 7.078073026049367], [9.72410640618574, 7.080682676964045], [9.66699934114672, 7.064978234258149], [9.641301163318076, 7.050701467998408], [9.625596719712917, 7.041421569749673], [9.615602983690792, 7.033569348846413], [9.608464600560922, 7.023575612824345], [9.605609246769347, 7.018578744813283], [9.604181571222568, 7.012154200356122], [9.599184703211506, 7.000732786988578], [9.523610351336686, 6.989547228022218], [9.521425050925416, 6.996738290739586], [9.52156892806363, 7.002265309096799], [9.532718981795597, 7.0077306150759], [9.534296512274295, 7.013430364419833], [9.529983475257211, 7.026417660246864], [9.526327848951098, 7.033620331413204], [9.520134551668264, 7.037666469432054], [9.512389599200674, 7.03905175273627], [9.507714060755347, 7.040161955010262], [9.500274772562761, 7.041305137222366], [9.494135065880641, 7.038774115832837], [9.490590978890623, 7.031508717853114], [9.486380609377647, 7.028905445829707], [9.48296211630867, 7.029275008734714], [9.478346505986508, 7.035807709258449], [9.478707227656457, 7.040728640314569], [9.477530391914115, 7.050650007891591], [9.474682936868078, 7.052649978713589], [9.472387536955296, 7.058986886935315], [9.473228770891126, 7.068500142167863], [9.47238226692815, 7.079985082745395], [9.467797463781949, 7.082507647809734], [9.464235149332751, 7.08193763771186], [9.457587752872541, 7.076234932296359], [9.450540382033068, 7.067370067574586], [9.44645714608049, 7.067201639843859], [9.441327887072362, 7.069002594294318], [9.432933062910593, 7.064740995800378], [9.427903196075704, 7.064842131759008], [9.423536658390105, 7.06936005861985], [9.419649283987326, 7.069442521954898], [9.41550407755119, 7.067113467612501], [9.41019440374879, 7.059011594009917], [9.40000145260501, 7.048990116600635], [9.394773608115543, 7.049633579725992], [9.390788572734493, 7.065652574706633], [9.385615532031238, 7.074035295792328], [9.354361668156514, 7.083548284825554], [9.353167490787143, 7.079916209965177], [9.351672553145875, 7.074027899767827], [9.353023959887878, 7.072775195418956], [9.35557948780314, 7.071439420692741], [9.356884397796762, 7.06814211486676], [9.352233159932439, 7.055149645239965], [9.340174265729843, 7.049393726039682], [9.32795098804769, 7.032020101146827], [9.314453182168677, 7.027498183094735], [9.312246031828977, 7.028436040191139], [9.308572437967712, 7.029432655392782], [9.307999324309435, 7.029614555867113], [9.291507892974948, 7.018337848812735], [9.257515509832956, 7.014154789911686], [9.2569129433777, 7.015716031869431], [9.251509885772634, 7.016870558129824], [9.243017229761392, 7.015337450562924], [9.239726587012456, 7.014743417774582], [9.23236049733913, 7.011858532944984], [9.220017361612008, 7.002697991818934], [9.207479312220528, 7.004207181915945], [9.20567605910287, 6.989705675976211], [9.19807420136334, 6.977682141317814], [9.199236707308216, 6.963844907916211], [9.196529419697015, 6.960649200300395], [9.196235567117753, 6.957544758583765], [9.19169757368411, 6.956490572382052], [9.18653234359283, 6.954012774669877], [9.181491510424905, 6.952309267159023], [9.17588122383944, 6.953675679089372], [9.17366755521357, 6.952917297895056], [9.169822046050626, 6.950520065948353], [9.166111819205128, 6.946957239784865], [9.162464371333726, 6.943060578083248], [9.177477999809867, 6.924385000167661], [9.183670000270354, 6.909470000340264], [9.18764300002448, 6.871875999677684], [9.171699018395032, 6.840288615027589], [9.163796916594492, 6.830095895009606], [9.157689275239932, 6.827692991038759], [9.177679709650931, 6.81311316404134], [9.177870184261621, 6.806632919173921], [9.177975161224765, 6.802343007323998], [9.179134628360487, 6.790420113997129], [9.183172379301936, 6.784748860571483], [9.193466223587393, 6.77027729486133], [9.185112582979343, 6.759087975829459], [9.182594840079844, 6.758126341557443], [9.184098030799532, 6.752326453603018], [9.184904610259593, 6.745050878894972], [9.172706754613102, 6.725508441761235], [9.184833526945738, 6.693329811321803], [9.255754470892157, 6.718100071361278], [9.291146278278177, 6.721301078681904], [9.29570102698085, 6.720119953173366], [9.300264358813138, 6.720088958938334], [9.303669930422984, 6.717770100210032], [9.361248016282957, 6.635858058602594], [9.402062416347462, 6.60113382336732], [9.432541847028688, 6.557295799161864], [9.449518203602281, 6.538808822569138], [9.471092223627295, 6.524884223628078], [9.474327086825667, 6.499602795232875], [9.467286110165901, 6.473245145447152], [9.458027683231023, 6.40473021532722], [9.467408519587536, 6.401266129328462], [9.46852874840306, 6.404299735944107], [9.507190786625529, 6.421619816101668], [9.525276184448387, 6.429721832696487], [9.594444275083276, 6.497776985319661], [9.59801375982721, 6.499882084190858], [9.599481695324016, 6.512357233199793], [9.605353341083855, 6.562257027040232], [9.606478690639108, 6.571820736937525], [9.609120637107765, 6.58723291077024], [9.622298241170938, 6.664106369313515], [9.64602947218242, 6.738594055071644], [9.64866638244763, 6.799238681619897], [9.647469716654143, 6.809260050211208], [9.643392562816587, 6.843403816233206], [9.64141464157251, 6.866475581582847], [9.645699501031174, 6.894820213282287], [9.699752808345465, 7.011495589949561], [9.70065629515193, 7.013068895413255], [9.72089952089624, 7.048319831195329], [9.737985610947248, 7.078073026049367]]]}}, {"type": "Feature", "properties": {"name": "Ushongo", "state": "be"}, "geometry": {"type": "Polygon", "coordinates": [[[9.354361668156514, 7.083548284825554], [9.311743247852633, 7.097444080280127], [9.308873361016822, 7.095443416080855], [9.308844696925291, 7.093544023637833], [9.309581351398322, 7.091308621995381], [9.303923128249835, 7.087622582416316], [9.307643591178817, 7.077194873144947], [9.305262621672682, 7.073177354251527], [9.30290489694346, 7.067925479877033], [9.296707962802316, 7.062964743927864], [9.291628338277235, 7.058249014780245], [9.284421293707794, 7.060498944071071], [9.280801424446224, 7.052729476983814], [9.274486787934961, 7.049673708374996], [9.272421909443608, 7.051425890792302], [9.260494426876335, 7.057463930016411], [9.253298170574169, 7.089677454151229], [9.2538228161701, 7.092269354247321], [9.253423694348044, 7.092314379704931], [9.243412870307793, 7.091105689975677], [9.239799337669353, 7.089040152281257], [9.233304073224474, 7.085126116577044], [9.224222363071647, 7.079950079332718], [9.206448502096748, 7.074271430781948], [9.192594578177307, 7.073428396403415], [9.186173195736444, 7.068673984716668], [9.18374642825512, 7.066837956706365], [9.143484986243152, 7.051725972975305], [9.142055359167557, 7.053923372865427], [9.140265310795485, 7.055554036189847], [9.137530259314076, 7.057212303305221], [9.120171832064443, 7.059456556974567], [9.10881136305403, 7.068484484071746], [9.106902444991874, 7.067307185178493], [9.101938155821301, 7.062609303076897], [9.099882713916145, 7.060326442411451], [9.083096011771602, 7.053188858778867], [9.068190579831423, 7.042483523395958], [9.060289442104136, 7.040637012887885], [9.039531330206785, 7.047273789254007], [9.039307774933889, 7.051014006691105], [9.035830738697655, 7.054979184142098], [9.019970598164605, 7.065270254019083], [9.018822316796559, 7.06760204140113], [9.016688936944945, 7.072885580904881], [9.018516109331017, 7.082238235206432], [9.02118377011493, 7.087978209426865], [9.048432921442213, 7.118636301224399], [9.05598923301676, 7.121430664793422], [9.059941480015311, 7.124314145781227], [9.064916972940011, 7.123696590325437], [9.070078409690893, 7.124875239101073], [9.075385928717708, 7.125169017036569], [9.077036399610222, 7.128328321894571], [9.077103282190762, 7.132083633552895], [9.0607930003967, 7.15656699996714], [9.066680000281849, 7.161655999924506], [9.074191999561208, 7.173522000340085], [9.106461671968646, 7.155304019065284], [9.129114140105514, 7.165012220337758], [9.128598532696174, 7.173366012031863], [9.103903343564525, 7.209391214632888], [9.062464138609187, 7.224656581336205], [9.061039268947127, 7.227372753349925], [9.058329462334882, 7.229982172239488], [9.052507147986546, 7.236382317190248], [9.046408141022937, 7.239466980117072], [9.036261342187231, 7.247286821829391], [9.027765930653231, 7.247317551663741], [9.021882254662387, 7.24505980636502], [9.005278278569733, 7.242507010590089], [8.984371774038209, 7.284223177957358], [8.977925283425122, 7.281589054691153], [8.960717282176859, 7.27765239384297], [8.958261155428033, 7.276302442203985], [8.945553063123441, 7.284651362270608], [8.942149630101369, 7.286963684726345], [8.939953463181837, 7.283805200049983], [8.929759396878694, 7.275214360554344], [8.927374089942361, 7.274157566318706], [8.926180249818742, 7.274556889588837], [8.90367106976413, 7.276280573389784], [8.89923032092264, 7.270708213013677], [8.894736732414344, 7.269819859099243], [8.869585124753769, 7.256249584051091], [8.873228523877344, 7.234091073943944], [8.866346426846178, 7.222853889395537], [8.853553066221082, 7.213722295647472], [8.841577424058926, 7.187137687554298], [8.826182986655567, 7.18219339391004], [8.812368818166476, 7.183625256700282], [8.776371087156008, 7.180372303638933], [8.814642271024013, 7.134407273976535], [8.818167196159209, 7.139091108667799], [8.827248935090324, 7.134199642999192], [8.835173375151214, 7.12168460276223], [8.832289236758925, 7.115203355150754], [8.829249971608931, 7.107704843903491], [8.835188202273741, 7.088775220100388], [8.835537180596475, 7.086052420083149], [8.833750251073297, 7.078412298888509], [8.839451592217245, 7.065697300689919], [8.844148826806986, 7.065955132723218], [8.851993380989768, 7.05956196831022], [8.867358282858504, 7.045463409009187], [8.881581686046047, 7.025080370162982], [8.886076985064847, 7.019343968049725], [8.890885758970626, 7.01281422000028], [8.895130282936236, 7.009903346562226], [8.911417499817787, 6.996906610551662], [8.920297355338732, 6.991777549394442], [8.93184323217946, 6.985537901053362], [8.935963903311517, 6.982654936276333], [8.94386622094936, 6.97674672767937], [8.947395470924278, 6.972082768005407], [8.97669074987823, 6.960110025257507], [8.99654491541554, 6.962310098832063], [9.011309240129378, 6.969607089095916], [9.030578556755017, 6.967107544877365], [9.048091355331849, 6.968899763313459], [9.058432000336609, 6.969958000061695], [9.074260001797711, 6.971993496802497], [9.076827863015524, 6.969827748551779], [9.083521758022755, 6.966437840434025], [9.090692292815106, 6.968351031175189], [9.09401010857971, 6.964610900073012], [9.099343194432947, 6.963966647342943], [9.102194497678, 6.963891040439194], [9.105706772049928, 6.962418867336908], [9.11258342368609, 6.968265441796746], [9.12909922035277, 6.967623316862614], [9.134386962388476, 6.963691819022301], [9.142115164982954, 6.96671342328591], [9.14567405211585, 6.946572514310162], [9.162464371333726, 6.943060578083248], [9.166111819205128, 6.946957239784865], [9.169822046050626, 6.950520065948353], [9.17366755521357, 6.952917297895056], [9.17588122383944, 6.953675679089372], [9.181491510424905, 6.952309267159023], [9.18653234359283, 6.954012774669877], [9.19169757368411, 6.956490572382052], [9.196235567117753, 6.957544758583765], [9.196529419697015, 6.960649200300395], [9.199236707308216, 6.963844907916211], [9.19807420136334, 6.977682141317814], [9.20567605910287, 6.989705675976211], [9.207479312220528, 7.004207181915945], [9.220017361612008, 7.002697991818934], [9.23236049733913, 7.011858532944984], [9.239726587012456, 7.014743417774582], [9.243017229761392, 7.015337450562924], [9.251509885772634, 7.016870558129824], [9.2569129433777, 7.015716031869431], [9.257515509832956, 7.014154789911686], [9.291507892974948, 7.018337848812735], [9.307999324309435, 7.029614555867113], [9.308572437967712, 7.029432655392782], [9.312246031828977, 7.028436040191139], [9.314453182168677, 7.027498183094735], [9.32795098804769, 7.032020101146827], [9.340174265729843, 7.049393726039682], [9.352233159932439, 7.055149645239965], [9.356884397796762, 7.06814211486676], [9.35557948780314, 7.071439420692741], [9.353023959887878, 7.072775195418956], [9.351672553145875, 7.074027899767827], [9.353167490787143, 7.079916209965177], [9.354361668156514, 7.083548284825554]]]}}, {"type": "Feature", "properties": {"name": "Logo", "state": "be"}, "geometry": {"type": "Polygon", "coordinates": [[[9.179125786226109, 7.90808343889961], [9.134352826821555, 7.988639704858542], [9.131834910352893, 7.985496549126481], [9.1236709583481, 7.982383300349056], [9.08973870387814, 7.969576865380077], [9.07392530560844, 7.964575846098455], [8.960449543211894, 7.932264454141318], [8.930366319649977, 7.835306769991519], [8.94896553433199, 7.806773958751251], [9.016905376781779, 7.802840611005422], [9.0327584549388, 7.775209184856067], [9.063631595321908, 7.760950360970412], [9.081982536864643, 7.726495773960835], [9.110299622329762, 7.705211254695712], [9.145568058918855, 7.664464873055522], [9.163441569273061, 7.672447325683606], [9.20175833168173, 7.650785154111645], [9.236443942833716, 7.591468782158643], [9.213062712674116, 7.576545192007075], [9.20296500513092, 7.575513199274781], [9.187595853965547, 7.574007268320827], [9.152705504955122, 7.597180037428814], [9.15534963497771, 7.569445673079372], [9.15823774297752, 7.547508665992211], [9.163982005165451, 7.5356969486553], [9.183309865857666, 7.518828464861826], [9.19091473182948, 7.514818406744098], [9.194490281601247, 7.513436484206409], [9.216228909037, 7.508592106140838], [9.223474386134058, 7.511967732125186], [9.2474557725659, 7.491433969602042], [9.267313760221896, 7.458837951210512], [9.294393240056024, 7.466011686690024], [9.302295126019317, 7.462987754980929], [9.327305875565742, 7.475726319014484], [9.365009333613898, 7.479748187928578], [9.37749779258911, 7.483911319651725], [9.4061709484306, 7.471911268989913], [9.415048482801296, 7.472321706081914], [9.43030962269097, 7.473087457220402], [9.438139989169201, 7.472535802285506], [9.440519672644825, 7.475024384667677], [9.444664728894168, 7.479146456044134], [9.449015235264937, 7.483380989441173], [9.467458305156697, 7.48480934307679], [9.470920652765983, 7.497586702964043], [9.48683778243776, 7.50584107190798], [9.477776878100485, 7.519613182702244], [9.480899698362464, 7.52609388172732], [9.48554642432805, 7.533177793820187], [9.512324049415383, 7.536725198409215], [9.52101586568972, 7.547470729890335], [9.521003124094932, 7.547650956726329], [9.512362129408814, 7.547343984837084], [9.506888412969943, 7.541819882081938], [9.504252979391538, 7.544638934739112], [9.508054894817576, 7.549895889383833], [9.501171564815934, 7.557160090365926], [9.485314563816132, 7.593100942854278], [9.488822229162622, 7.602868797956717], [9.483389677391756, 7.613916504343251], [9.48112492637432, 7.617655353012196], [9.459880525865628, 7.627141143848746], [9.45970287738595, 7.628316168356548], [9.464783536131335, 7.635064420186893], [9.46463309664017, 7.641881063660207], [9.4628981101597, 7.644776997560427], [9.45908073179038, 7.659722645383852], [9.455910062199678, 7.663363440970102], [9.455048463116157, 7.66601855711076], [9.451471167760246, 7.670936297372293], [9.451656816608875, 7.705925319997561], [9.444052665598065, 7.715152937058463], [9.446892167939268, 7.733240065176915], [9.377987938392664, 7.717688078242247], [9.379361999956359, 7.729652999586335], [9.376161999876444, 7.746329999729767], [9.381760999970197, 7.752092000145751], [9.378605000120729, 7.763909000100341], [9.381549000086352, 7.777653999932227], [9.378448000075196, 7.782921000004194], [9.379293000371717, 7.794901000280959], [9.38485699975081, 7.805314000240969], [9.380780999743365, 7.81485899974308], [9.385127999657527, 7.830626000189795], [9.386640548722369, 7.844702721253611], [9.378071784885037, 7.843384266570695], [9.314789772330187, 7.834815025193279], [9.272602081420985, 7.822949408788247], [9.268401870649882, 7.822541042834928], [9.22514152506136, 7.818335056617627], [9.19020461994728, 7.810424805160665], [9.174534689624295, 7.804587253598925], [9.156585692875467, 7.79790067727447], [9.130218505779453, 7.788012981214138], [9.12033081061844, 7.79328632420453], [9.115716934189209, 7.808447360557295], [9.124285698026597, 7.826904773736373], [9.140106200940465, 7.848657607762448], [9.149993896101478, 7.859863757606377], [9.162012130155745, 7.868719346720525], [9.162518500628323, 7.869092463746256], [9.170429229625313, 7.882276058193554], [9.17217063906378, 7.88663101171187], [9.174623488683096, 7.887176036844664], [9.17823123868078, 7.888528824046034], [9.18183803629637, 7.891685009155879], [9.183191299239127, 7.895742893220017], [9.18093681308352, 7.903859137988889], [9.179125786226109, 7.90808343889961]]]}}, {"type": "Feature", "properties": {"name": "Guma", "state": "be"}, "geometry": {"type": "Polygon", "coordinates": [[[9.134352826821555, 7.988639704858542], [9.132690430019352, 7.991333961293321], [9.114654540774495, 8.008017539977516], [9.062466620738007, 8.074473382340784], [9.057020187032037, 8.077641487065023], [9.050175667273265, 8.075201987881485], [9.025375366280173, 8.062576294160692], [8.964084069624164, 8.061274176562051], [8.910846710007718, 8.056263923941003], [8.780536652444596, 8.075201987881485], [8.704642773245439, 8.094379558369951], [8.696668624957113, 8.096394538876893], [8.588001250657214, 8.128858565570397], [8.560496330341437, 8.140131949629847], [8.52442455275093, 8.157265663279759], [8.512680054341104, 8.157776833434184], [8.503683090002653, 8.158167838874704], [8.501318229153014, 8.156955077015255], [8.486098289004872, 8.149149895151595], [8.466258048570126, 8.139229774934222], [8.42657852188131, 8.11217594106688], [8.413679835356163, 8.099922120609449], [8.403501369592561, 8.090252525433755], [8.390913337680445, 8.078293828297603], [8.371117592103246, 8.04634380282431], [8.363452911322838, 8.016584396352869], [8.360296248672967, 7.987276077229239], [8.360296248672967, 7.962283598309455], [8.344406738979842, 7.973415652110702], [8.339716166567882, 7.960989481979084], [8.347916116635531, 7.928151386777131], [8.370844288133412, 7.902228233646099], [8.373993544866266, 7.899226581741402], [8.39110648507625, 7.890456929144023], [8.406704139584406, 7.817674504574768], [8.415759319736878, 7.79995769119455], [8.418860808079899, 7.800647589015057], [8.420165200063991, 7.800612044210538], [8.420677249755329, 7.80079182408349], [8.420800705987858, 7.805758181694785], [8.419938316400248, 7.806979756011003], [8.419783551169985, 7.810653812123803], [8.42283120339738, 7.814315862287287], [8.428752742645031, 7.815913318145192], [8.43772509163972, 7.817263732934975], [8.449971911774355, 7.84628160611129], [8.49451520771072, 7.851383087759359], [8.549118358725309, 7.833336980417357], [8.56662239161011, 7.833578739767063], [8.57973878062029, 7.835344459679106], [8.580439091690778, 7.835609362182367], [8.59390622799009, 7.833974606942604], [8.601361314573069, 7.833897088080221], [8.616773069321766, 7.833566568342519], [8.65321751157893, 7.826367987292826], [8.681339757124135, 7.824439642075845], [8.684194898675685, 7.813065414337473], [8.68910952728288, 7.805970754446832], [8.688138382680279, 7.796499086563642], [8.690816433331804, 7.789402624431602], [8.691719905749096, 7.785808681725314], [8.715610195354259, 7.766674347043534], [8.715161130581748, 7.765713515866139], [8.693264768354425, 7.753142857956561], [8.70076279576648, 7.719843422236181], [8.703934761280266, 7.702598475938942], [8.696588999882465, 7.661138000218557], [8.767846999839207, 7.653304999626073], [8.763884371966242, 7.659022858618073], [8.773556147098532, 7.678377263699815], [8.779139801160966, 7.69087776279855], [8.781886435910337, 7.692935944038652], [8.818897753228782, 7.730040916754945], [8.830298133252313, 7.722793241714783], [8.842501092551402, 7.714830970772709], [8.856120229564965, 7.705739983213675], [8.87191629610021, 7.704830871147806], [8.878625286228043, 7.70471224877133], [8.891426756040005, 7.69257780612088], [8.894583967276333, 7.691701917709395], [8.898562431311177, 7.690912034163091], [8.908763256019483, 7.692337975816997], [8.929863596827602, 7.706562700108577], [8.939741035220663, 7.699320406611548], [8.983824818960272, 7.705222349631754], [8.980202276014268, 7.679048059020772], [8.984805672643745, 7.675778097980867], [8.99262087835092, 7.663908708919848], [8.99071564031459, 7.649557676645486], [8.997845463697217, 7.637090669199097], [8.996416941888413, 7.625273024430555], [8.995161696055504, 7.616969730568655], [8.99587581801461, 7.604367946223761], [8.99688515772391, 7.598633513625828], [9.004261601291887, 7.584519815137412], [9.008127222893052, 7.571629786385586], [9.014628046946882, 7.566107409429435], [9.022163307190908, 7.561629538372529], [9.043609171126377, 7.572247635919723], [9.048029740979814, 7.577696721726397], [9.079290546721381, 7.598659679400726], [9.101866049978298, 7.619663201895321], [9.111976824670762, 7.623545934897038], [9.13177220602256, 7.63081057115096], [9.147150732620275, 7.613214656331365], [9.152705504955122, 7.597180037428814], [9.187595853965547, 7.574007268320827], [9.20296500513092, 7.575513199274781], [9.213062712674116, 7.576545192007075], [9.236443942833716, 7.591468782158643], [9.20175833168173, 7.650785154111645], [9.163441569273061, 7.672447325683606], [9.145568058918855, 7.664464873055522], [9.110299622329762, 7.705211254695712], [9.081982536864643, 7.726495773960835], [9.063631595321908, 7.760950360970412], [9.0327584549388, 7.775209184856067], [9.016905376781779, 7.802840611005422], [8.94896553433199, 7.806773958751251], [8.930366319649977, 7.835306769991519], [8.960449543211894, 7.932264454141318], [9.07392530560844, 7.964575846098455], [9.08973870387814, 7.969576865380077], [9.1236709583481, 7.982383300349056], [9.131834910352893, 7.985496549126481], [9.134352826821555, 7.988639704858542]]]}}, {"type": "Feature", "properties": {"name": "Ado", "state": "be"}, "geometry": {"type": "Polygon", "coordinates": [[[7.817716096420781, 6.637506170573374], [7.821776867308643, 6.638922690929519], [7.831766604944903, 6.638468741938937], [7.833582878447146, 6.6262083051692], [7.833582878447146, 6.619396687107496], [7.83676195130306, 6.614855766380572], [7.844027041714639, 6.608498573050781], [7.845239960056176, 6.602786515585251], [7.846200968400012, 6.598260794300245], [7.85583353039317, 6.580799103296044], [7.867057136078017, 6.570736588023181], [7.869002341784721, 6.568992614617514], [7.878084183238514, 6.561727046665908], [7.888164129171287, 6.558842580021121], [7.899586254801875, 6.555954884810149], [7.90667188370054, 6.55244701172029], [7.915643371144711, 6.548692883569743], [7.925299468395792, 6.543769981199716], [7.932869856158959, 6.541549110802862], [7.944760342415918, 6.540019822656745], [7.950778277295683, 6.543111689153193], [7.954186256390642, 6.551826136866794], [7.954156038270582, 6.561854246776136], [7.955248691174233, 6.583411748053777], [7.959155246317607, 6.590753583011519], [7.973248238815245, 6.596771270577733], [7.987066268993146, 6.611223221174782], [7.988428592605487, 6.618034840135806], [7.987066268993146, 6.633473873120806], [7.978288213130554, 6.647921513267249], [7.978831892877622, 6.667121526337439], [7.974600013379984, 6.690289160316524], [7.974455105618688, 6.711260243365587], [7.975701576766426, 6.712410001420494], [7.984430910957826, 6.720462039991219], [7.987260177215433, 6.721696584329948], [8.009328243403786, 6.725019057683426], [8.019998760634337, 6.733300205739965], [8.031993555658119, 6.732458244252598], [8.098546028376575, 6.707036972178571], [8.103995322825938, 6.712031840996701], [8.112169266298622, 6.70930719377202], [8.127608299283622, 6.711577892006176], [8.136236190847569, 6.71611881363242], [8.144409180139576, 6.725200653287573], [8.145318031402098, 6.734736442832627], [8.147133827364314, 6.742909907866022], [8.149063109674842, 6.74708890902599], [8.152583121813677, 6.754716395645175], [8.160303116295836, 6.761074065615674], [8.153208999595677, 6.769867999908342], [8.145974999646569, 6.778975999942475], [8.139331999971887, 6.781852000369554], [8.135723999962693, 6.786984999658046], [8.126100999561515, 6.791063999803782], [8.11863699979773, 6.800176000022418], [8.115596999901697, 6.811980000276833], [8.111792999847125, 6.83347200033262], [8.114569000159293, 6.848173000183863], [8.109941999923421, 6.861615000431982], [8.101891290550668, 6.855043210875522], [8.09903593765847, 6.852187857983324], [8.096561299264579, 6.850855360386618], [8.094099210010597, 6.855987402796472], [8.085300828570439, 6.862186771402435], [8.088091573267548, 6.870434347767002], [8.094269843778306, 6.875014687577846], [8.108849547568639, 6.884087635635922], [8.12348484025324, 6.896064500876037], [8.167276049350221, 6.896944749200884], [8.192671956045956, 6.901074902784558], [8.197483365864684, 6.908933838925577], [8.191917877208311, 6.939448632748224], [8.164571182713985, 6.986170790849371], [8.086767999643541, 6.96915099971892], [7.988497999583046, 6.983488999917483], [7.978323999852762, 6.982049000061352], [7.947703999739872, 6.971507999594564], [7.938155000053257, 6.965910999593007], [7.96405145411137, 6.914423966193112], [7.889743210081122, 6.834539936269096], [7.887640476426895, 6.789345740713429], [7.890003680725329, 6.785407066283142], [7.900244713223003, 6.786194801349041], [7.903395652587335, 6.781468390953535], [7.894730091120834, 6.774378777158915], [7.888428210593474, 6.766500949858994], [7.878187655635827, 6.760199071130273], [7.874870689730585, 6.741040402592546], [7.868490374830969, 6.724916363199668], [7.862674622835641, 6.714140147749674], [7.855954642992401, 6.70009679423174], [7.840501075164525, 6.677670102693128], [7.830824604671818, 6.66194412302292], [7.821488097697625, 6.654562536232106], [7.813979306299984, 6.650145169763846], [7.811020853329751, 6.645724790566703], [7.813017464284599, 6.642103989607506], [7.817716096420781, 6.637506170573374]]]}}, {"type": "Feature", "properties": {"name": "Katsina-Ala", "state": "be"}, "geometry": {"type": "Polygon", "coordinates": [[[9.830075192016523, 7.587598206192297], [9.826466000405617, 7.581179000110808], [9.792579999867144, 7.554241999868452], [9.780509999936612, 7.539254000271967], [9.824833030320121, 7.502493130653534], [9.833874982344582, 7.496782423969762], [9.841965148572797, 7.495830639972098], [9.84514469087486, 7.49625457858599], [9.845772287261298, 7.486312796398465], [9.797191625293294, 7.361621107628082], [9.76506890120885, 7.320377116710631], [9.752014208389028, 7.326724083849456], [9.73037482473842, 7.345505886087835], [9.727656863973152, 7.345343289561185], [9.717490699136476, 7.347085076714961], [9.67040316987044, 7.378366992242945], [9.652087802809888, 7.391789032038218], [9.63833923986408, 7.399774472214176], [9.622673000358702, 7.403941999823473], [9.618353999937199, 7.400423000321268], [9.608235000045283, 7.401812999670256], [9.601573000393728, 7.401760999970236], [9.598621000059154, 7.400251999630143], [9.571842140202648, 7.442136565050475], [9.563421760006293, 7.461401906672677], [9.558146381850065, 7.4841796161964], [9.550058732824311, 7.488513871817759], [9.54826958197566, 7.506714738994049], [9.536474483210895, 7.517489166591815], [9.53075395503106, 7.537778167828208], [9.52101586568972, 7.547470729890335], [9.512324049415383, 7.536725198409215], [9.48554642432805, 7.533177793820187], [9.480899698362464, 7.52609388172732], [9.477776878100485, 7.519613182702244], [9.48683778243776, 7.50584107190798], [9.470920652765983, 7.497586702964043], [9.467458305156697, 7.48480934307679], [9.449015235264937, 7.483380989441173], [9.444664728894168, 7.479146456044134], [9.440519672644825, 7.475024384667677], [9.438139989169201, 7.472535802285506], [9.434924766264999, 7.457109714142064], [9.408525777342788, 7.450603920434617], [9.40274876724186, 7.445948800197016], [9.389000859901785, 7.431448750259676], [9.38783604629657, 7.424927904599144], [9.38893729941691, 7.417975014735191], [9.390110492005647, 7.411700346793623], [9.37286871941592, 7.396147690763371], [9.369641728882755, 7.39971775377137], [9.360959928358056, 7.402694019613364], [9.352992964753582, 7.401492379669662], [9.347334103086439, 7.394756696764205], [9.349180409448365, 7.382920902777471], [9.357002931140414, 7.376730998636731], [9.368726780216775, 7.363675722156927], [9.371407566605967, 7.357015865589801], [9.349029896212812, 7.349657519978621], [9.348667266181451, 7.339561710904263], [9.341823167305392, 7.337000259154706], [9.336618812208485, 7.336217839082053], [9.324561832662482, 7.337281772136123], [9.318234491428711, 7.33274995434698], [9.317545971369555, 7.320986904721906], [9.313930169741582, 7.318662937844351], [9.311360958641387, 7.317988250257599], [9.292425921818904, 7.309744596735811], [9.288544196957162, 7.304304645343166], [9.278121573351996, 7.285031435552355], [9.27352831927658, 7.278726214043616], [9.257055560565732, 7.273345706938869], [9.25368150299903, 7.25310732404381], [9.246346972334948, 7.243282581426058], [9.247280081910276, 7.241386723318669], [9.251249205586419, 7.237911178158413], [9.271236677630611, 7.236007609263822], [9.294269861165219, 7.236197966063344], [9.31256899995941, 7.240559999944082], [9.31563200001682, 7.238861999881465], [9.316698999759069, 7.219097000326371], [9.310107999784407, 7.209884999992823], [9.273830999600989, 7.178529000113315], [9.275773000123934, 7.165710999862824], [9.28101700003458, 7.154737000112505], [9.289549999632811, 7.148473999975181], [9.297153000410674, 7.138336000106392], [9.298708832046998, 7.13067493460062], [9.292787298195321, 7.117926388092371], [9.296436991673886, 7.109058304697044], [9.30151449829549, 7.105468498872199], [9.310265898252624, 7.10345206955742], [9.313416196400397, 7.098064899375629], [9.315347448226191, 7.095732636252194], [9.385615532031238, 7.074035295792328], [9.390788572734493, 7.065652574706633], [9.394773608115543, 7.049633579725992], [9.40000145260501, 7.048990116600635], [9.41019440374879, 7.059011594009917], [9.41550407755119, 7.067113467612501], [9.419649283987326, 7.069442521954898], [9.423536658390105, 7.06936005861985], [9.427903196075704, 7.064842131759008], [9.432933062910593, 7.064740995800378], [9.441327887072362, 7.069002594294318], [9.44645714608049, 7.067201639843859], [9.450540382033068, 7.067370067574586], [9.457587752872541, 7.076234932296359], [9.464235149332751, 7.08193763771186], [9.467797463781949, 7.082507647809734], [9.47238226692815, 7.079985082745395], [9.473228770891126, 7.068500142167863], [9.472387536955296, 7.058986886935315], [9.474682936868078, 7.052649978713589], [9.477530391914115, 7.050650007891591], [9.478707227656457, 7.040728640314569], [9.478346505986508, 7.035807709258449], [9.48296211630867, 7.029275008734714], [9.486380609377647, 7.028905445829707], [9.490590978890623, 7.031508717853114], [9.494135065880641, 7.038774115832837], [9.500274772562761, 7.041305137222366], [9.507714060755347, 7.040161955010262], [9.512389599200674, 7.03905175273627], [9.520134551668264, 7.037666469432054], [9.526327848951098, 7.033620331413204], [9.529983475257211, 7.026417660246864], [9.534296512274295, 7.013430364419833], [9.532718981795597, 7.0077306150759], [9.52156892806363, 7.002265309096799], [9.521425050925416, 6.996738290739586], [9.523610351336686, 6.989547228022218], [9.599184703211506, 7.000732786988578], [9.604181571222568, 7.012154200356122], [9.605609246769347, 7.018578744813283], [9.608464600560922, 7.023575612824345], [9.615602983690792, 7.033569348846413], [9.625596719712917, 7.041421569749673], [9.641301163318076, 7.050701467998408], [9.66699934114672, 7.064978234258149], [9.72410640618574, 7.080682676964045], [9.737985610947248, 7.078073026049367], [9.761715888677372, 7.101144313859038], [9.823288903360265, 7.171513202672202], [9.824008941959164, 7.172336103028783], [9.83455562614131, 7.199362754887261], [9.835214615162386, 7.217160702404556], [9.824958801407604, 7.254598140991448], [9.828292847237151, 7.257370948710388], [9.838424866614332, 7.275501425050777], [9.840817450864733, 7.279782772656858], [9.855978965656789, 7.325266361053764], [9.865207671796668, 7.362840176433053], [9.882676124803368, 7.414256095942108], [9.888607979274866, 7.46171760558309], [9.884653090967447, 7.507860184799711], [9.883843071600495, 7.509750266561582], [9.880417806636501, 7.517241526575219], [9.870810509297598, 7.540160178749318], [9.845761299344531, 7.574437618201557], [9.839988707612804, 7.579274177561274], [9.830075192016523, 7.587598206192297]]]}}, {"type": "Feature", "properties": {"name": "Oturkpo", "state": "be"}, "geometry": {"type": "Polygon", "coordinates": [[[8.053436000371164, 6.973432000186733], [8.056608000059214, 6.972889000327143], [8.07827600013735, 6.971832000146719], [8.086767999643541, 6.96915099971892], [8.088163000122393, 6.969822000085287], [8.098581000312947, 6.972177999914834], [8.105088000011222, 6.975063999903739], [8.125891999815963, 6.977707000377791], [8.14948300044017, 6.981453999602422], [8.164571182713985, 6.986170790849371], [8.193534000293937, 6.995224999733978], [8.209025783912864, 7.005236339985174], [8.211251999879948, 7.006674999851384], [8.224439000059874, 7.023273999995126], [8.230656999920654, 7.036761999666624], [8.235517701580704, 7.044531920911481], [8.240513581236826, 7.047840399914548], [8.238245546794587, 7.058732273575629], [8.246045994627025, 7.105689986603636], [8.24893514943767, 7.109437700789329], [8.256124131123784, 7.126036978823549], [8.234704626317523, 7.175775823695346], [8.2429702223979, 7.192431884024302], [8.232745517091985, 7.219533940439021], [8.220333151553746, 7.239828586719966], [8.219945605805094, 7.271304569650226], [8.209696372389715, 7.279280109189756], [8.186021751902388, 7.318237096265023], [8.181023668007924, 7.31883634422195], [8.171900452344062, 7.331873561415762], [8.158782167563004, 7.360916425852395], [8.134262187949673, 7.375521734240692], [8.115996867261686, 7.369994766245497], [8.10961677809189, 7.376628189939083], [8.091301175408944, 7.389587953920966], [8.073450436788278, 7.408751708124896], [8.06805498205182, 7.415252501601742], [8.11100771723244, 7.422088690041051], [8.106133999684403, 7.438877000173477], [8.103782000039303, 7.464723999612943], [8.098532999898055, 7.482326000144838], [8.090140999607513, 7.505509999986543], [8.076825999820073, 7.611871999992843], [7.997240999872304, 7.538189999768747], [7.932206000006943, 7.496432000436528], [7.915712000208714, 7.489340999887304], [7.854799999820159, 7.445901000330934], [7.83595690788502, 7.4253249543832], [7.833370091656434, 7.42250023599712], [7.828319541313817, 7.420463835437715], [7.821511481869436, 7.41638228661327], [7.816634079798973, 7.411250586845142], [7.815919345401539, 7.408826814106249], [7.850814146056052, 7.404034980729818], [7.866942623603222, 7.396163222954442], [7.867016710652706, 7.388387977723028], [7.861434405573391, 7.385207197953889], [7.855320504038104, 7.381045479065676], [7.85463054056703, 7.377397550956232], [7.855243045430257, 7.373456422276092], [7.855691262142102, 7.366269732062506], [7.856198974403185, 7.364161982889243], [7.871451342305647, 7.357103750937426], [7.867933003805149, 7.350075850420183], [7.904701059906017, 7.357355758961148], [7.919487419808604, 7.350060861419649], [7.969600503160734, 7.347957795016271], [7.996125139063963, 7.339955581584888], [7.997369866426254, 7.339230709129993], [8.002862614318246, 7.334226031406274], [8.006919015400285, 7.331406129789116], [8.009999796853208, 7.330258683891202], [8.012454436123392, 7.329948453758163], [8.014477075256877, 7.329847467986326], [8.04469605597825, 7.348208939690835], [8.037234672342322, 7.316315394340052], [8.046263541029646, 7.298930475760869], [8.060299067747849, 7.284730912701491], [8.062383082913016, 7.279113615001393], [8.062537147571334, 7.278157907261686], [8.058778340248239, 7.269707710942157], [8.058578564848915, 7.267843668150817], [8.058970065815913, 7.2659874719443], [8.059572331897641, 7.263403089281212], [8.076392305360628, 7.252571340694885], [8.097822426663697, 7.227435390231108], [8.100124404217922, 7.226730177855472], [8.104581769832862, 7.224688364276631], [8.10198283434039, 7.217944788920931], [8.096894825435868, 7.21596933361792], [8.08919771600182, 7.212718017322686], [8.077003718446917, 7.19988334813803], [8.075538187737209, 7.199016443953781], [8.072757689016157, 7.197934932750968], [8.068512125434268, 7.196506479290633], [8.074571376068207, 7.191356632102952], [8.074839713981646, 7.153758342573497], [8.064892659968336, 7.15224756607239], [8.05701801536918, 7.14620558871701], [8.050308015302733, 7.141095379148453], [7.972668874868702, 7.107013836319538], [7.969512267976825, 7.106286491628339], [7.972146188895522, 7.105242447081309], [7.969154307225551, 7.091552128727812], [7.97191178959747, 7.07461656180493], [8.004433999729372, 7.041746000177795], [8.02630900036013, 6.996444000190479], [8.053436000371164, 6.973432000186733]]]}}, {"type": "Feature", "properties": {"name": "Oju", "state": "be"}, "geometry": {"type": "Polygon", "coordinates": [[[8.160303116295836, 6.761074065615674], [8.16529750757394, 6.766522884323706], [8.173017502056098, 6.77333450328473], [8.1839160918542, 6.775604724878178], [8.191635132155682, 6.778329372102917], [8.199355124839201, 6.778329372102917], [8.207766840067677, 6.776927223812379], [8.21297740858057, 6.776058673868761], [8.220243454072204, 6.778783321093442], [8.226146698411469, 6.789681911790865], [8.229325293727356, 6.800125599317028], [8.234319686804156, 6.79921770133592], [8.240676880133947, 6.792406082374839], [8.244310378621151, 6.785594940054466], [8.249758719789156, 6.775604724878178], [8.249758719789156, 6.771075049274145], [8.249758719789156, 6.77106380505063], [8.249758719789156, 6.768339156926572], [8.255661964128365, 6.766068936232443], [8.261111258577785, 6.755170822175728], [8.264828138607754, 6.745034556199869], [8.26608981279469, 6.741573250005558], [8.262490850972029, 6.737931832088407], [8.256032904794779, 6.737461090057309], [8.25157546993205, 6.735644816555066], [8.261111258577785, 6.731103896727518], [8.268831253059943, 6.727925301411574], [8.273825645237366, 6.716572761723626], [8.273825645237366, 6.712940215618517], [8.280183791848572, 6.715210438111285], [8.285632133016577, 6.710215570192474], [8.280183791848572, 6.704766273045095], [8.278820991595524, 6.697955131624099], [8.282802185072853, 6.693612148981515], [8.28381633795368, 6.692505837174679], [8.294514655926662, 6.678709030097707], [8.313071250837595, 6.677518844818906], [8.340502738810414, 6.684218883994333], [8.361105919102954, 6.693262099566311], [8.37489795707512, 6.706943988574267], [8.393416405442792, 6.742407799280556], [8.410614014125485, 6.753770827761514], [8.435746192832596, 6.758190154751901], [8.450499535025585, 6.747755051254671], [8.468745231607215, 6.746480942141829], [8.508768081681694, 6.758834839156577], [8.544134139678874, 6.758592129223416], [8.578411101591087, 6.765244007005379], [8.62074089077953, 6.781025886735335], [8.636840820247699, 6.798137188380565], [8.641556740051556, 6.818769932086752], [8.639301299715271, 6.822229862318352], [8.637044906996891, 6.825689793449271], [8.602361172730014, 6.849528434989338], [8.59914599928851, 6.847951641055431], [8.5930640003034, 6.851589000332126], [8.581836999677819, 6.856387000359803], [8.548719000381595, 6.876764000258447], [8.53175300040067, 6.883270999956721], [8.53724071928383, 6.899651785901256], [8.547121861085088, 6.919934732002332], [8.547080066891624, 6.932606587024395], [8.546247807290513, 6.943676048910561], [8.54408632722226, 6.955126391669694], [8.532742197094763, 6.976532547838872], [8.525543494636622, 7.033350085138352], [8.520940000880387, 7.038568208855793], [8.51410144812337, 7.064411300740971], [8.493545129704046, 7.071607503983159], [8.477440703625632, 7.064112134067784], [8.431762999263071, 7.049977916647606], [8.422851264574263, 7.0525302141981], [8.41604345694003, 7.046779205296161], [8.415275113056055, 7.045905836784982], [8.415392400838698, 7.045225100358152], [8.424025509369812, 7.022616452587272], [8.423707491107905, 7.015424510332934], [8.43245641343276, 7.006127978223674], [8.406335000260128, 6.987704000039628], [8.40770699967834, 6.972701999797493], [8.40648700007506, 6.968575000136184], [8.405963000192344, 6.96466799982835], [8.401747000024102, 6.946536000036417], [8.396872000042833, 6.944543999905704], [8.389177000418272, 6.939604999671019], [8.387069049796878, 6.937176890401247], [8.377186999680362, 6.925522000440026], [8.368201999922405, 6.912080000191906], [8.341991999930883, 6.889023999957658], [8.279794999639591, 6.894453000305759], [8.26788248988504, 6.898583001004738], [8.271708946011074, 6.920732675272802], [8.205575081624772, 6.907708557603883], [8.197483365864684, 6.908933838925577], [8.192671956045956, 6.901074902784558], [8.167276049350221, 6.896944749200884], [8.12348484025324, 6.896064500876037], [8.108849547568639, 6.884087635635922], [8.094269843778306, 6.875014687577846], [8.088091573267548, 6.870434347767002], [8.085300828570439, 6.862186771402435], [8.094099210010597, 6.855987402796472], [8.096561299264579, 6.850855360386618], [8.09903593765847, 6.852187857983324], [8.101891290550668, 6.855043210875522], [8.109941999923421, 6.861615000431982], [8.114569000159293, 6.848173000183863], [8.111792999847125, 6.83347200033262], [8.115596999901697, 6.811980000276833], [8.11863699979773, 6.800176000022418], [8.126100999561515, 6.791063999803782], [8.135723999962693, 6.786984999658046], [8.139331999971887, 6.781852000369554], [8.145974999646569, 6.778975999942475], [8.153208999595677, 6.769867999908342], [8.160303116295836, 6.761074065615674]]]}}, {"type": "Feature", "properties": {"name": "Makurdi", "state": "be"}, "geometry": {"type": "Polygon", "coordinates": [[[8.415759319736878, 7.79995769119455], [8.420590565901932, 7.77424471142433], [8.420535988744916, 7.774232693783858], [8.41199397973844, 7.768508910957507], [8.403155326657043, 7.766182899021601], [8.385478019594984, 7.768043518093918], [8.389983999861727, 7.759420999979227], [8.39164231374184, 7.684548341432844], [8.399432889716138, 7.67773877742269], [8.41157736610262, 7.674430721100919], [8.408073625397549, 7.672031615866445], [8.40521101407711, 7.653260627076349], [8.40581184124352, 7.647185371207968], [8.406654919688833, 7.642774417805185], [8.412132999638288, 7.631163000172364], [8.423403000448161, 7.614842000258136], [8.439436999717827, 7.593603000178348], [8.451425000363542, 7.578884000396329], [8.464001000246014, 7.571986999800231], [8.474492000205714, 7.564436999667862], [8.484794000442832, 7.559655000378029], [8.513748000170096, 7.552713000404708], [8.52364000038574, 7.550930000019548], [8.546278000229563, 7.552851999620145], [8.55993899978506, 7.556076999953632], [8.574244920266892, 7.562375604250803], [8.582706000181815, 7.565829000008364], [8.601682000224173, 7.569656000224256], [8.633073999965177, 7.599309999856644], [8.651235000195129, 7.609600000439741], [8.66520599965719, 7.631945000261624], [8.674937999689007, 7.652320000068016], [8.689132000441532, 7.656424999614103], [8.694041000192044, 7.660487999921315], [8.696588999882465, 7.661138000218557], [8.703934761280266, 7.702598475938942], [8.70076279576648, 7.719843422236181], [8.693264768354425, 7.753142857956561], [8.715161130581748, 7.765713515866139], [8.715610195354259, 7.766674347043534], [8.691719905749096, 7.785808681725314], [8.690816433331804, 7.789402624431602], [8.688138382680279, 7.796499086563642], [8.68910952728288, 7.805970754446832], [8.684194898675685, 7.813065414337473], [8.681339757124135, 7.824439642075845], [8.65321751157893, 7.826367987292826], [8.616773069321766, 7.833566568342519], [8.601361314573069, 7.833897088080221], [8.59390622799009, 7.833974606942604], [8.580439091690778, 7.835609362182367], [8.57973878062029, 7.835344459679106], [8.56662239161011, 7.833578739767063], [8.549118358725309, 7.833336980417357], [8.49451520771072, 7.851383087759359], [8.449971911774355, 7.84628160611129], [8.43772509163972, 7.817263732934975], [8.428752742645031, 7.815913318145192], [8.42283120339738, 7.814315862287287], [8.419783551169985, 7.810653812123803], [8.419938316400248, 7.806979756011003], [8.420800705987858, 7.805758181694785], [8.420677249755329, 7.80079182408349], [8.420165200063991, 7.800612044210538], [8.418860808079899, 7.800647589015057], [8.415759319736878, 7.79995769119455]]]}}, {"type": "Feature", "properties": {"name": "Gboko", "state": "be"}, "geometry": {"type": "Polygon", "coordinates": [[[9.103903343564525, 7.209391214632888], [9.105003442854638, 7.233158730591015], [9.106763739854784, 7.239399611902627], [9.125702502568515, 7.24614381228713], [9.151761369691485, 7.279606085552473], [9.169393521793666, 7.273526643339949], [9.179501650680663, 7.274824514339912], [9.187193891185188, 7.28116540655833], [9.187255089151108, 7.298538208571529], [9.18545693159217, 7.299667335279366], [9.183097684310724, 7.306972232382691], [9.181757927386514, 7.315104575016164], [9.191631718129315, 7.331594966734372], [9.191521840760402, 7.349965009877337], [9.181234447311965, 7.350541163244145], [9.184001000246042, 7.358008000368955], [9.184282999760683, 7.367997999707995], [9.182154999653562, 7.369682000024341], [9.176698720169838, 7.367343340023183], [9.168966151366817, 7.384447335576112], [9.161232884689923, 7.393452855165208], [9.159245991809144, 7.392536360564634], [9.148523466784638, 7.396160462035766], [9.143971747897922, 7.408613271885031], [9.139611873289368, 7.413303613171252], [9.13154609217844, 7.406105345085678], [9.11206181600005, 7.41671698460118], [9.112091595250945, 7.416985138153677], [9.118996719423137, 7.430117089931798], [9.118098674414341, 7.444940445245379], [9.115967378291941, 7.449352151380708], [9.10896217306589, 7.45824137513938], [9.093626793241981, 7.4602207343994], [9.09270535326948, 7.461429526651386], [9.08946263988895, 7.470341558116445], [9.082355859835104, 7.475139791967877], [9.076972291438153, 7.48191562240811], [9.030333997815774, 7.483093184802669], [9.018387442426558, 7.489897220680234], [9.008534363969773, 7.491119198792035], [8.998937012233398, 7.489347901284646], [8.991666686868143, 7.490387126364851], [8.97287846976559, 7.495430194348046], [8.971366829016006, 7.503254917580421], [8.966547757872775, 7.515008884952124], [8.950398901688004, 7.518446667579667], [8.940307558646964, 7.511260944137291], [8.93666974880989, 7.497322098136351], [8.928764854614371, 7.492899188247009], [8.922739324959934, 7.486526595825808], [8.907491777423616, 7.44946338133002], [8.878712738102422, 7.450718056992798], [8.865953996879512, 7.478956345658901], [8.845952490015463, 7.500829918166232], [8.841424595968363, 7.499190863267756], [8.828869498128881, 7.50878255377188], [8.821349335703303, 7.507933925610246], [8.81470078721162, 7.537515222249738], [8.807392975405548, 7.536680568653367], [8.788628434754514, 7.543690194047258], [8.772955257878891, 7.549187886411858], [8.755886325093854, 7.558618380633789], [8.694635999751654, 7.511858999593187], [8.68746058164055, 7.500499762653988], [8.646814825144133, 7.489037079397747], [8.65153275403344, 7.479722243386846], [8.654985361984927, 7.468438069261538], [8.654065635220945, 7.417728096874214], [8.650978885866948, 7.411077854059783], [8.639310963829985, 7.356526185635005], [8.668728824875416, 7.308783061389192], [8.694094022421268, 7.242730834760266], [8.73345856785869, 7.178889866574139], [8.75655680565211, 7.18306830026188], [8.776371087156008, 7.180372303638933], [8.812368818166476, 7.183625256700282], [8.826182986655567, 7.18219339391004], [8.841577424058926, 7.187137687554298], [8.853553066221082, 7.213722295647472], [8.866346426846178, 7.222853889395537], [8.873228523877344, 7.234091073943944], [8.869585124753769, 7.256249584051091], [8.894736732414344, 7.269819859099243], [8.89923032092264, 7.270708213013677], [8.90367106976413, 7.276280573389784], [8.926180249818742, 7.274556889588837], [8.927374089942361, 7.274157566318706], [8.929759396878694, 7.275214360554344], [8.939953463181837, 7.283805200049983], [8.942149630101369, 7.286963684726345], [8.945553063123441, 7.284651362270608], [8.958261155428033, 7.276302442203985], [8.960717282176859, 7.27765239384297], [8.977925283425122, 7.281589054691153], [8.984371774038209, 7.284223177957358], [9.005278278569733, 7.242507010590089], [9.021882254662387, 7.24505980636502], [9.027765930653231, 7.247317551663741], [9.036261342187231, 7.247286821829391], [9.046408141022937, 7.239466980117072], [9.052507147986546, 7.236382317190248], [9.058329462334882, 7.229982172239488], [9.061039268947127, 7.227372753349925], [9.062464138609187, 7.224656581336205], [9.103903343564525, 7.209391214632888]]]}}, {"type": "Feature", "properties": {"name": "Ukum", "state": "be"}, "geometry": {"type": "Polygon", "coordinates": [[[9.797699928409031, 7.614686011949914], [9.74721336380577, 7.654858111712542], [9.701729773610225, 7.710229397069043], [9.690544309971983, 7.728491271555015], [9.669429778761355, 7.76296377216039], [9.643062591665341, 7.7998781200792], [9.60153484305863, 7.829541205562236], [9.575851356554892, 7.835442073892636], [9.56726769634713, 7.837412098189816], [9.56132412011209, 7.838776200661187], [9.386640548722369, 7.844702721253611], [9.385127999657527, 7.830626000189795], [9.380780999743365, 7.81485899974308], [9.38485699975081, 7.805314000240969], [9.379293000371717, 7.794901000280959], [9.378448000075196, 7.782921000004194], [9.381549000086352, 7.777653999932227], [9.378605000120729, 7.763909000100341], [9.381760999970197, 7.752092000145751], [9.376161999876444, 7.746329999729767], [9.379361999956359, 7.729652999586335], [9.377987938392664, 7.717688078242247], [9.446892167939268, 7.733240065176915], [9.444052665598065, 7.715152937058463], [9.451656816608875, 7.705925319997561], [9.451471167760246, 7.670936297372293], [9.455048463116157, 7.66601855711076], [9.455910062199678, 7.663363440970102], [9.45908073179038, 7.659722645383852], [9.4628981101597, 7.644776997560427], [9.46463309664017, 7.641881063660207], [9.464783536131335, 7.635064420186893], [9.45970287738595, 7.628316168356548], [9.459880525865628, 7.627141143848746], [9.48112492637432, 7.617655353012196], [9.483389677391756, 7.613916504343251], [9.488822229162622, 7.602868797956717], [9.485314563816132, 7.593100942854278], [9.501171564815934, 7.557160090365926], [9.508054894817576, 7.549895889383833], [9.504252979391538, 7.544638934739112], [9.506888412969943, 7.541819882081938], [9.512362129408814, 7.547343984837084], [9.521003124094932, 7.547650956726329], [9.52101586568972, 7.547470729890335], [9.53075395503106, 7.537778167828208], [9.536474483210895, 7.517489166591815], [9.54826958197566, 7.506714738994049], [9.550058732824311, 7.488513871817759], [9.558146381850065, 7.4841796161964], [9.563421760006293, 7.461401906672677], [9.571842140202648, 7.442136565050475], [9.598621000059154, 7.400251999630143], [9.601573000393728, 7.401760999970236], [9.608235000045283, 7.401812999670256], [9.618353999937199, 7.400423000321268], [9.622673000358702, 7.403941999823473], [9.63833923986408, 7.399774472214176], [9.652087802809888, 7.391789032038218], [9.67040316987044, 7.378366992242945], [9.717490699136476, 7.347085076714961], [9.727656863973152, 7.345343289561185], [9.73037482473842, 7.345505886087835], [9.752014208389028, 7.326724083849456], [9.76506890120885, 7.320377116710631], [9.797191625293294, 7.361621107628082], [9.845772287261298, 7.486312796398465], [9.84514469087486, 7.49625457858599], [9.841965148572797, 7.495830639972098], [9.833874982344582, 7.496782423969762], [9.824833030320121, 7.502493130653534], [9.780509999936612, 7.539254000271967], [9.792579999867144, 7.554241999868452], [9.826466000405617, 7.581179000110808], [9.830075192016523, 7.587598206192297], [9.797699928409031, 7.614686011949914]]]}}, {"type": "Feature", "properties": {"name": "Obi", "state": "be"}, "geometry": {"type": "Polygon", "coordinates": [[[8.197483365864684, 6.908933838925577], [8.205575081624772, 6.907708557603883], [8.271708946011074, 6.920732675272802], [8.26788248988504, 6.898583001004738], [8.279794999639591, 6.894453000305759], [8.341991999930883, 6.889023999957658], [8.368201999922405, 6.912080000191906], [8.377186999680362, 6.925522000440026], [8.387069049796878, 6.937176890401247], [8.389177000418272, 6.939604999671019], [8.396872000042833, 6.944543999905704], [8.401747000024102, 6.946536000036417], [8.405963000192344, 6.96466799982835], [8.40648700007506, 6.968575000136184], [8.40770699967834, 6.972701999797493], [8.406335000260128, 6.987704000039628], [8.43245641343276, 7.006127978223674], [8.423707491107905, 7.015424510332934], [8.424025509369812, 7.022616452587272], [8.415392400838698, 7.045225100358152], [8.415275113056055, 7.045905836784982], [8.41604345694003, 7.046779205296161], [8.422851264574263, 7.0525302141981], [8.421436014960193, 7.069384464421546], [8.419051836672963, 7.07590796937734], [8.41040749560949, 7.091193837026026], [8.407530123716299, 7.101687700427078], [8.405361438279783, 7.103203635439456], [8.387468715708735, 7.103034527821251], [8.359718114999055, 7.119178865812046], [8.338392609131631, 7.115554732864666], [8.320076947992789, 7.130144882280547], [8.305605395772432, 7.125021868164708], [8.25748675690835, 7.125972203354536], [8.256124131123784, 7.126036978823549], [8.24893514943767, 7.109437700789329], [8.246045994627025, 7.105689986603636], [8.238245546794587, 7.058732273575629], [8.240513581236826, 7.047840399914548], [8.235517701580704, 7.044531920911481], [8.230656999920654, 7.036761999666624], [8.224439000059874, 7.023273999995126], [8.211251999879948, 7.006674999851384], [8.209025783912864, 7.005236339985174], [8.193534000293937, 6.995224999733978], [8.164571182713985, 6.986170790849371], [8.191917877208311, 6.939448632748224], [8.197483365864684, 6.908933838925577]]]}}, {"type": "Feature", "properties": {"name": "Buruku", "state": "be"}, "geometry": {"type": "Polygon", "coordinates": [[[9.313416196400397, 7.098064899375629], [9.310265898252624, 7.10345206955742], [9.30151449829549, 7.105468498872199], [9.296436991673886, 7.109058304697044], [9.292787298195321, 7.117926388092371], [9.298708832046998, 7.13067493460062], [9.297153000410674, 7.138336000106392], [9.289549999632811, 7.148473999975181], [9.28101700003458, 7.154737000112505], [9.275773000123934, 7.165710999862824], [9.273830999600989, 7.178529000113315], [9.310107999784407, 7.209884999992823], [9.316698999759069, 7.219097000326371], [9.31563200001682, 7.238861999881465], [9.271236677630611, 7.236007609263822], [9.251249205586419, 7.237911178158413], [9.247280081910276, 7.241386723318669], [9.246346972334948, 7.243282581426058], [9.25368150299903, 7.25310732404381], [9.257055560565732, 7.273345706938869], [9.27352831927658, 7.278726214043616], [9.278121573351996, 7.285031435552355], [9.288544196957162, 7.304304645343166], [9.292425921818904, 7.309744596735811], [9.311360958641387, 7.317988250257599], [9.313930169741582, 7.318662937844351], [9.317545971369555, 7.320986904721906], [9.318234491428711, 7.33274995434698], [9.324561832662482, 7.337281772136123], [9.336618812208485, 7.336217839082053], [9.341823167305392, 7.337000259154706], [9.348667266181451, 7.339561710904263], [9.349029896212812, 7.349657519978621], [9.371407566605967, 7.357015865589801], [9.368726780216775, 7.363675722156927], [9.357002931140414, 7.376730998636731], [9.349180409448365, 7.382920902777471], [9.347334103086439, 7.394756696764205], [9.352992964753582, 7.401492379669662], [9.360959928358056, 7.402694019613364], [9.369641728882755, 7.39971775377137], [9.37286871941592, 7.396147690763371], [9.390110492005647, 7.411700346793623], [9.38893729941691, 7.417975014735191], [9.38783604629657, 7.424927904599144], [9.389000859901785, 7.431448750259676], [9.40274876724186, 7.445948800197016], [9.408525777342788, 7.450603920434617], [9.434924766264999, 7.457109714142064], [9.438139989169201, 7.472535802285506], [9.43030962269097, 7.473087457220402], [9.415048482801296, 7.472321706081914], [9.4061709484306, 7.471911268989913], [9.37749779258911, 7.483911319651725], [9.365009333613898, 7.479748187928578], [9.327305875565742, 7.475726319014484], [9.302295126019317, 7.462987754980929], [9.294393240056024, 7.466011686690024], [9.267313760221896, 7.458837951210512], [9.2474557725659, 7.491433969602042], [9.223474386134058, 7.511967732125186], [9.216228909037, 7.508592106140838], [9.194490281601247, 7.513436484206409], [9.19091473182948, 7.514818406744098], [9.183309865857666, 7.518828464861826], [9.163982005165451, 7.5356969486553], [9.15823774297752, 7.547508665992211], [9.15534963497771, 7.569445673079372], [9.152705504955122, 7.597180037428814], [9.147150732620275, 7.613214656331365], [9.13177220602256, 7.63081057115096], [9.111976824670762, 7.623545934897038], [9.101866049978298, 7.619663201895321], [9.079290546721381, 7.598659679400726], [9.048029740979814, 7.577696721726397], [9.043609171126377, 7.572247635919723], [9.022163307190908, 7.561629538372529], [9.014628046946882, 7.566107409429435], [9.008127222893052, 7.571629786385586], [9.004261601291887, 7.584519815137412], [8.99688515772391, 7.598633513625828], [8.99587581801461, 7.604367946223761], [8.995161696055504, 7.616969730568655], [8.996416941888413, 7.625273024430555], [8.997845463697217, 7.637090669199097], [8.99071564031459, 7.649557676645486], [8.99262087835092, 7.663908708919848], [8.984805672643745, 7.675778097980867], [8.980202276014268, 7.679048059020772], [8.966726113219579, 7.677620762088566], [8.964800170091848, 7.664440374623666], [8.97163517502338, 7.648214799973061], [8.967302772904702, 7.638516073058383], [8.965765361182548, 7.629867201210402], [8.959389700274471, 7.621477120073109], [8.958842708324369, 7.62116804466956], [8.958027713907939, 7.619940202978057], [8.958535311955131, 7.594268047932133], [8.95969601026269, 7.588493668348178], [8.960767414884344, 7.580895330555109], [8.957880889691353, 7.576724927813189], [8.95008015407592, 7.571021116231577], [8.942889398926695, 7.559059078113989], [8.942380561613675, 7.550922649860468], [8.949715707413986, 7.545849344871442], [8.947042910601908, 7.528815100736381], [8.950398901688004, 7.518446667579667], [8.966547757872775, 7.515008884952124], [8.971366829016006, 7.503254917580421], [8.97287846976559, 7.495430194348046], [8.991666686868143, 7.490387126364851], [8.998937012233398, 7.489347901284646], [9.008534363969773, 7.491119198792035], [9.018387442426558, 7.489897220680234], [9.030333997815774, 7.483093184802669], [9.076972291438153, 7.48191562240811], [9.082355859835104, 7.475139791967877], [9.08946263988895, 7.470341558116445], [9.09270535326948, 7.461429526651386], [9.093626793241981, 7.4602207343994], [9.10896217306589, 7.45824137513938], [9.115967378291941, 7.449352151380708], [9.118098674414341, 7.444940445245379], [9.118996719423137, 7.430117089931798], [9.112091595250945, 7.416985138153677], [9.11206181600005, 7.41671698460118], [9.13154609217844, 7.406105345085678], [9.139611873289368, 7.413303613171252], [9.143971747897922, 7.408613271885031], [9.148523466784638, 7.396160462035766], [9.159245991809144, 7.392536360564634], [9.161232884689923, 7.393452855165208], [9.168966151366817, 7.384447335576112], [9.176698720169838, 7.367343340023183], [9.182154999653562, 7.369682000024341], [9.184282999760683, 7.367997999707995], [9.184001000246042, 7.358008000368955], [9.181234447311965, 7.350541163244145], [9.191521840760402, 7.349965009877337], [9.191631718129315, 7.331594966734372], [9.181757927386514, 7.315104575016164], [9.183097684310724, 7.306972232382691], [9.18545693159217, 7.299667335279366], [9.187255089151108, 7.298538208571529], [9.187193891185188, 7.28116540655833], [9.179501650680663, 7.274824514339912], [9.169393521793666, 7.273526643339949], [9.151761369691485, 7.279606085552473], [9.125702502568515, 7.24614381228713], [9.106763739854784, 7.239399611902627], [9.105003442854638, 7.233158730591015], [9.103903343564525, 7.209391214632888], [9.123676657351893, 7.183818780012757], [9.128598532696174, 7.173366012031863], [9.129114140105514, 7.165012220337758], [9.106461671968646, 7.155304019065284], [9.074191999561208, 7.173522000340085], [9.066680000281849, 7.161655999924506], [9.0607930003967, 7.15656699996714], [9.077036399610222, 7.128328321894571], [9.075385928717708, 7.125169017036569], [9.070078409690893, 7.124875239101073], [9.064916972940011, 7.123696590325437], [9.059941480015311, 7.124314145781227], [9.05598923301676, 7.121430664793422], [9.048432921442213, 7.118636301224399], [9.02118377011493, 7.087978209426865], [9.018516109331017, 7.082238235206432], [9.016688936944945, 7.072885580904881], [9.018822316796559, 7.06760204140113], [9.019970598164605, 7.065270254019083], [9.035830738697655, 7.054979184142098], [9.039307774933889, 7.051014006691105], [9.039531330206785, 7.047273789254007], [9.061232034131137, 7.040601662336883], [9.099882713916145, 7.060326442411451], [9.101938155821301, 7.062609303076897], [9.106902444991874, 7.067307185178493], [9.10881136305403, 7.068484484071746], [9.120171832064443, 7.059456556974567], [9.137530259314076, 7.057212303305221], [9.140265310795485, 7.055554036189847], [9.142055359167557, 7.053923372865427], [9.143484986243152, 7.051725972975305], [9.18374642825512, 7.066837956706365], [9.186173195736444, 7.068673984716668], [9.192594578177307, 7.073428396403415], [9.206448502096748, 7.074271430781948], [9.224222363071647, 7.079950079332718], [9.233304073224474, 7.085126116577044], [9.239799337669353, 7.089040152281257], [9.243412870307793, 7.091105689975677], [9.253423694348044, 7.092314379704931], [9.2538228161701, 7.092269354247321], [9.253298170574169, 7.089677454151229], [9.260494426876335, 7.057463930016411], [9.272421909443608, 7.051425890792302], [9.274486787934961, 7.049673708374996], [9.280801424446224, 7.052729476983814], [9.284421293707794, 7.060498944071071], [9.291628338277235, 7.058249014780245], [9.296707962802316, 7.062964743927864], [9.30290489694346, 7.067925479877033], [9.305262621672682, 7.073177354251527], [9.307643591178817, 7.077194873144947], [9.303923128249835, 7.087622582416316], [9.313416196400397, 7.098064899375629]]]}}, {"type": "Feature", "properties": {"name": "Tarka", "state": "be"}, "geometry": {"type": "Polygon", "coordinates": [[[8.767846999839207, 7.653304999626073], [8.763141999603647, 7.639731999632147], [8.759224999733988, 7.625745000331563], [8.768690000043534, 7.569132000341597], [8.763530000409219, 7.563919000061844], [8.755886325093854, 7.558618380633789], [8.772955257878891, 7.549187886411858], [8.788628434754514, 7.543690194047258], [8.807392975405548, 7.536680568653367], [8.81470078721162, 7.537515222249738], [8.821349335703303, 7.507933925610246], [8.828869498128881, 7.50878255377188], [8.841424595968363, 7.499190863267756], [8.845952490015463, 7.500829918166232], [8.865953996879512, 7.478956345658901], [8.878712738102422, 7.450718056992798], [8.907491777423616, 7.44946338133002], [8.922739324959934, 7.486526595825808], [8.928764854614371, 7.492899188247009], [8.93666974880989, 7.497322098136351], [8.940307558646964, 7.511260944137291], [8.950398901688004, 7.518446667579667], [8.947042910601908, 7.528815100736381], [8.949715707413986, 7.545849344871442], [8.942380561613675, 7.550922649860468], [8.942889398926695, 7.559059078113989], [8.95008015407592, 7.571021116231577], [8.957880889691353, 7.576724927813189], [8.960767414884344, 7.580895330555109], [8.95969601026269, 7.588493668348178], [8.958535311955131, 7.594268047932133], [8.958027713907939, 7.619940202978057], [8.958842708324369, 7.62116804466956], [8.959389700274471, 7.621477120073109], [8.965765361182548, 7.629867201210402], [8.967302772904702, 7.638516073058383], [8.97163517502338, 7.648214799973061], [8.964800170091848, 7.664440374623666], [8.966726113219579, 7.677620762088566], [8.980202276014268, 7.679048059020772], [8.983824818960272, 7.705222349631754], [8.939741035220663, 7.699320406611548], [8.929863596827602, 7.706562700108577], [8.908763256019483, 7.692337975816997], [8.898562431311177, 7.690912034163091], [8.894583967276333, 7.691701917709395], [8.891426756040005, 7.69257780612088], [8.878625286228043, 7.70471224877133], [8.87191629610021, 7.704830871147806], [8.856120229564965, 7.705739983213675], [8.842501092551402, 7.714830970772709], [8.830298133252313, 7.722793241714783], [8.818897753228782, 7.730040916754945], [8.781886435910337, 7.692935944038652], [8.779139801160966, 7.69087776279855], [8.773556147098532, 7.678377263699815], [8.763884371966242, 7.659022858618073], [8.767846999839207, 7.653304999626073]]]}}, {"type": "Feature", "properties": {"name": "Konshisha", "state": "be"}, "geometry": {"type": "Polygon", "coordinates": [[[8.776371087156008, 7.180372303638933], [8.75655680565211, 7.18306830026188], [8.73345856785869, 7.178889866574139], [8.731623964374478, 7.180074994965082], [8.718236348828498, 7.206474325629699], [8.706005354963224, 7.226251150370331], [8.694094022421268, 7.242730834760266], [8.668728824875416, 7.308783061389192], [8.639310963829985, 7.356526185635005], [8.595257657215143, 7.347996339059875], [8.564478594911293, 7.327203415305405], [8.561683230396795, 7.327629730827482], [8.549466585214759, 7.324155972620076], [8.533323142948745, 7.313649803795442], [8.51349174195036, 7.306903690552929], [8.483192678399462, 7.248875975146177], [8.481620658066959, 7.236882004800748], [8.48781763357698, 7.227984026141939], [8.492497992388508, 7.211119815027473], [8.519170057752035, 7.202690647555414], [8.52383502556603, 7.180525653336304], [8.52342806075643, 7.138943776334258], [8.52742372792278, 7.12713207158788], [8.52628723666669, 7.120752406898134], [8.52527394803434, 7.106073387376966], [8.520271676896414, 7.072824763352173], [8.519907372327395, 7.072162528677779], [8.51410144812337, 7.064411300740971], [8.520940000880387, 7.038568208855793], [8.525543494636622, 7.033350085138352], [8.532742197094763, 6.976532547838872], [8.54408632722226, 6.955126391669694], [8.546247807290513, 6.943676048910561], [8.547080066891624, 6.932606587024395], [8.547121861085088, 6.919934732002332], [8.53724071928383, 6.899651785901256], [8.53175300040067, 6.883270999956721], [8.548719000381595, 6.876764000258447], [8.581836999677819, 6.856387000359803], [8.5930640003034, 6.851589000332126], [8.59914599928851, 6.847951641055431], [8.602361172730014, 6.849528434989338], [8.601857184561482, 6.850042821119359], [8.60074233998705, 6.853494167322026], [8.600760460426955, 6.855791091585672], [8.606489182329938, 6.859195232374134], [8.6647405618275, 6.867979050193071], [8.70374202667324, 6.896412848773991], [8.759608269206296, 6.891436100395765], [8.817680358961468, 6.876111031299104], [8.848406792039896, 6.865565777039023], [8.913179397611145, 6.830677032419146], [8.974477768334395, 6.788922786857199], [8.992569922763778, 6.76698398562246], [8.99475765224389, 6.754340173260459], [8.987076117269055, 6.73620323439178], [8.98939475836147, 6.733925674330465], [8.995684046581516, 6.736562550421411], [9.000352861695262, 6.745109726033093], [9.009599351029294, 6.754033054781701], [9.013856534751312, 6.764085021006963], [9.006128440075486, 6.775913380298334], [9.00299985336062, 6.780347055072582], [8.998624603043027, 6.784099842333887], [9.005334301836626, 6.806907540650514], [9.01447023121625, 6.813123265226579], [9.014039805792436, 6.815943832342043], [9.012344963249518, 6.818780833668598], [9.007876857930682, 6.824589249894018], [8.983568364688324, 6.848377229025971], [8.980182856054, 6.855042500411116], [8.979405744679411, 6.860447996977541], [8.98196154598861, 6.87079371865525], [8.99182859990998, 6.878876887258571], [8.99538911841313, 6.882499243145617], [9.005758834902338, 6.887008562595156], [8.99923528767846, 6.907074237885809], [8.99654491541554, 6.962310098832063], [8.97669074987823, 6.960110025257507], [8.947395470924278, 6.972082768005407], [8.890885758970626, 7.01281422000028], [8.886076985064847, 7.019343968049725], [8.881581686046047, 7.025080370162982], [8.867358282858504, 7.045463409009187], [8.851993380989768, 7.05956196831022], [8.844148826806986, 7.065955132723218], [8.839451592217245, 7.065697300689919], [8.833750251073297, 7.078412298888509], [8.835537180596475, 7.086052420083149], [8.835188202273741, 7.088775220100388], [8.829249971608931, 7.107704843903491], [8.832289236758925, 7.115203355150754], [8.835173375151214, 7.12168460276223], [8.827248935090324, 7.134199642999192], [8.818167196159209, 7.139091108667799], [8.814642271024013, 7.134407273976535], [8.776371087156008, 7.180372303638933]]]}}, {"type": "Feature", "properties": {"name": "Gwer West", "state": "be"}, "geometry": {"type": "Polygon", "coordinates": [[[8.026496214928443, 7.702723336912527], [8.03447099993673, 7.700464999859889], [8.048659000412613, 7.693309999956568], [8.062683999666888, 7.690540999967197], [8.076825999820073, 7.611871999992843], [8.090140999607513, 7.505509999986543], [8.098532999898055, 7.482326000144838], [8.103782000039303, 7.464723999612943], [8.106133999684403, 7.438877000173477], [8.11100771723244, 7.422088690041051], [8.06805498205182, 7.415252501601742], [8.073450436788278, 7.408751708124896], [8.091301175408944, 7.389587953920966], [8.10961677809189, 7.376628189939083], [8.115996867261686, 7.369994766245497], [8.134262187949673, 7.375521734240692], [8.14455380011782, 7.391322851368557], [8.159432770406056, 7.402908790308459], [8.166032768997127, 7.406836250192839], [8.182286844062673, 7.416155113367836], [8.187819406740289, 7.417229848178977], [8.195591192279721, 7.434069631008697], [8.210481117209838, 7.441349811144903], [8.217967277168157, 7.441726081193735], [8.226038408345914, 7.441038667300688], [8.236609664704304, 7.446472642698325], [8.24886389884989, 7.43902611406395], [8.27155453961035, 7.460237067886396], [8.265865103691624, 7.471921790158547], [8.257807644007642, 7.487097477366717], [8.268711000212534, 7.506861000235006], [8.282359000067856, 7.5234509999637], [8.301964000338387, 7.537405999587236], [8.311826000069914, 7.548068000238061], [8.314516578277505, 7.550535758818285], [8.32564000038576, 7.560737999958803], [8.332288000291044, 7.57237499970654], [8.334275000191155, 7.581096999926672], [8.336941999973362, 7.589117000149486], [8.340397000121527, 7.60288300005044], [8.347946000207799, 7.613356000079364], [8.3621470003838, 7.621410000071478], [8.38911988897172, 7.617323888986334], [8.398138515280323, 7.621229471063316], [8.39997672864314, 7.634599182006696], [8.406566901241547, 7.639774593322898], [8.40521101407711, 7.653260627076349], [8.408073625397549, 7.672031615866445], [8.41157736610262, 7.674430721100919], [8.399432889716138, 7.67773877742269], [8.39164231374184, 7.684548341432844], [8.389983999861727, 7.759420999979227], [8.385478019594984, 7.768043518093918], [8.372159004334605, 7.770002364717413], [8.274763106632122, 7.814562320594689], [8.25150394415175, 7.822470187948852], [8.238116328605713, 7.826932785819452], [8.215219497581813, 7.834565163851266], [8.206502000267164, 7.825202000072295], [8.198121999630644, 7.820504000159531], [8.186651000343431, 7.810099999715248], [8.174339000044881, 7.804777999804912], [8.167149000326162, 7.802365000044745], [8.157239000179743, 7.802994000272918], [8.14607799989983, 7.797654000431805], [8.135124000172539, 7.79069599972064], [8.127605999717161, 7.782297000006622], [8.117789000262178, 7.774400000059984], [8.102042705806298, 7.757305683010884], [8.089342490663455, 7.748644801616365], [8.038216704137653, 7.736705169208221], [8.034879834436879, 7.733479551040489], [8.026496214928443, 7.702723336912527]]]}}, {"type": "Feature", "properties": {"name": "Vandeikya", "state": "be"}, "geometry": {"type": "Polygon", "coordinates": [[[9.162464371333726, 6.943060578083248], [9.14567405211585, 6.946572514310162], [9.142115164982954, 6.96671342328591], [9.134386962388476, 6.963691819022301], [9.12909922035277, 6.967623316862614], [9.11258342368609, 6.968265441796746], [9.105706772049928, 6.962418867336908], [9.102194497678, 6.963891040439194], [9.099343194432947, 6.963966647342943], [9.09401010857971, 6.964610900073012], [9.090692292815106, 6.968351031175189], [9.083521758022755, 6.966437840434025], [9.076827863015524, 6.969827748551779], [9.074260001797711, 6.971993496802497], [9.058432000336609, 6.969958000061695], [9.048091355331849, 6.968899763313459], [9.030578556755017, 6.967107544877365], [9.011309240129378, 6.969607089095916], [8.99654491541554, 6.962310098832063], [8.99923528767846, 6.907074237885809], [9.005758834902338, 6.887008562595156], [8.99538911841313, 6.882499243145617], [8.99182859990998, 6.878876887258571], [8.98196154598861, 6.87079371865525], [8.979405744679411, 6.860447996977541], [8.980182856054, 6.855042500411116], [8.983568364688324, 6.848377229025971], [9.014039805792436, 6.815943832342043], [9.01447023121625, 6.813123265226579], [9.005334301836626, 6.806907540650514], [8.998624603043027, 6.784099842333887], [9.00299985336062, 6.780347055072582], [9.006128440075486, 6.775913380298334], [9.013856534751312, 6.764085021006963], [9.009599351029294, 6.754033054781701], [9.000352861695262, 6.745109726033093], [8.995684046581516, 6.736562550421411], [8.98939475836147, 6.733925674330465], [8.987076117269055, 6.73620323439178], [8.968091964872315, 6.697119236063941], [8.969207763627423, 6.693666934781277], [8.970331192230788, 6.691361904028724], [8.992015838759983, 6.692360878152044], [9.027075768432042, 6.650787829794581], [9.03382956098551, 6.647819138942168], [9.035036086945922, 6.647288798839043], [9.04755973819141, 6.643758773648528], [9.058959006652856, 6.642531872647851], [9.059971010154072, 6.642524893908785], [9.07036781332397, 6.642453194559323], [9.13567638425775, 6.679891108887603], [9.167671204062856, 6.686559199647377], [9.184833526945738, 6.693329811321803], [9.172706754613102, 6.725508441761235], [9.184904610259593, 6.745050878894972], [9.184098030799532, 6.752326453603018], [9.182594840079844, 6.758126341557443], [9.185112582979343, 6.759087975829459], [9.193466223587393, 6.77027729486133], [9.183172379301936, 6.784748860571483], [9.179134628360487, 6.790420113997129], [9.177975161224765, 6.802343007323998], [9.177870184261621, 6.806632919173921], [9.177679709650931, 6.81311316404134], [9.157689275239932, 6.827692991038759], [9.163796916594492, 6.830095895009606], [9.171699018395032, 6.840288615027589], [9.18764300002448, 6.871875999677684], [9.183670000270354, 6.909470000340264], [9.177477999809867, 6.924385000167661], [9.162464371333726, 6.943060578083248]]]}}, {"type": "Feature", "properties": {"name": "Gwer East", "state": "be"}, "geometry": {"type": "Polygon", "coordinates": [[[8.696588999882465, 7.661138000218557], [8.694041000192044, 7.660487999921315], [8.689132000441532, 7.656424999614103], [8.674937999689007, 7.652320000068016], [8.66520599965719, 7.631945000261624], [8.651235000195129, 7.609600000439741], [8.633073999965177, 7.599309999856644], [8.601682000224173, 7.569656000224256], [8.546278000229563, 7.552851999620145], [8.52364000038574, 7.550930000019548], [8.513748000170096, 7.552713000404708], [8.484794000442832, 7.559655000378029], [8.474492000205714, 7.564436999667862], [8.464001000246014, 7.571986999800231], [8.451425000363542, 7.578884000396329], [8.439436999717827, 7.593603000178348], [8.423403000448161, 7.614842000258136], [8.412132999638288, 7.631163000172364], [8.406654919688833, 7.642774417805185], [8.405007128776049, 7.637569889139115], [8.39997672864314, 7.634599182006696], [8.396083191186392, 7.619365645008543], [8.381177373437083, 7.61745969021257], [8.3621470003838, 7.621410000071478], [8.347946000207799, 7.613356000079364], [8.340397000121527, 7.60288300005044], [8.336941999973362, 7.589117000149486], [8.334275000191155, 7.581096999926672], [8.332288000291044, 7.57237499970654], [8.32564000038576, 7.560737999958803], [8.314516578277505, 7.550535758818285], [8.311826000069914, 7.548068000238061], [8.301964000338387, 7.537405999587236], [8.282359000067856, 7.5234509999637], [8.268711000212534, 7.506861000235006], [8.257807644007642, 7.487097477366717], [8.265865103691624, 7.471921790158547], [8.27155453961035, 7.460237067886396], [8.24886389884989, 7.43902611406395], [8.236609664704304, 7.446472642698325], [8.226038408345914, 7.441038667300688], [8.217967277168157, 7.441726081193735], [8.210481117209838, 7.441349811144903], [8.195591192279721, 7.434069631008697], [8.187819406740289, 7.417229848178977], [8.182286844062673, 7.416155113367836], [8.166032768997127, 7.406836250192839], [8.159432770406056, 7.402908790308459], [8.14455380011782, 7.391322851368557], [8.134262187949673, 7.375521734240692], [8.158782167563004, 7.360916425852395], [8.171900452344062, 7.331873561415762], [8.181023668007924, 7.31883634422195], [8.186021751902388, 7.318237096265023], [8.209696372389715, 7.279280109189756], [8.219945605805094, 7.271304569650226], [8.220333151553746, 7.239828586719966], [8.232745517091985, 7.219533940439021], [8.2429702223979, 7.192431884024302], [8.234704626317523, 7.175775823695346], [8.256124131123784, 7.126036978823549], [8.25748675690835, 7.125972203354536], [8.305605395772432, 7.125021868164708], [8.320076947992789, 7.130144882280547], [8.338392609131631, 7.115554732864666], [8.359718114999055, 7.119178865812046], [8.387468715708735, 7.103034527821251], [8.405361438279783, 7.103203635439456], [8.421436014960193, 7.069384464421546], [8.422851264574263, 7.0525302141981], [8.431762999263071, 7.049977916647606], [8.477440703625632, 7.064112134067784], [8.493545129704046, 7.071607503983159], [8.51410144812337, 7.064411300740971], [8.519907372327395, 7.072162528677779], [8.520271676896414, 7.072824763352173], [8.52527394803434, 7.106073387376966], [8.52628723666669, 7.120752406898134], [8.52742372792278, 7.12713207158788], [8.52342806075643, 7.138943776334258], [8.52383502556603, 7.180525653336304], [8.519170057752035, 7.202690647555414], [8.492497992388508, 7.211119815027473], [8.48781763357698, 7.227984026141939], [8.481620658066959, 7.236882004800748], [8.483192678399462, 7.248875975146177], [8.483420214970977, 7.249130779162158], [8.49219824655188, 7.262878191875132], [8.499163457127906, 7.276454745989781], [8.501536625015262, 7.282730628915431], [8.505744706652933, 7.294594792915404], [8.51349174195036, 7.306903690552929], [8.533323142948745, 7.313649803795442], [8.549466585214759, 7.324155972620076], [8.561683230396795, 7.327629730827482], [8.564478594911293, 7.327203415305405], [8.595257657215143, 7.347996339059875], [8.639310963829985, 7.356526185635005], [8.650978885866948, 7.411077854059783], [8.654065635220945, 7.417728096874214], [8.654985361984927, 7.468438069261538], [8.65153275403344, 7.479722243386846], [8.646814825144133, 7.489037079397747], [8.68746058164055, 7.500499762653988], [8.694635999751654, 7.511858999593187], [8.768690000043534, 7.569132000341597], [8.759224999733988, 7.625745000331563], [8.763141999603647, 7.639731999632147], [8.767846999839207, 7.653304999626073], [8.696588999882465, 7.661138000218557]]]}}, {"type": "Feature", "properties": {"name": "Ogbadibo", "state": "be"}, "geometry": {"type": "Polygon", "coordinates": [[[7.688128414794562, 6.852689158977569], [7.691748447732721, 6.851578296601133], [7.711925623668662, 6.860918930564253], [7.70938809118752, 6.86677601630015], [7.706840671559803, 6.876191524219507], [7.710019687758404, 6.881281871361296], [7.712426707026964, 6.887181675793727], [7.685858361374301, 6.903469837862758], [7.709432207430496, 6.943641650741654], [7.718516999559938, 6.950042999884602], [7.731747250834985, 6.954704944177877], [7.73648371924827, 6.957618692748497], [7.742825413661933, 6.964469055402617], [7.740845789101911, 6.964969528121287], [7.736759401025608, 6.965938916347966], [7.735109626208327, 6.970467063104536], [7.73818572309267, 6.986052872642006], [7.749791874295624, 7.00366238431161], [7.7517572598897, 7.005250518696528], [7.760662220884853, 7.007287288877308], [7.763299108666956, 7.009199326687622], [7.762369109846588, 7.023743044106254], [7.773697610656257, 7.029179637430389], [7.7663241033747, 7.045340852998038], [7.757509999986553, 7.050307000167948], [7.747022000165202, 7.057858000346471], [7.740962959073329, 7.064657999167366], [7.744720513640857, 7.068384369742944], [7.750394956062394, 7.070824494854605], [7.762493207295734, 7.070466604250441], [7.767004372154076, 7.075001359225382], [7.768560478982977, 7.083166206055637], [7.772717039359918, 7.090683132720471], [7.772929457428575, 7.098282931911854], [7.772387536755446, 7.100071875916399], [7.767031726832784, 7.106160749319201], [7.762209156427502, 7.108609632028958], [7.762342260586877, 7.11879344426211], [7.755890161801574, 7.133967598126219], [7.742826630444711, 7.147731016972898], [7.74030512927834, 7.164117438968674], [7.739046039743016, 7.165197466290067], [7.710073687550675, 7.183112262720783], [7.702966018966663, 7.188963582903057], [7.691022244281214, 7.191829895833052], [7.68192339305017, 7.185449448733095], [7.672369009122519, 7.173702678635777], [7.643081219722546, 7.158281663567948], [7.635451450623975, 7.147128481993889], [7.637383938118319, 7.132672786619878], [7.601947784262904, 7.09056615790189], [7.599446296609358, 7.079309940101723], [7.611119270138261, 7.027197360769605], [7.610285758680845, 7.023445129289314], [7.607784271027356, 7.017608643424182], [7.605874447347901, 7.01725054327801], [7.601113796164782, 7.016357899597438], [7.5931925765762, 7.018025874894249], [7.580685615848552, 7.027197360769605], [7.543581963336976, 7.04012107812531], [7.530513762700025, 7.032278060883868], [7.557177544408205, 6.977619170788159], [7.558611366821196, 6.972521040913364], [7.564267159102144, 6.952411174735971], [7.57135725043679, 6.939806938839183], [7.577659130064831, 6.932717323245924], [7.596224149824707, 6.926086701839893], [7.599716186752687, 6.924839496845379], [7.620197773308632, 6.919325352283238], [7.635952950368392, 6.903570175223479], [7.638514216857686, 6.899038795404124], [7.646193981067427, 6.885451793865229], [7.658010006156928, 6.868121146673616], [7.661678928939466, 6.865325857702203], [7.674552917383267, 6.855517387417535], [7.688128414794562, 6.852689158977569]]]}}, {"type": "Feature", "properties": {"name": "Ohimini", "state": "be"}, "geometry": {"type": "Polygon", "coordinates": [[[7.801155285088385, 7.292601656041654], [7.805253638644558, 7.290614718194718], [7.810923284981641, 7.283867246975888], [7.815486849738363, 7.280016833809896], [7.824522054149554, 7.279891938662104], [7.830632620099379, 7.256308648825154], [7.833369053838794, 7.226844710115301], [7.829205029988202, 7.192816547445773], [7.846407852940104, 7.187064474645865], [7.842872367965469, 7.176536865983621], [7.843375903774984, 7.159417610734181], [7.897530502630616, 7.152608071905036], [7.915555236684895, 7.144871936390814], [7.935037565831067, 7.149942910337074], [7.936896345789762, 7.12474541117183], [7.935174172849827, 7.114547030820859], [7.934814103188387, 7.113212971101802], [7.952696166994542, 7.104682978836479], [7.955462074215404, 7.106203153252977], [7.958412965685852, 7.107717375056836], [7.972668874868702, 7.107013836319538], [8.050308015302733, 7.141095379148453], [8.05701801536918, 7.14620558871701], [8.064892659968336, 7.15224756607239], [8.074839713981646, 7.153758342573497], [8.074571376068207, 7.191356632102952], [8.068512125434268, 7.196506479290633], [8.072757689016157, 7.197934932750968], [8.075538187737209, 7.199016443953781], [8.077003718446917, 7.19988334813803], [8.08919771600182, 7.212718017322686], [8.096894825435868, 7.21596933361792], [8.10198283434039, 7.217944788920931], [8.104581769832862, 7.224688364276631], [8.100124404217922, 7.226730177855472], [8.097822426663697, 7.227435390231108], [8.076392305360628, 7.252571340694885], [8.059572331897641, 7.263403089281212], [8.058970065815913, 7.2659874719443], [8.058578564848915, 7.267843668150817], [8.058778340248239, 7.269707710942157], [8.062537147571334, 7.278157907261686], [8.062383082913016, 7.279113615001393], [8.060299067747849, 7.284730912701491], [8.046263541029646, 7.298930475760869], [8.037234672342322, 7.316315394340052], [8.04469605597825, 7.348208939690835], [8.014477075256877, 7.329847467986326], [8.012454436123392, 7.329948453758163], [8.009999796853208, 7.330258683891202], [8.006919015400285, 7.331406129789116], [8.002862614318246, 7.334226031406274], [7.997369866426254, 7.339230709129993], [7.996125139063963, 7.339955581584888], [7.969600503160734, 7.347957795016271], [7.919487419808604, 7.350060861419649], [7.904701059906017, 7.357355758961148], [7.867933003805149, 7.350075850420183], [7.871451342305647, 7.357103750937426], [7.856198974403185, 7.364161982889243], [7.855691262142102, 7.366269732062506], [7.855243045430257, 7.373456422276092], [7.85463054056703, 7.377397550956232], [7.855320504038104, 7.381045479065676], [7.861434405573391, 7.385207197953889], [7.867016710652706, 7.388387977723028], [7.867766613038782, 7.389853259320489], [7.867159198338356, 7.390998973124169], [7.867816409399836, 7.394335534357481], [7.866942623603222, 7.396163222954442], [7.864412925116426, 7.398406743676333], [7.861761924273424, 7.400285522758736], [7.859030594186606, 7.401197883175826], [7.850814146056052, 7.404034980729818], [7.820145889221465, 7.409861264685674], [7.815919345401539, 7.408826814106249], [7.81189401859416, 7.407810400329765], [7.79218887971308, 7.409864057979917], [7.799378785003, 7.401134003431537], [7.800116631977005, 7.391777473052002], [7.798397097647978, 7.385245592709964], [7.797122582041595, 7.375952186644156], [7.802608319718217, 7.36428830705978], [7.76869506882241, 7.301886573406705], [7.801155285088385, 7.292601656041654]]]}}]}