{"type": "FeatureCollection", "features": [{"type": "Feature", "properties": {"name": "Ekeremor", "state": "by"}, "geometry": {"type": "Polygon", "coordinates": [[[5.992608069906566, 4.893021107338257], [5.988237857591116, 4.904250144928312], [5.987052811937758, 4.906275831864207], [5.982469081682837, 4.914111137419127], [5.980811119437647, 4.92343282806263], [5.980175018162583, 4.938313961220388], [5.985958098687377, 4.953547000893423], [5.989848136882074, 4.965559958625249], [5.992520808688425, 4.985959053067916], [5.992317200378523, 5.048230170985676], [5.983734006918951, 5.056658073111635], [5.978823184242628, 5.061480044568441], [5.971264839300943, 5.073695183386064], [5.95986509329947, 5.100848198085941], [5.966450214405938, 5.110024928807491], [5.97025489794521, 5.128180980967556], [5.974926472178993, 5.137524605176452], [5.972455502119772, 5.140614032711483], [5.964244842925211, 5.149107455844444], [5.960538863577767, 5.157218455767179], [5.94605207414395, 5.164227961551205], [5.93320083495064, 5.164695262776206], [5.927826404564939, 5.16072320910888], [5.927592754402156, 5.154881954138943], [5.926891803913691, 5.139927864379501], [5.921751499432219, 5.135020733420163], [5.917545318961345, 5.134086131869537], [5.916377068147199, 5.131515980078461], [5.915909766922255, 5.117496490071005], [5.914507865945325, 5.108150005118716], [5.909367560564533, 5.104878901939799], [5.896516323169806, 5.104411601614174], [5.885300636015586, 5.099972247621167], [5.88273048422451, 5.101841449823098], [5.881353320899109, 5.1095089913469], [5.880772745565821, 5.1095089913469], [5.877645015904818, 5.105258465305951], [5.877892494043408, 5.100305080415183], [5.878387927860615, 5.097085952654652], [5.877645015904818, 5.09138965580803], [5.867738723663194, 5.068109512144304], [5.857383250636531, 5.077362536851638], [5.853145599290031, 5.075462817954758], [5.851976395194527, 5.070202827198784], [5.848323822086741, 5.066549778349668], [5.840871333645168, 5.067572594399735], [5.840140819743112, 5.083061217801003], [5.820268630892656, 5.075170516706009], [5.817346095945595, 5.077362536851638], [5.815300464744723, 5.081892490346206], [5.8141312597499, 5.084522247403868], [5.813681436848867, 5.084689342339345], [5.809017181297918, 5.086421967200067], [5.805510521393501, 5.083645821197763], [5.803610801597245, 5.081892490346206], [5.797473907095196, 5.083061217801003], [5.791336535952439, 5.085837363803364], [5.789144993346838, 5.084376335099819], [5.789875507248894, 5.078677654150454], [5.788122177296714, 5.072540759648405], [5.784176826299529, 5.069325924351972], [5.780443191899849, 5.064958571880652], [5.77901887891818, 5.058013916209291], [5.76423978823567, 5.064246178418443], [5.75836372410663, 5.061040877734342], [5.754874815020742, 5.057193351392129], [5.751953602077094, 5.053740500623633], [5.748570441572667, 5.053206443622514], [5.743050574624363, 5.055699348146447], [5.736462116133794, 5.056589603227678], [5.730586052004753, 5.0544528967838], [5.719368458287761, 5.030948640267582], [5.710287094373939, 5.023826122077935], [5.702096461282736, 5.022935866996704], [5.691234589005148, 5.02418232015799], [5.682153701731977, 5.02792167694389], [5.675565243241408, 5.029880046926678], [5.666662215788676, 5.028277874124626], [5.663685086597525, 5.024308663214299], [5.663456916903215, 5.024004459438288], [5.663456916903215, 5.018840313030069], [5.663635254263625, 5.015100956244169], [5.66180896770976, 5.012883663350408], [5.656670569791004, 5.011776447724912], [5.647893429438284, 5.011776447724912], [5.642328739379877, 5.015602112447596], [5.637648884188707, 5.01698857656163], [5.632938861239495, 5.0183839799368], [5.625288010233533, 5.026035309382053], [5.619723319275806, 5.034729480980786], [5.611029147677073, 5.038902759754592], [5.599204540357277, 5.042380810426096], [5.590857982809723, 5.043424129220227], [5.585641384342466, 5.047945022944475], [5.584598063749695, 5.055248259899315], [5.569295883298423, 5.056291579592767], [5.550863742867477, 5.055596352389784], [5.544603824706769, 5.058030604928547], [5.533127308078861, 5.062899590243944], [5.524085043989658, 5.068811892554834], [5.517606963790399, 5.079300073139905], [5.516781807034818, 5.080636024133241], [5.511565207668241, 5.088287353578551], [5.50287056032812, 5.092460632352356], [5.493828297138236, 5.091764926710027], [5.486848226164739, 5.09064822323694], [5.476113635835645, 5.090885780054748], [5.467934542844944, 5.093236976605226], [5.464647294137364, 5.09757213784394], [5.466589989836223, 5.108038991006651], [5.469233798800815, 5.116826958297509], [5.448385217803605, 5.133690560570983], [5.437777519117276, 5.132222175413119], [5.431518124362015, 5.139274178660457], [5.414443970113155, 5.136110306145781], [5.401666640802887, 5.137221336695404], [5.375165237086094, 5.126203191024501], [5.423665934035682, 5.024384467968844], [5.441749838084604, 4.97584346340517], [5.438282576579695, 4.970586295621104], [5.436325147287789, 4.959657270966318], [5.440241702892308, 4.943764576773845], [5.443716997141735, 4.932985966429271], [5.443821265439112, 4.923274238915042], [5.483479872997805, 4.844878387327753], [5.527283681596657, 4.772491633881828], [5.52875387079456, 4.763328080026895], [5.532057474572866, 4.751592786178207], [5.54564714440022, 4.749553203817356], [5.559906006057361, 4.741206646269745], [5.564774989574175, 4.737380980647799], [5.566681861678603, 4.727214813113164], [5.569565773441752, 4.722613811378324], [5.595687865602542, 4.735066891024246], [5.596521853700608, 4.740338325653227], [5.597630022607518, 4.744769573157328], [5.610184668987358, 4.738861560612577], [5.610184668987358, 4.730368136580296], [5.616199017370775, 4.729592799568081], [5.618663831570643, 4.730178104435993], [5.618089441774373, 4.734545118762242], [5.619471845449368, 4.736074314278255], [5.627990823717596, 4.730847708155238], [5.629184083778512, 4.732224954218339], [5.629553126875351, 4.733847235861276], [5.627756538633378, 4.73573336600208], [5.625938985395919, 4.738542090844874], [5.623146946574366, 4.741035004362004], [5.623447895703862, 4.741660229236231], [5.625324725955409, 4.743661879991805], [5.632462977784257, 4.741853237237137], [5.644756792891712, 4.737917900191007], [5.647687910968386, 4.747624873888867], [5.644182205244647, 4.756051063705684], [5.642523766358806, 4.765374184271252], [5.647110939218521, 4.768771647593496], [5.648652076831922, 4.774559020582387], [5.663254421954036, 4.780096597879719], [5.66899231694191, 4.781325250759778], [5.674377721754524, 4.781752090586565], [5.684592663120952, 4.776572751930985], [5.687747697997906, 4.775841953843155], [5.689909846262424, 4.777327495367672], [5.696592330671592, 4.810498238103264], [5.70139265095014, 4.812344550760486], [5.704346656772827, 4.809021473062558], [5.710955162950484, 4.804557265405549], [5.744867739354731, 4.794869470649587], [5.749568189920069, 4.795273194302524], [5.755305289907255, 4.796097279066203], [5.766013621831235, 4.800528049030277], [5.767859936287095, 4.812344550760486], [5.771552563400121, 4.814560413732181], [5.781522750674469, 4.807175160405393], [5.785584927202649, 4.803482533292311], [5.797201157107736, 4.805858134745165], [5.895068169160709, 4.845952033959236], [5.992608069906566, 4.893021107338257]]]}}, {"type": "Feature", "properties": {"name": "Southern Ijaw", "state": "by"}, "geometry": {"type": "Polygon", "coordinates": [[[5.532057474572866, 4.751592786178207], [5.54179731939081, 4.730483433263885], [5.580886700161159, 4.674776614449229], [5.605640958563413, 4.641491529210725], [5.635780198197665, 4.59816545127461], [5.659396827701471, 4.567221391254236], [5.687408884712283, 4.53469309990669], [5.700087545803626, 4.517220569373819], [5.71530150995676, 4.50634271344552], [5.738809587692344, 4.487987722255639], [5.834063115020797, 4.414793988252029], [5.843041145932204, 4.402372692445851], [5.870225993934525, 4.399467387609889], [5.876592158901076, 4.398787021703754], [5.953460217015447, 4.369548798438359], [5.956541538061572, 4.370013713761921], [5.964485167856253, 4.371212958811043], [5.973324776017648, 4.378491878997067], [5.971416473091836, 4.392400264960315], [5.971416473091836, 4.403478146299449], [5.978549956715199, 4.412786008067883], [5.98169004575908, 4.427056099559422], [5.982494354430969, 4.430711269009919], [5.989879607757757, 4.444097041845055], [5.994878769039985, 4.452925205234067], [6.04743194602753, 4.470584869396248], [6.056220055411302, 4.475076198807585], [6.064576149369827, 4.480968951655825], [6.075696944558388, 4.487742900714352], [6.115873814325141, 4.529319763096623], [6.126414776121067, 4.529599189650924], [6.138486861579452, 4.538215159801837], [6.186954021011331, 4.606595992910798], [6.19311714244219, 4.617640018372185], [6.20182180373331, 4.642115116419518], [6.197978972751457, 4.657052994999788], [6.196331023557946, 4.666840075808921], [6.206951140982426, 4.720090865900772], [6.208103179718023, 4.781408786985992], [6.210109233554306, 4.790667057438782], [6.213963985049929, 4.800821781100353], [6.235286236270838, 4.838550091013929], [6.238286971766399, 4.851973057110968], [6.196959019243366, 4.846662045117341], [6.179998874748321, 4.846032142869149], [6.156695843338525, 4.849230766087032], [6.155908602000409, 4.850992260084809], [6.152299880734972, 4.859066963369685], [6.153099059673934, 4.877175808316963], [6.141563283119069, 4.998545428428827], [6.130934105924325, 4.993622562930966], [6.117097636047106, 4.99242716068494], [6.116535350226286, 4.99231793262652], [6.0749969482506, 5.060245991259535], [6.065717219973749, 5.053905010008236], [6.054629803122964, 5.048988819278634], [6.054904938112429, 5.039226055238316], [6.062489985724312, 5.028404236066706], [6.070539951357716, 5.018039226629071], [6.079895020338938, 5.003932952943444], [6.085604190980689, 4.990820885175765], [6.089931011007423, 4.97726917303396], [6.090637206342024, 4.966104031376005], [6.087662220235302, 4.954073905586313], [6.085534096021775, 4.93831300703971], [6.073327064592434, 4.898100853271785], [6.075477123270673, 4.841835976349273], [6.072821140183521, 4.822366237711776], [6.061275959418026, 4.817459105853118], [6.05072593695246, 4.816716193897264], [6.041541099742005, 4.815484047151131], [5.989294051978959, 4.814083098556182], [5.9881811139673, 4.828042984196429], [5.989272118413567, 4.837316990087061], [5.996057987086488, 4.857179164986519], [5.999905108733856, 4.866868973324529], [5.998462124027867, 4.875727669596301], [5.995321234587379, 4.883651275086322], [5.992608069906566, 4.893021107338257], [5.895068169160709, 4.845952033959236], [5.797201157107736, 4.805858134745165], [5.785584927202649, 4.803482533292311], [5.781522750674469, 4.807175160405393], [5.771552563400121, 4.814560413732181], [5.767859936287095, 4.812344550760486], [5.766013621831235, 4.800528049030277], [5.755305289907255, 4.796097279066203], [5.749568189920069, 4.795273194302524], [5.744867739354731, 4.794869470649587], [5.710955162950484, 4.804557265405549], [5.704346656772827, 4.809021473062558], [5.70139265095014, 4.812344550760486], [5.696592330671592, 4.810498238103264], [5.689909846262424, 4.777327495367672], [5.687747697997906, 4.775841953843155], [5.684592663120952, 4.776572751930985], [5.674377721754524, 4.781752090586565], [5.66899231694191, 4.781325250759778], [5.663254421954036, 4.780096597879719], [5.648652076831922, 4.774559020582387], [5.647110939218521, 4.768771647593496], [5.642523766358806, 4.765374184271252], [5.644182205244647, 4.756051063705684], [5.647687910968386, 4.747624873888867], [5.644756792891712, 4.737917900191007], [5.632462977784257, 4.741853237237137], [5.625324725955409, 4.743661879991805], [5.623447895703862, 4.741660229236231], [5.623146946574366, 4.741035004362004], [5.625938985395919, 4.738542090844874], [5.627756538633378, 4.73573336600208], [5.629553126875351, 4.733847235861276], [5.629184083778512, 4.732224954218339], [5.627990823717596, 4.730847708155238], [5.6266210051553, 4.730097782386792], [5.619471845449368, 4.736074314278255], [5.618089441774373, 4.734545118762242], [5.618663831570643, 4.730178104435993], [5.616199017370775, 4.729592799568081], [5.610184668987358, 4.730368136580296], [5.610184668987358, 4.738861560612577], [5.597630022607518, 4.744769573157328], [5.596521853700608, 4.740338325653227], [5.595687865602542, 4.735066891024246], [5.569565773441752, 4.722613811378324], [5.566681861678603, 4.727214813113164], [5.564774989574175, 4.737380980647799], [5.559906006057361, 4.741206646269745], [5.54564714440022, 4.749553203817356], [5.532057474572866, 4.751592786178207]]]}}, {"type": "Feature", "properties": {"name": "Nembe", "state": "by"}, "geometry": {"type": "MultiPolygon", "coordinates": [[[[6.53998517987219, 4.500919818594809], [6.523472000232687, 4.530254999568626], [6.522084000076575, 4.525139000164756], [6.513749999762751, 4.52819499989937], [6.521805999847061, 4.525694999724521], [6.522915999773602, 4.531410999817808], [6.513398999764092, 4.553371999917886], [6.508455000198126, 4.561517999656019], [6.506590999674927, 4.560399000213749], [6.50246299996752, 4.561850999723902], [6.497907000307862, 4.565385999963951], [6.492734000074108, 4.573537999978782], [6.488168999999402, 4.576608000358988], [6.473987999846372, 4.612566000220795], [6.449741180311264, 4.606836314244561], [6.433030830608402, 4.597893175229899], [6.431603557957885, 4.58909887581251], [6.43978162392284, 4.584669624803382], [6.446274964717873, 4.586438450074468], [6.455298457258039, 4.588109982189962], [6.469305999772132, 4.586248999791565], [6.47513899986501, 4.577084999872909], [6.480694999774471, 4.575416000248254], [6.484583000105431, 4.559305000125676], [6.49208399977681, 4.550972999904047], [6.490416000198309, 4.541527999617529], [6.49402800039195, 4.509305000225652], [6.504582999705747, 4.476804999750982], [6.525196075238739, 4.469583035428798], [6.531782149626565, 4.478759766150347], [6.534255028047141, 4.488474846337112], [6.537251471977925, 4.494982719277118], [6.53998517987219, 4.500919818594809]]], [[[6.159706116144378, 4.566572188655641], [6.164867877550535, 4.552618981380931], [6.158064841719124, 4.531827927317067], [6.152342796382982, 4.519846916202255], [6.14668178623549, 4.511117935444418], [6.145978928284933, 4.498118878283663], [6.145841126966502, 4.490778032580181], [6.145734786631124, 4.48511314365669], [6.150812149361229, 4.462718010228059], [6.161196231620863, 4.454635142897587], [6.174345016009738, 4.447432995136637], [6.187468051909093, 4.438837051089081], [6.198323932903236, 4.436739787111549], [6.201100987220855, 4.427866141409368], [6.21597768312364, 4.4238472807275], [6.235514418555624, 4.411444705209021], [6.239262546429416, 4.399723080156093], [6.241940398330769, 4.400509949174875], [6.246530181023104, 4.400473165104529], [6.24296099035746, 4.37251449814562], [6.240843268602021, 4.360469467891676], [6.247125045684356, 4.359278745717575], [6.252181401150779, 4.363740235623425], [6.25470957798467, 4.378017001883165], [6.270473507246606, 4.39140146980202], [6.281947218889115, 4.375349252066371], [6.29371293230605, 4.368889473070794], [6.296351964971279, 4.367440553738618], [6.303779124906725, 4.363362789261373], [6.323470115653379, 4.363015175210194], [6.337683200919059, 4.363694191234003], [6.354378393448144, 4.365682203770746], [6.364418029968135, 4.372515202314787], [6.37963390428132, 4.377822876024936], [6.39200687411801, 4.378068924241518], [6.407699107627764, 4.384296893986516], [6.415235043262669, 4.395317078420476], [6.427370410416131, 4.385717919946103], [6.439330342321512, 4.39578266014172], [6.444874399234209, 4.404518839972525], [6.445416999794759, 4.426249000291193], [6.438916878111456, 4.441983218650648], [6.437427715916385, 4.451610561877999], [6.442638000243562, 4.45847199968307], [6.439306000371687, 4.470417000144494], [6.443750000262355, 4.477639000439581], [6.440579719178743, 4.480114334908706], [6.435415999948475, 4.482360999660443], [6.434861999581642, 4.485693999578473], [6.438194000352894, 4.500139000214745], [6.42959992779447, 4.505918580578054], [6.427008864967206, 4.507826641586291], [6.428394508899487, 4.511106703811379], [6.424488266720175, 4.517159136684882], [6.417760914234862, 4.513880409953003], [6.419366222972883, 4.534515770686312], [6.418326837813368, 4.535146705356226], [6.413519766324214, 4.537400216646745], [6.410231551744744, 4.538281161946088], [6.409948867846026, 4.540774079060554], [6.408464900135073, 4.549532400200178], [6.408126830588799, 4.553433894858415], [6.393124103694504, 4.583903790027932], [6.389782905556672, 4.601156235771725], [6.386468885830482, 4.619801997564196], [6.33838605886956, 4.620650767818745], [6.326653956714779, 4.630152224845347], [6.321376800598898, 4.641861915894765], [6.320951146078585, 4.642521191799631], [6.314700126709511, 4.652203083405595], [6.305205821991137, 4.658875942370912], [6.268667220715713, 4.664632796866158], [6.25117015757678, 4.659831046665545], [6.224243164090808, 4.640789986069024], [6.20182180373331, 4.642115116419518], [6.19311714244219, 4.617640018372185], [6.159706116144378, 4.566572188655641]]]]}}, {"type": "Feature", "properties": {"name": "Brass", "state": "by"}, "geometry": {"type": "MultiPolygon", "coordinates": [[[[5.843041145932204, 4.402372692445851], [5.868939696310008, 4.385230663664231], [5.910144042413663, 4.359874960261266], [5.963935929399668, 4.334354725889909], [5.978099031245335, 4.320719682567358], [5.977303713995241, 4.312175731924526], [5.996483810679365, 4.30573401761086], [6.008985828733046, 4.301535163916753], [6.057777405103195, 4.288055420021692], [6.072630654780937, 4.286642077869658], [6.083979009923439, 4.27942605177094], [6.084163309788948, 4.275636595552498], [6.084441328904234, 4.272252837898179], [6.087868400606226, 4.270203986225056], [6.212563834153684, 4.27818247464154], [6.220457301563272, 4.279085286956501], [6.222492853162692, 4.284280786429179], [6.220974897373651, 4.292638115156933], [6.21744364191062, 4.300786236395766], [6.214999199153795, 4.305832862996283], [6.214139796214681, 4.330635717164682], [6.214972693435129, 4.33618440108927], [6.22136740827932, 4.356531220639397], [6.231067346580801, 4.377272596153432], [6.236991423715267, 4.384929413261887], [6.239029157969298, 4.391265488711383], [6.239262546429416, 4.399723080156093], [6.235514418555624, 4.411444705209021], [6.21597768312364, 4.4238472807275], [6.201100987220855, 4.427866141409368], [6.198323932903236, 4.436739787111549], [6.187468051909093, 4.438837051089081], [6.174345016009738, 4.447432995136637], [6.161196231620863, 4.454635142897587], [6.150812149361229, 4.462718010228059], [6.145734786631124, 4.48511314365669], [6.145841126966502, 4.490778032580181], [6.145978928284933, 4.498118878283663], [6.14668178623549, 4.511117935444418], [6.152342796382982, 4.519846916202255], [6.158064841719124, 4.531827927317067], [6.164867877550535, 4.552618981380931], [6.159706116144378, 4.566572188655641], [6.152541784875496, 4.556997905429057], [6.138486861579452, 4.538215159801837], [6.126414776121067, 4.529599189650924], [6.115873814325141, 4.529319763096623], [6.075696944558388, 4.487742900714352], [6.064576149369827, 4.480968951655825], [6.056220055411302, 4.475076198807585], [6.04743194602753, 4.470584869396248], [5.994878769039985, 4.452925205234067], [5.989879607757757, 4.444097041845055], [5.982494354430969, 4.430711269009919], [5.98169004575908, 4.427056099559422], [5.978549956715199, 4.412786008067883], [5.971416473091836, 4.403478146299449], [5.971416473091836, 4.392400264960315], [5.973324776017648, 4.378491878997067], [5.964485167856253, 4.371212958811043], [5.956541538061572, 4.370013713761921], [5.953460217015447, 4.369548798438359], [5.876592158901076, 4.398787021703754], [5.870225993934525, 4.399467387609889], [5.843041145932204, 4.402372692445851]]], [[[6.53998517987219, 4.500919818594809], [6.54549326480236, 4.506106948976537], [6.549862385340873, 4.510221481336316], [6.542593955746497, 4.521851062576502], [6.545016766210836, 4.533480168075357], [6.553039074094045, 4.537399768784326], [6.560038090185742, 4.541233063355264], [6.566337109070389, 4.553831576865832], [6.560038090185742, 4.55431652099071], [6.551316260836813, 4.558192730310282], [6.543078423230668, 4.568368435155207], [6.540171146181478, 4.576605797019965], [6.545501231896367, 4.580966948665775], [6.548893452171114, 4.586297035279983], [6.544047832141814, 4.590173721240319], [6.538109778643445, 4.596213818113256], [6.535140990664217, 4.608811854983173], [6.526094913449526, 4.615013122957293], [6.51661777499038, 4.622614861087015], [6.515436171941815, 4.632859230069471], [6.511964797837209, 4.643144130597193], [6.528808116801201, 4.661898135690478], [6.537717819022191, 4.672893047376306], [6.546593188724728, 4.682030200733209], [6.553585051608877, 4.688412189271162], [6.562364101222329, 4.692440034180265], [6.56052255587133, 4.697745322888409], [6.567574978202742, 4.70164108256995], [6.573121071180537, 4.701622008848688], [6.573524845195493, 4.704851202720874], [6.574090480990947, 4.709374905027914], [6.578935622580957, 4.715189457327654], [6.586215019407689, 4.718504906076589], [6.593472480870332, 4.722457886022653], [6.60024976731296, 4.734055996387156], [6.607241153556458, 4.746353148878768], [6.598309994410783, 4.752677917152198], [6.588737010704506, 4.755170821676131], [6.579172134386567, 4.758128165782296], [6.563601971254002, 4.758402824131053], [6.55261182777366, 4.758596897828625], [6.537438869108598, 4.755611896871585], [6.529523789191558, 4.753572936841636], [6.527311802297902, 4.753003120097958], [6.478478909274315, 4.713901996879713], [6.461060046683883, 4.713280201120426], [6.450611115210847, 4.693482876333746], [6.439350128305819, 4.679276943376294], [6.386468885830482, 4.619801997564196], [6.389782905556672, 4.601156235771725], [6.393124103694504, 4.583903790027932], [6.408126830588799, 4.553433894858415], [6.408464900135073, 4.549532400200178], [6.409948867846026, 4.540774079060554], [6.410231551744744, 4.538281161946088], [6.413519766324214, 4.537400216646745], [6.418326837813368, 4.535146705356226], [6.419366222972883, 4.534515770686312], [6.417760914234862, 4.513880409953003], [6.424488266720175, 4.517159136684882], [6.428394508899487, 4.511106703811379], [6.427008864967206, 4.507826641586291], [6.42959992779447, 4.505918580578054], [6.438194000352894, 4.500139000214745], [6.434861999581642, 4.485693999578473], [6.435415999948475, 4.482360999660443], [6.440579719178743, 4.480114334908706], [6.443750000262355, 4.477639000439581], [6.439306000371687, 4.470417000144494], [6.442638000243562, 4.45847199968307], [6.437427715916385, 4.451610561877999], [6.438916878111456, 4.441983218650648], [6.445416999794759, 4.426249000291193], [6.444874399234209, 4.404518839972525], [6.439330342321512, 4.39578266014172], [6.427370410416131, 4.385717919946103], [6.415235043262669, 4.395317078420476], [6.407699107627764, 4.384296893986516], [6.39200687411801, 4.378068924241518], [6.37963390428132, 4.377822876024936], [6.364418029968135, 4.372515202314787], [6.354378393448144, 4.365682203770746], [6.337683200919059, 4.363694191234003], [6.323470115653379, 4.363015175210194], [6.303779124906725, 4.363362789261373], [6.296351964971279, 4.367440553738618], [6.29371293230605, 4.368889473070794], [6.281947218889115, 4.375349252066371], [6.278888701952098, 4.373055459242096], [6.270555496638906, 4.368055343779133], [6.259974136397318, 4.358074144306386], [6.252252970098539, 4.335219551740977], [6.241578742265176, 4.319129941993253], [6.233514528672629, 4.298809701906293], [6.23922523625572, 4.29262310277403], [6.243984158042508, 4.291909265000641], [6.249456917602686, 4.290719534778759], [6.25492967806224, 4.289767749881776], [6.411801655621957, 4.3055486592433], [6.418063756437277, 4.308352078085989], [6.430705290816547, 4.310210736636236], [6.440869933100998, 4.301070330431457], [6.452577190584918, 4.299035374183234], [6.458582159938771, 4.3102426607702], [6.464568498937126, 4.315217016951806], [6.472679737180158, 4.316049005856996], [6.493610382213433, 4.322221756329043], [6.549243264165341, 4.325280383882671], [6.548255735713667, 4.340248743184986], [6.548027039016688, 4.343715190803437], [6.544572830271932, 4.354928017214263], [6.535923958424007, 4.357870101623917], [6.520407198833198, 4.360930919926034], [6.517242977381557, 4.364978040903907], [6.514143944187708, 4.368941783936236], [6.512575149723432, 4.431702136644333], [6.525196075238739, 4.469583035428798], [6.519305999672213, 4.473751000108621], [6.506249000091316, 4.475973000053955], [6.502083000430162, 4.480416999944623], [6.491249999987531, 4.526804999651063], [6.491806000446616, 4.551803999554977], [6.484583000105431, 4.559305000125676], [6.480694999774471, 4.575416000248254], [6.47513899986501, 4.577084999872909], [6.469305999772132, 4.586248999791565], [6.455298457258039, 4.588109982189962], [6.446274964717873, 4.586438450074468], [6.43978162392284, 4.584669624803382], [6.431603557957885, 4.58909887581251], [6.433030830608402, 4.597893175229899], [6.449741180311264, 4.606836314244561], [6.473987999846372, 4.612566000220795], [6.488168999999402, 4.576608000358988], [6.492734000074108, 4.573537999978782], [6.497907000307862, 4.565385999963951], [6.50246299996752, 4.561850999723902], [6.506590999674927, 4.560399000213749], [6.508455000198126, 4.561517999656019], [6.513398999764092, 4.553371999917886], [6.522915999773602, 4.531410999817808], [6.521805999847061, 4.525694999724521], [6.513749999762751, 4.52819499989937], [6.522084000076575, 4.525139000164756], [6.523472000232687, 4.530254999568626], [6.53998517987219, 4.500919818594809]]]]}}, {"type": "Feature", "properties": {"name": "Akuku Toru", "state": "by"}, "geometry": {"type": "Polygon", "coordinates": [[[6.792914784789559, 4.727834291319539], [6.793656524029416, 4.731229687100438], [6.790912473931598, 4.733305778339059], [6.789426534906681, 4.73924720699307], [6.775769090371284, 4.746989588298902], [6.77543825856884, 4.75025280172548], [6.775418540932947, 4.750361142153054], [6.784247979560632, 4.772522318750077], [6.789220165678159, 4.775217523969616], [6.78135775185882, 4.797524245947216], [6.784905443331581, 4.820704821170636], [6.784185441604905, 4.820783107154739], [6.775697998963551, 4.821996369936585], [6.750670272015498, 4.827192902730303], [6.740948281438079, 4.825232972423805], [6.738270702930663, 4.820485928882533], [6.740300361272716, 4.806523041305354], [6.740958658715158, 4.801899856892931], [6.740674552988253, 4.797921304724468], [6.73927353784353, 4.785049248923769], [6.738560248656597, 4.775324420985271], [6.73442620730367, 4.767352549780412], [6.698324937346058, 4.751109679368255], [6.688427617640514, 4.758213043796957], [6.665603614615179, 4.754511395584473], [6.639128930655659, 4.743403709813379], [6.624310902925856, 4.734818456906282], [6.622037422189351, 4.706306705989732], [6.590235757873984, 4.708254335369304], [6.579359775233513, 4.704516538907171], [6.573524845195493, 4.704851202720874], [6.573121071180537, 4.701622008848688], [6.567574978202742, 4.70164108256995], [6.56052255587133, 4.697745322888409], [6.562364101222329, 4.692440034180265], [6.553585051608877, 4.688412189271162], [6.546593188724728, 4.682030200733209], [6.537717819022191, 4.672893047376306], [6.528808116801201, 4.661898135690478], [6.511964797837209, 4.643144130597193], [6.515436171941815, 4.632859230069471], [6.51661777499038, 4.622614861087015], [6.526094913449526, 4.615013122957293], [6.535140990664217, 4.608811854983173], [6.538109778643445, 4.596213818113256], [6.544047832141814, 4.590173721240319], [6.548893452171114, 4.586297035279983], [6.545501231896367, 4.580966948665775], [6.540171146181478, 4.576605797019965], [6.543078423230668, 4.568368435155207], [6.551316260836813, 4.558192730310282], [6.560038090185742, 4.55431652099071], [6.566337109070389, 4.553831576865832], [6.560038090185742, 4.541233063355264], [6.553039074094045, 4.537399768784326], [6.545016766210836, 4.533480168075357], [6.542593955746497, 4.521851062576502], [6.549862385340873, 4.510221481336316], [6.54549326480236, 4.506106948976537], [6.53998517987219, 4.500919818594809], [6.537251471977925, 4.494982719277118], [6.534255028047141, 4.488474846337112], [6.531782149626565, 4.478759766150347], [6.525196075238739, 4.469583035428798], [6.512575149723432, 4.431702136644333], [6.514143944187708, 4.368941783936236], [6.517242977381557, 4.364978040903907], [6.520407198833198, 4.360930919926034], [6.535923958424007, 4.357870101623917], [6.544572830271932, 4.354928017214263], [6.548027039016688, 4.343715190803437], [6.548255735713667, 4.340248743184986], [6.549243264165341, 4.325280383882671], [6.577956501891094, 4.324689994247876], [6.619999160932593, 4.325803398108405], [6.640951640605806, 4.311949642362151], [6.646742978705561, 4.315209038166643], [6.646996377081166, 4.326434140323386], [6.694166184421931, 4.329999922558443], [6.706372928967539, 4.338723196218552], [6.701178440332797, 4.362237410927833], [6.695553826647824, 4.380196632968307], [6.693843754086004, 4.389166330761611], [6.69124026442671, 4.395686055866861], [6.687567986273621, 4.404630956653364], [6.681656287407804, 4.409390798446623], [6.688712641575194, 4.422485648693794], [6.700298586810391, 4.419594540555636], [6.690317210171145, 4.482135438000114], [6.689794418977328, 4.518517127363566], [6.719340955920416, 4.578303356414835], [6.720858762421983, 4.599189611811198], [6.718655173397565, 4.610930067768436], [6.724456046109708, 4.612705196387765], [6.732069947570096, 4.572289694214078], [6.726655652036754, 4.556665015078408], [6.722632483602297, 4.550716276734818], [6.716884289578331, 4.545611848907754], [6.711374032785443, 4.535807118004129], [6.697141399855752, 4.49605853327472], [6.699711612800741, 4.477333087951706], [6.703535522046764, 4.465428875342354], [6.709166527213483, 4.457221985206502], [6.707922755830566, 4.447366913852022], [6.707383907241592, 4.444904216656312], [6.711477079803444, 4.431484956665486], [6.715943648180883, 4.416579460873493], [6.715971118872062, 4.408762747003209], [6.713105359924441, 4.404965001733501], [6.712629873070227, 4.403491711673212], [6.712791269901231, 4.401219429732919], [6.713507250759051, 4.384007714284621], [6.712499618862353, 4.358888626109263], [6.716943741060845, 4.34999942843092], [6.737990222370911, 4.346388816790522], [6.762662388858189, 4.346421917237763], [6.875197479280303, 4.357069429810394], [6.874828323768156, 4.36379287743938], [6.856943177985329, 4.379057093010488], [6.850176854278459, 4.390094281825668], [6.858177814054898, 4.398239956908526], [6.842038782963527, 4.426442999344999], [6.816873418373632, 4.502121321841571], [6.812153847322236, 4.542799963847301], [6.813291333228506, 4.562949715856746], [6.814152595066275, 4.57820634294842], [6.840421844192804, 4.602476846129605], [6.83813756169917, 4.618752359234065], [6.820825391078984, 4.637919406755259], [6.814152595066275, 4.645307144908884], [6.786926490665053, 4.665625852551102], [6.773728550232477, 4.721597492930016], [6.77700544774325, 4.725482880730397], [6.788151814254888, 4.720107041107099], [6.792914784789559, 4.727834291319539]]]}}, {"type": "Feature", "properties": {"name": "Ogbia", "state": "by"}, "geometry": {"type": "Polygon", "coordinates": [[[6.20182180373331, 4.642115116419518], [6.224243164090808, 4.640789986069024], [6.25117015757678, 4.659831046665545], [6.268667220715713, 4.664632796866158], [6.272655008921561, 4.664075576027074], [6.280088902081218, 4.663036823090977], [6.292901992932684, 4.662345885654133], [6.293621777922738, 4.662142891581254], [6.305205821991137, 4.658875942370912], [6.314700126709511, 4.652203083405595], [6.320951146078585, 4.642521191799631], [6.321376800598898, 4.641861915894765], [6.326653956714779, 4.630152224845347], [6.33838605886956, 4.620650767818745], [6.386468885830482, 4.619801997564196], [6.450611115210847, 4.693482876333746], [6.461060046683883, 4.713280201120426], [6.459769747975542, 4.721757100110153], [6.459428787108891, 4.723997116174019], [6.445941925079808, 4.730044841995891], [6.441421986435557, 4.745329857087256], [6.444090843317838, 4.760978221667642], [6.444660187018087, 4.775567055375348], [6.434442557577995, 4.768819490627038], [6.429982184630148, 4.765873908753917], [6.429837954058371, 4.766102430982471], [6.422863959803976, 4.777152061018853], [6.399279117737137, 4.83844184861249], [6.399042657192922, 4.843022166839603], [6.398606777380905, 4.85146522524002], [6.398394108401419, 4.864480018737936], [6.400884151282582, 4.875123978089164], [6.44064092613786, 4.943194866150179], [6.440569705227745, 4.946659393716118], [6.440402031128883, 4.954815865160072], [6.437415122709808, 4.966485977046261], [6.430675982810385, 4.97357511509955], [6.421666144676863, 4.981634139603898], [6.418285846714525, 4.972400187718563], [6.402005195783204, 4.959210872683684], [6.388965130436475, 4.947824001376603], [6.385283252919862, 4.944804826181837], [6.373343825557129, 4.935118173564888], [6.371252150866098, 4.938866700737719], [6.339785671971242, 4.907641494659288], [6.332466988260933, 4.907279075968631], [6.323523997634425, 4.90251207377321], [6.2959325553432, 4.881403052708777], [6.293146036560415, 4.875698386771205], [6.277109636100874, 4.868822333184198], [6.278744865283329, 4.872816121666744], [6.279978504904136, 4.874506051213359], [6.275349140350613, 4.874086857422583], [6.275301291021833, 4.874086425747976], [6.257938861789114, 4.873929976986915], [6.242722988375249, 4.868622779917416], [6.238286971766399, 4.851973057110968], [6.235286236270838, 4.838550091013929], [6.213963985049929, 4.800821781100353], [6.210109233554306, 4.790667057438782], [6.208103179718023, 4.781408786985992], [6.206951140982426, 4.720090865900772], [6.196331023557946, 4.666840075808921], [6.197978972751457, 4.657052994999788], [6.20182180373331, 4.642115116419518]]]}}, {"type": "Feature", "properties": {"name": "Yenegoa", "state": "by"}, "geometry": {"type": "Polygon", "coordinates": [[[6.238286971766399, 4.851973057110968], [6.242722988375249, 4.868622779917416], [6.257938861789114, 4.873929976986915], [6.275301291021833, 4.874086425747976], [6.275349140350613, 4.874086857422583], [6.279978504904136, 4.874506051213359], [6.278744865283329, 4.872816121666744], [6.277109636100874, 4.868822333184198], [6.293146036560415, 4.875698386771205], [6.2959325553432, 4.881403052708777], [6.30281405612385, 4.887269312428884], [6.304944991618129, 4.888898848902784], [6.314682961349661, 4.895233153587242], [6.323523997634425, 4.90251207377321], [6.332466988260933, 4.907279075968631], [6.339785671971242, 4.907641494659288], [6.371252150866098, 4.938866700737719], [6.373343825557129, 4.935118173564888], [6.418285846714525, 4.972400187718563], [6.421666144676863, 4.981634139603898], [6.410391808235431, 4.991127015299583], [6.411561012330878, 5.004581928013636], [6.439036845873773, 5.052887917243652], [6.443332164447895, 5.066345769841462], [6.443903922827815, 5.068137168995179], [6.485816002106844, 5.153363227630905], [6.493334769683941, 5.163454056259752], [6.511361121618506, 5.171964169011233], [6.526298522658749, 5.174164772286474], [6.534568309579868, 5.18684530306831], [6.544492244721368, 5.186294078908645], [6.553380965759004, 5.189809800382022], [6.558826447082936, 5.198422908890166], [6.549230098989938, 5.212652206234395], [6.552762031642487, 5.226540565194966], [6.566636085986602, 5.236972809747442], [6.547786235646299, 5.257751942398272], [6.547463879954137, 5.257973660356186], [6.537384987127496, 5.264905930564282], [6.532513141967968, 5.273820876732145], [6.530881882393032, 5.284537791785738], [6.519733906094928, 5.276370049138507], [6.486999035077474, 5.240703105863702], [6.400932789316812, 5.19482517194416], [6.388543128962283, 5.193649768821842], [6.397731781096866, 5.170718194289293], [6.401099205264188, 5.154859066392874], [6.39987154163839, 5.147516524568005], [6.399549961161824, 5.145593166091771], [6.395730018825361, 5.137296199859804], [6.358265876668895, 5.093811988732341], [6.321924209834492, 5.085625172363848], [6.311758041400537, 5.056529998860412], [6.305215835942136, 5.049674987610615], [6.293416376364746, 5.046189818805146], [6.29185676577714, 5.04572915997278], [6.292538165903693, 5.055182934045206], [6.283061980725904, 5.061213016967201], [6.273586273088085, 5.056044102353496], [6.269363779814626, 5.049722142662802], [6.267603874019642, 5.047087193818982], [6.265113831138422, 5.036443232669114], [6.261198043554941, 5.023036002909237], [6.248579978783027, 5.009782791042994], [6.23575164082564, 4.998466714367396], [6.224823951664064, 4.988827229393166], [6.207135200728999, 4.973804951237582], [6.183907031584283, 4.956556797058568], [6.159770966257156, 4.93978977208036], [6.14735507987308, 4.940584182813836], [6.152299880734972, 4.859066963369685], [6.155908602000409, 4.850992260084809], [6.156695843338525, 4.849230766087032], [6.179998874748321, 4.846032142869149], [6.196959019243366, 4.846662045117341], [6.238286971766399, 4.851973057110968]]]}}, {"type": "Feature", "properties": {"name": "Kolokuma/Opokuma", "state": "by"}, "geometry": {"type": "Polygon", "coordinates": [[[6.14735507987308, 4.940584182813836], [6.159770966257156, 4.93978977208036], [6.183907031584283, 4.956556797058568], [6.207135200728999, 4.973804951237582], [6.224823951664064, 4.988827229393166], [6.23575164082564, 4.998466714367396], [6.248579978783027, 5.009782791042994], [6.261198043554941, 5.023036002909237], [6.265113831138422, 5.036443232669114], [6.267603874019642, 5.047087193818982], [6.269363779814626, 5.049722142662802], [6.273586273088085, 5.056044102353496], [6.283061980725904, 5.061213016967201], [6.292538165903693, 5.055182934045206], [6.29185676577714, 5.04572915997278], [6.293416376364746, 5.046189818805146], [6.305215835942136, 5.049674987610615], [6.311758041400537, 5.056529998860412], [6.321924209834492, 5.085625172363848], [6.358265876668895, 5.093811988732341], [6.395730018825361, 5.137296199859804], [6.399549961161824, 5.145593166091771], [6.39987154163839, 5.147516524568005], [6.401099205264188, 5.154859066392874], [6.397731781096866, 5.170718194289293], [6.388543128962283, 5.193649768821842], [6.379288196792913, 5.18870210631718], [6.300445079976498, 5.18591213233907], [6.265036106331308, 5.17863798125785], [6.254354953718178, 5.170927048344652], [6.219233989756844, 5.130188942265931], [6.213502883751119, 5.117743970008235], [6.203141211697584, 5.102592944908508], [6.180618763045516, 5.074180125712303], [6.172105788651265, 5.059926033159968], [6.164577961303905, 5.049370765848209], [6.160897782606639, 5.029258541648403], [6.147763158043347, 5.015410078412458], [6.141563283119069, 4.998545428428827], [6.14735507987308, 4.940584182813836]]]}}, {"type": "Feature", "properties": {"name": "Sagbama", "state": "by"}, "geometry": {"type": "Polygon", "coordinates": [[[5.992608069906566, 4.893021107338257], [5.995321234587379, 4.883651275086322], [5.998462124027867, 4.875727669596301], [5.999905108733856, 4.866868973324529], [5.996057987086488, 4.857179164986519], [5.989272118413567, 4.837316990087061], [5.9881811139673, 4.828042984196429], [5.989294051978959, 4.814083098556182], [6.041541099742005, 4.815484047151131], [6.05072593695246, 4.816716193897264], [6.061275959418026, 4.817459105853118], [6.072821140183521, 4.822366237711776], [6.075477123270673, 4.841835976349273], [6.073327064592434, 4.898100853271785], [6.085534096021775, 4.93831300703971], [6.087662220235302, 4.954073905586313], [6.090637206342024, 4.966104031376005], [6.089931011007423, 4.97726917303396], [6.085604190980689, 4.990820885175765], [6.079895020338938, 5.003932952943444], [6.070539951357716, 5.018039226629071], [6.062489985724312, 5.028404236066706], [6.054904938112429, 5.039226055238316], [6.054629803122964, 5.048988819278634], [6.065717219973749, 5.053905010008236], [6.0749969482506, 5.060245991259535], [6.116535350226286, 4.99231793262652], [6.117097636047106, 4.99242716068494], [6.130934105924325, 4.993622562930966], [6.141563283119069, 4.998545428428827], [6.147763158043347, 5.015410078412458], [6.160897782606639, 5.029258541648403], [6.164577961303905, 5.049370765848209], [6.172105788651265, 5.059926033159968], [6.180618763045516, 5.074180125712303], [6.203141211697584, 5.102592944908508], [6.213502883751119, 5.117743970008235], [6.219233989756844, 5.130188942265931], [6.254354953718178, 5.170927048344652], [6.265036106331308, 5.17863798125785], [6.300445079976498, 5.18591213233907], [6.379288196792913, 5.18870210631718], [6.388543128962283, 5.193649768821842], [6.400932789316812, 5.19482517194416], [6.486999035077474, 5.240703105863702], [6.56315994277719, 5.320212840650129], [6.567076206102058, 5.333620071309269], [6.569632053276678, 5.372142791956321], [6.561977863087975, 5.379249096268836], [6.485476971185335, 5.379205227339412], [6.49587106739591, 5.369657516381324], [6.500541209908931, 5.351987839167464], [6.502585887828502, 5.338941097253894], [6.493019104048471, 5.328299522005409], [6.493532180765555, 5.326040745184287], [6.490166664060325, 5.324021339113585], [6.473052979211673, 5.321882247667645], [6.464626728240944, 5.323988766568391], [6.450234890128115, 5.327586651003173], [6.434547423924528, 5.323307990571379], [6.425990582399493, 5.3111858371567], [6.413993482413332, 5.306687174673414], [6.408876895752201, 5.304768561919673], [6.393188952907906, 5.306907654264876], [6.391089434329956, 5.307257560687901], [6.380353927591727, 5.309046745710816], [6.3625273699422, 5.314038277144846], [6.347552775640111, 5.32045602812326], [6.338755193697295, 5.319782362166336], [6.333523813073555, 5.317602264333061], [6.330088139356178, 5.313632487749146], [6.327453613193768, 5.310412406707258], [6.325403213787354, 5.306539535671106], [6.300047873710469, 5.299026488681534], [6.285005568552208, 5.279088973977025], [6.28354215574592, 5.274990559266939], [6.28354215574592, 5.270599364868815], [6.283834456994668, 5.266500950158786], [6.292275428068592, 5.245395183740811], [6.293005942870025, 5.238823890610092], [6.290450095695405, 5.234077454111286], [6.284712790662809, 5.231664657597946], [6.278995991072179, 5.228888034954878], [6.272560596294511, 5.22823619824203], [6.259417534291799, 5.227870941290973], [6.244461060429671, 5.233656882559103], [6.238560200193149, 5.235210419125565], [6.233532906318601, 5.238167763231729], [6.220008372588381, 5.238683700692263], [6.213285445666827, 5.238669395176487], [6.202345236143799, 5.231937101815845], [6.202086925671153, 5.231778144845578], [6.19820006657983, 5.226100856969026], [6.195970558194745, 5.223022590919868], [6.194337867798424, 5.216655861179106], [6.202291012420346, 5.179281234841142], [6.200734137570464, 5.169549941676507], [6.190907000957395, 5.158570766327841], [6.184074488946578, 5.16002400960042], [6.178827763190782, 5.16113996483756], [6.1659064290385, 5.16113996483756], [6.159824069425326, 5.155993551261417], [6.15470743240212, 5.151664257199741], [6.150269031690527, 5.141166210152505], [6.146135690010112, 5.13712337174627], [6.143735886002389, 5.134776115125646], [6.129725933305224, 5.129266738769047], [6.097852707236711, 5.14994144394251], [6.08579254229204, 5.1508026122508], [6.069569588265949, 5.141344069972888], [6.066751003256229, 5.133347033938492], [6.063354014775996, 5.123184203788014], [6.063728333296012, 5.111771583991469], [6.063576035805454, 5.110857948335706], [6.062267780333855, 5.103009702435884], [6.05496597330108, 5.09716796992592], [6.050914045446916, 5.096591430749982], [6.044443130146362, 5.095670701241943], [6.027214527228693, 5.095670701241943], [6.004523276727866, 5.103686810098282], [5.974926472178993, 5.137524605176452], [5.97025489794521, 5.128180980967556], [5.966450214405938, 5.110024928807491], [5.95986509329947, 5.100848198085941], [5.971264839300943, 5.073695183386064], [5.978823184242628, 5.061480044568441], [5.983734006918951, 5.056658073111635], [5.992317200378523, 5.048230170985676], [5.992520808688425, 4.985959053067916], [5.989848136882074, 4.965559958625249], [5.985958098687377, 4.953547000893423], [5.980175018162583, 4.938313961220388], [5.980811119437647, 4.92343282806263], [5.982469081682837, 4.914111137419127], [5.987052811937758, 4.906275831864207], [5.988237857591116, 4.904250144928312], [5.992608069906566, 4.893021107338257]]]}}]}