{"type": "FeatureCollection", "features": [{"type": "Feature", "geometry": {"type": "Polygon", "coordinates": [[[5.98169, 4.42706], [5.97855, 4.41279], [5.97142, 4.40348], [5.97142, 4.3924], [5.97332, 4.37849], [5.96449, 4.37121], [5.95654, 4.37001], [5.95346, 4.36955], [5.94617, 4.37326], [5.94212, 4.37533], [5.92754, 4.37977], [5.91889, 4.38271], [5.90432, 4.38715], [5.88524, 4.39585], [5.87659, 4.39879], [5.87023, 4.39947], [5.84304, 4.40237], [5.83406, 4.41479], [5.73881, 4.48799], [5.7153, 4.50634], [5.70009, 4.51722], [5.68741, 4.53469], [5.7045, 4.52371], [5.71134, 4.51614], [5.72166, 4.50971], [5.73008, 4.50979], [5.7428, 4.51364], [5.75306, 4.51956], [5.7636, 4.52813], [5.77372, 4.53185], [5.77892, 4.56312], [5.78544, 4.56134], [5.80408, 4.55822], [5.80738, 4.55573], [5.8713, 4.55535], [5.87184, 4.55464], [5.92781, 4.50168], [5.91806, 4.47228], [5.95953, 4.45189], [5.98169, 4.42706]]]}, "properties": {"name": "Koluama", "lga": "Southern Ijaw", "state": "by"}}, {"type": "Feature", "geometry": {"type": "Polygon", "coordinates": [[[5.74487, 4.79487], [5.74806, 4.7817], [5.73712, 4.7771], [5.74049, 4.76351], [5.74775, 4.74913], [5.74784, 4.74895], [5.75075, 4.74319], [5.75687, 4.72357], [5.74639, 4.67344], [5.7407, 4.63165], [5.74295, 4.61548], [5.75199, 4.59969], [5.77892, 4.56312], [5.77372, 4.53185], [5.7636, 4.52813], [5.75306, 4.51956], [5.7428, 4.51364], [5.73008, 4.50979], [5.72166, 4.50971], [5.71134, 4.51614], [5.7045, 4.52371], [5.68741, 4.53469], [5.6594, 4.56722], [5.63578, 4.59817], [5.60564, 4.64149], [5.58089, 4.67478], [5.5418, 4.73048], [5.53206, 4.75159], [5.54565, 4.74955], [5.55991, 4.74121], [5.56477, 4.73738], [5.56668, 4.72721], [5.56957, 4.72261], [5.57799, 4.72727], [5.58353, 4.72753], [5.58877, 4.73037], [5.59569, 4.73507], [5.59652, 4.74034], [5.59763, 4.74477], [5.60206, 4.7444], [5.60502, 4.7396], [5.6076, 4.73849], [5.61018, 4.73886], [5.61018, 4.73037], [5.6162, 4.72959], [5.61866, 4.73018], [5.61809, 4.73455], [5.61947, 4.73607], [5.62662, 4.7301], [5.62799, 4.73085], [5.62918, 4.73222], [5.62955, 4.73385], [5.62776, 4.73573], [5.62594, 4.73854], [5.62315, 4.74104], [5.62345, 4.74166], [5.62532, 4.74366], [5.63246, 4.74185], [5.64476, 4.73792], [5.64769, 4.74762], [5.64418, 4.75605], [5.64252, 4.76537], [5.64711, 4.76877], [5.64865, 4.77456], [5.66325, 4.7801], [5.66899, 4.78133], [5.67438, 4.78175], [5.68459, 4.77657], [5.68775, 4.77584], [5.68991, 4.77733], [5.69071, 4.77874], [5.6929, 4.78554], [5.69489, 4.79557], [5.69548, 4.80164], [5.69659, 4.8105], [5.70139, 4.81234], [5.70435, 4.80902], [5.71096, 4.80456], [5.74487, 4.79487]]]}, "properties": {"name": "Foropa", "lga": "Southern Ijaw", "state": "by"}}, {"type": "Feature", "geometry": {"type": "Polygon", "coordinates": [[[6.01696, 4.45848], [6.0185, 4.44445], [6.02994, 4.43635], [6.02896, 4.42595], [6.03057, 4.41978], [6.02914, 4.40802], [6.04108, 4.40146], [6.03628, 4.38716], [6.05062, 4.37708], [6.04619, 4.35929], [6.04397, 4.35378], [6.00314, 4.31522], [5.99648, 4.30573], [5.9773, 4.31218], [5.9781, 4.32072], [5.96394, 4.33435], [5.91014, 4.35987], [5.86894, 4.38523], [5.84304, 4.40237], [5.87023, 4.39947], [5.87659, 4.39879], [5.88524, 4.39585], [5.90432, 4.38715], [5.91889, 4.38271], [5.92754, 4.37977], [5.94212, 4.37533], [5.94617, 4.37326], [5.95346, 4.36955], [5.95654, 4.37001], [5.96449, 4.37121], [5.97332, 4.37849], [5.97142, 4.3924], [5.97142, 4.40348], [5.97855, 4.41279], [5.98169, 4.42706], [5.98249, 4.43071], [5.98988, 4.4441], [5.99488, 4.45293], [6.01696, 4.45848]]]}, "properties": {"name": "Sangana", "lga": "Brass", "state": "by"}}, {"type": "Feature", "geometry": {"type": "Polygon", "coordinates": [[[6.29468, 4.29394], [6.29167, 4.29361], [6.27371, 4.29108], [6.26416, 4.29095], [6.26714, 4.29486], [6.26741, 4.30624], [6.26724, 4.30893], [6.26927, 4.31327], [6.27413, 4.31735], [6.27754, 4.31822], [6.27863, 4.31978], [6.28121, 4.32025], [6.28553, 4.31699], [6.28623, 4.31289], [6.29072, 4.31126], [6.28938, 4.30835], [6.29029, 4.30555], [6.291, 4.3019], [6.29273, 4.3015], [6.29304, 4.30125], [6.29366, 4.29948], [6.29339, 4.29891], [6.29305, 4.29839], [6.29361, 4.29755], [6.2957, 4.29405], [6.29468, 4.29394]]]}, "properties": {"name": "Brass 3", "lga": "Brass", "state": "by"}}, {"type": "Feature", "geometry": {"type": "Polygon", "coordinates": [[[5.51761, 5.0793], [5.51113, 5.0659], [5.48387, 5.05348], [5.47179, 4.96867], [5.4563, 4.89857], [5.45182, 4.90741], [5.44382, 4.92327], [5.44372, 4.93299], [5.44024, 4.94376], [5.43633, 4.95966], [5.43828, 4.97059], [5.44175, 4.97584], [5.42367, 5.02438], [5.39038, 5.09557], [5.38618, 5.10139], [5.38406, 5.10585], [5.38259, 5.10928], [5.37707, 5.11942], [5.37517, 5.1262], [5.38052, 5.12811], [5.3875, 5.13111], [5.39553, 5.13322], [5.40167, 5.13722], [5.41444, 5.13611], [5.43152, 5.13927], [5.43778, 5.13222], [5.44839, 5.13369], [5.45465, 5.12668], [5.46159, 5.12475], [5.46603, 5.12158], [5.46923, 5.11683], [5.46659, 5.10804], [5.46465, 5.09757], [5.46793, 5.09324], [5.47611, 5.09089], [5.48685, 5.09065], [5.49383, 5.09176], [5.50287, 5.09246], [5.51157, 5.08829], [5.51678, 5.08064], [5.51761, 5.0793]]]}, "properties": {"name": "Iduwini 1", "lga": "Ekeremor", "state": "by"}}, {"type": "Feature", "geometry": {"type": "Polygon", "coordinates": [[[6.32877, 4.97957], [6.329, 4.97939], [6.34824, 4.96478], [6.35645, 4.96898], [6.36223, 4.96586], [6.36365, 4.96405], [6.36496, 4.96434], [6.37189, 4.95771], [6.3724, 4.95845], [6.37386, 4.95769], [6.38528, 4.9448], [6.37334, 4.93512], [6.37125, 4.93887], [6.35874, 4.92373], [6.35589, 4.92121], [6.34897, 4.916], [6.33979, 4.90764], [6.33247, 4.90728], [6.31199, 4.93798], [6.3043, 4.93191], [6.29938, 4.93], [6.29179, 4.93103], [6.28754, 4.9339], [6.28535, 4.93601], [6.2821, 4.94111], [6.28343, 4.94841], [6.28567, 4.95269], [6.28571, 4.95276], [6.29361, 4.95447], [6.29769, 4.95248], [6.30102, 4.95229], [6.30236, 4.9533], [6.30375, 4.95524], [6.30473, 4.9611], [6.30587, 4.96157], [6.31167, 4.96148], [6.31659, 4.96215], [6.32604, 4.97315], [6.32424, 4.97578], [6.32451, 4.97741], [6.32744, 4.97913], [6.32844, 4.97988], [6.32877, 4.97957]]]}, "properties": {"name": "Epie 2", "lga": "Yenegoa", "state": "by"}}, {"type": "Feature", "geometry": {"type": "Polygon", "coordinates": [[[6.40314, 4.53003], [6.40228, 4.53063], [6.40196, 4.5313], [6.39999, 4.53106], [6.39858, 4.53299], [6.40045, 4.53583], [6.40073, 4.53591], [6.40122, 4.5361], [6.40234, 4.53623], [6.40388, 4.5343], [6.40409, 4.53389], [6.40314, 4.53003]]]}, "properties": {"name": "Ogbolomabiri 2", "lga": "Nembe", "state": "by"}}, {"type": "Feature", "geometry": {"type": "Polygon", "coordinates": [[[6.27885, 4.92836], [6.28535, 4.93601], [6.28754, 4.9339], [6.29179, 4.93103], [6.29938, 4.93], [6.3043, 4.93191], [6.31199, 4.93798], [6.33247, 4.90728], [6.32352, 4.90251], [6.31468, 4.89523], [6.30494, 4.8889], [6.30281, 4.88727], [6.29593, 4.8814], [6.29315, 4.8757], [6.27711, 4.86882], [6.27874, 4.87282], [6.27998, 4.87451], [6.27535, 4.87409], [6.2753, 4.87409], [6.27457, 4.88138], [6.28334, 4.88411], [6.28381, 4.89661], [6.28874, 4.90111], [6.29295, 4.89946], [6.29181, 4.90214], [6.29335, 4.90594], [6.28081, 4.9223], [6.28257, 4.92407], [6.27885, 4.92836]]]}, "properties": {"name": "Epie 3", "lga": "Yenegoa", "state": "by"}}, {"type": "Feature", "geometry": {"type": "Polygon", "coordinates": [[[6.28535, 4.93601], [6.27311, 4.92207], [6.27014, 4.92024], [6.26565, 4.91837], [6.26301, 4.91721], [6.26027, 4.9206], [6.25718, 4.92184], [6.2582, 4.92396], [6.25906, 4.92455], [6.26107, 4.92507], [6.26378, 4.92673], [6.26431, 4.92948], [6.26372, 4.93262], [6.26392, 4.93493], [6.26508, 4.93733], [6.26681, 4.93899], [6.27156, 4.94147], [6.27507, 4.94461], [6.27697, 4.9452], [6.27905, 4.94449], [6.28065, 4.94195], [6.2821, 4.94111], [6.28535, 4.93601]]]}, "properties": {"name": "Atissa 1", "lga": "Yenegoa", "state": "by"}}, {"type": "Feature", "geometry": {"type": "Polygon", "coordinates": [[[6.15234, 4.51985], [6.14668, 4.51112], [6.14598, 4.49812], [6.14584, 4.49078], [6.13504, 4.4306], [6.14133, 4.40238], [6.14244, 4.38585], [6.14201, 4.37445], [6.13537, 4.36646], [6.12253, 4.36393], [6.10885, 4.3696], [6.09909, 4.36725], [6.09466, 4.36154], [6.08822, 4.35887], [6.08184, 4.35338], [6.07795, 4.34517], [6.07457, 4.34062], [6.06914, 4.33853], [6.06466, 4.33912], [6.05685, 4.34481], [6.04925, 4.35521], [6.04397, 4.35378], [6.04619, 4.35929], [6.05062, 4.37708], [6.03628, 4.38716], [6.04108, 4.40146], [6.02914, 4.40802], [6.03057, 4.41978], [6.02896, 4.42595], [6.02994, 4.43635], [6.0185, 4.44445], [6.01696, 4.45848], [6.01881, 4.45901], [6.03589, 4.46568], [6.04743, 4.47058], [6.05622, 4.47508], [6.06458, 4.48097], [6.0757, 4.48774], [6.11587, 4.52932], [6.12641, 4.5296], [6.13849, 4.53822], [6.15254, 4.557], [6.15971, 4.56657], [6.16487, 4.55262], [6.15806, 4.53183], [6.15234, 4.51985]]]}, "properties": {"name": "Kongho", "lga": "Brass", "state": "by"}}, {"type": "Feature", "geometry": {"type": "Polygon", "coordinates": [[[6.34994, 4.47336], [6.34704, 4.46534], [6.34792, 4.4458], [6.35968, 4.43798], [6.41437, 4.41436], [6.42737, 4.38572], [6.41524, 4.39532], [6.4077, 4.3843], [6.39201, 4.37807], [6.37963, 4.37782], [6.36442, 4.37252], [6.35438, 4.36568], [6.33768, 4.36369], [6.32347, 4.36302], [6.30378, 4.36336], [6.29635, 4.36744], [6.29371, 4.36889], [6.28195, 4.37535], [6.27047, 4.3914], [6.25471, 4.37802], [6.25218, 4.36374], [6.24713, 4.35928], [6.24084, 4.36047], [6.24296, 4.37251], [6.24653, 4.40047], [6.25628, 4.41847], [6.24831, 4.42665], [6.24703, 4.43631], [6.25303, 4.44765], [6.25036, 4.46582], [6.24406, 4.47434], [6.25448, 4.47545], [6.25751, 4.47857], [6.26312, 4.47835], [6.26535, 4.47179], [6.28625, 4.46961], [6.28984, 4.47102], [6.29165, 4.47109], [6.29956, 4.46823], [6.30187, 4.46781], [6.30296, 4.4702], [6.30514, 4.47146], [6.30565, 4.47255], [6.30353, 4.47361], [6.30379, 4.47505], [6.30542, 4.47563], [6.30615, 4.47654], [6.30706, 4.47832], [6.3087, 4.48053], [6.31377, 4.47925], [6.31561, 4.47703], [6.31987, 4.47696], [6.32263, 4.47547], [6.32413, 4.47382], [6.32414, 4.47147], [6.3261, 4.47173], [6.32937, 4.47551], [6.3325, 4.47433], [6.33592, 4.47496], [6.34042, 4.47848], [6.34994, 4.47336]]]}, "properties": {"name": "Igbeta Ewoama", "lga": "Nembe", "state": "by"}}, {"type": "Feature", "geometry": {"type": "Polygon", "coordinates": [[[6.15234, 4.51985], [6.15806, 4.53183], [6.16487, 4.55262], [6.15971, 4.56657], [6.16903, 4.57903], [6.17331, 4.58732], [6.17945, 4.59743], [6.18695, 4.6066], [6.19312, 4.61764], [6.20182, 4.64212], [6.22424, 4.64079], [6.22744, 4.64287], [6.23348, 4.64032], [6.23868, 4.64444], [6.24103, 4.64346], [6.24334, 4.64431], [6.24682, 4.64377], [6.24926, 4.64047], [6.25006, 4.63803], [6.25312, 4.63493], [6.25563, 4.63311], [6.25753, 4.63333], [6.25872, 4.63161], [6.26124, 4.63212], [6.26381, 4.63365], [6.27004, 4.6275], [6.27721, 4.62341], [6.2785, 4.62089], [6.27902, 4.61999], [6.27916, 4.6177], [6.28069, 4.6154], [6.28401, 4.61241], [6.28007, 4.6114], [6.27991, 4.60268], [6.28111, 4.59386], [6.2915, 4.57888], [6.28975, 4.57657], [6.28631, 4.57423], [6.28448, 4.57242], [6.28162, 4.5716], [6.27622, 4.57525], [6.27429, 4.57916], [6.27207, 4.57992], [6.271, 4.57684], [6.27073, 4.5748], [6.26834, 4.57483], [6.26648, 4.57542], [6.26567, 4.57249], [6.26296, 4.57118], [6.26392, 4.55772], [6.2608, 4.55295], [6.25734, 4.54196], [6.25009, 4.53711], [6.24971, 4.52949], [6.23959, 4.51003], [6.23624, 4.48858], [6.24406, 4.47434], [6.25036, 4.46582], [6.25303, 4.44765], [6.24703, 4.43631], [6.24831, 4.42665], [6.25628, 4.41847], [6.24653, 4.40047], [6.24194, 4.40051], [6.23926, 4.39972], [6.23551, 4.41144], [6.21598, 4.42385], [6.2011, 4.42787], [6.19832, 4.43674], [6.18747, 4.43884], [6.17435, 4.44743], [6.1612, 4.45464], [6.15081, 4.46272], [6.14573, 4.48511], [6.14584, 4.49078], [6.14598, 4.49812], [6.14668, 4.51112], [6.15234, 4.51985]]]}, "properties": {"name": "Okoroma 2", "lga": "Nembe", "state": "by"}}, {"type": "Feature", "geometry": {"type": "Polygon", "coordinates": [[[5.99648, 4.30573], [6.00314, 4.31522], [6.04397, 4.35378], [6.04925, 4.35521], [6.05685, 4.34481], [6.06466, 4.33912], [6.06914, 4.33853], [6.07457, 4.34062], [6.07795, 4.34517], [6.08184, 4.35338], [6.08822, 4.35887], [6.09466, 4.36154], [6.09688, 4.3555], [6.10185, 4.3499], [6.1023, 4.34768], [6.09974, 4.34347], [6.09954, 4.34082], [6.10324, 4.33772], [6.10919, 4.33293], [6.11234, 4.33049], [6.10694, 4.32549], [6.09523, 4.32434], [6.08024, 4.3281], [6.07907, 4.31477], [6.07542, 4.30513], [6.07366, 4.29166], [6.07263, 4.28664], [6.05778, 4.28806], [6.00899, 4.30154], [5.99648, 4.30573]]]}, "properties": {"name": "Minibie", "lga": "Brass", "state": "by"}}, {"type": "Feature", "geometry": {"type": "Polygon", "coordinates": [[[6.18747, 4.43884], [6.19832, 4.43674], [6.2011, 4.42787], [6.21598, 4.42385], [6.23551, 4.41144], [6.23926, 4.39972], [6.23903, 4.39127], [6.23699, 4.38493], [6.23107, 4.37727], [6.22137, 4.35653], [6.21497, 4.33618], [6.21414, 4.33064], [6.215, 4.30583], [6.21744, 4.30079], [6.22097, 4.29264], [6.22249, 4.28428], [6.22046, 4.27909], [6.21256, 4.27818], [6.19044, 4.27751], [6.17487, 4.27698], [6.13651, 4.27485], [6.13337, 4.28441], [6.11234, 4.33049], [6.10919, 4.33293], [6.10324, 4.33772], [6.09954, 4.34082], [6.09974, 4.34347], [6.1023, 4.34768], [6.10185, 4.3499], [6.09688, 4.3555], [6.09466, 4.36154], [6.09909, 4.36725], [6.10885, 4.3696], [6.12253, 4.36393], [6.13537, 4.36646], [6.14201, 4.37445], [6.14244, 4.38585], [6.14133, 4.40238], [6.13504, 4.4306], [6.14584, 4.49078], [6.14573, 4.48511], [6.15081, 4.46272], [6.1612, 4.45464], [6.17435, 4.44743], [6.18747, 4.43884]]]}, "properties": {"name": "Cape Formosa", "lga": "Brass", "state": "by"}}, {"type": "Feature", "geometry": {"type": "Polygon", "coordinates": [[[6.13651, 4.27485], [6.11836, 4.27218], [6.10886, 4.27129], [6.09577, 4.2708], [6.08787, 4.2702], [6.08444, 4.27225], [6.08416, 4.27564], [6.08398, 4.27943], [6.07263, 4.28664], [6.07366, 4.29166], [6.07542, 4.30513], [6.07907, 4.31477], [6.08024, 4.3281], [6.09523, 4.32434], [6.10694, 4.32549], [6.11234, 4.33049], [6.13337, 4.28441], [6.13651, 4.27485]]]}, "properties": {"name": "Oginibiri", "lga": "Brass", "state": "by"}}, {"type": "Feature", "geometry": {"type": "Polygon", "coordinates": [[[6.23566, 4.30619], [6.24052, 4.31613], [6.24113, 4.31737], [6.24137, 4.31775], [6.25005, 4.31654], [6.25008, 4.31329], [6.25024, 4.30798], [6.25175, 4.30692], [6.2522, 4.30338], [6.26741, 4.30624], [6.26714, 4.29486], [6.26416, 4.29095], [6.26231, 4.29048], [6.25493, 4.28977], [6.24946, 4.29072], [6.24398, 4.29191], [6.23923, 4.29262], [6.23351, 4.29881], [6.23566, 4.30619]]]}, "properties": {"name": "Brass 1", "lga": "Brass", "state": "by"}}, {"type": "Feature", "geometry": {"type": "Polygon", "coordinates": [[[6.24137, 4.31775], [6.25225, 4.33522], [6.25997, 4.35807], [6.27056, 4.36806], [6.27889, 4.37306], [6.28195, 4.37535], [6.29371, 4.36889], [6.28958, 4.35964], [6.28298, 4.32811], [6.27935, 4.32888], [6.27145, 4.32364], [6.26794, 4.31832], [6.26927, 4.31327], [6.26724, 4.30893], [6.26741, 4.30624], [6.2522, 4.30338], [6.25175, 4.30692], [6.25024, 4.30798], [6.25008, 4.31329], [6.25005, 4.31654], [6.24137, 4.31775]]]}, "properties": {"name": "Brass 2", "lga": "Brass", "state": "by"}}, {"type": "Feature", "geometry": {"type": "Polygon", "coordinates": [[[6.2957, 4.29405], [6.29361, 4.29755], [6.29305, 4.29839], [6.29339, 4.29891], [6.29366, 4.29948], [6.29304, 4.30125], [6.29273, 4.3015], [6.291, 4.3019], [6.29029, 4.30555], [6.28938, 4.30835], [6.29072, 4.31126], [6.28623, 4.31289], [6.28553, 4.31699], [6.28121, 4.32025], [6.27863, 4.31978], [6.27754, 4.31822], [6.27413, 4.31735], [6.26927, 4.31327], [6.26794, 4.31832], [6.27145, 4.32364], [6.27935, 4.32888], [6.28298, 4.32811], [6.28958, 4.35964], [6.29371, 4.36889], [6.29635, 4.36744], [6.30378, 4.36336], [6.32347, 4.36302], [6.33768, 4.36369], [6.35438, 4.36568], [6.36052, 4.34482], [6.3688, 4.33714], [6.3732, 4.33358], [6.37707, 4.32926], [6.38153, 4.32089], [6.38121, 4.313], [6.36765, 4.3006], [6.33916, 4.29762], [6.30944, 4.29556], [6.2957, 4.29405]]]}, "properties": {"name": "Okpoama", "lga": "Brass", "state": "by"}}, {"type": "Feature", "geometry": {"type": "Polygon", "coordinates": [[[6.35438, 4.36568], [6.36442, 4.37252], [6.37963, 4.37782], [6.39201, 4.37807], [6.4077, 4.3843], [6.41524, 4.39532], [6.42737, 4.38572], [6.43933, 4.39578], [6.44487, 4.40452], [6.44542, 4.42625], [6.43892, 4.44198], [6.43743, 4.45161], [6.44264, 4.45847], [6.43931, 4.47042], [6.44375, 4.47764], [6.44058, 4.48011], [6.43542, 4.48236], [6.43486, 4.48569], [6.43819, 4.50014], [6.4296, 4.50592], [6.42701, 4.50783], [6.42839, 4.51111], [6.42449, 4.51716], [6.41776, 4.51388], [6.41861, 4.52969], [6.4176, 4.53135], [6.41814, 4.5329], [6.41932, 4.53395], [6.41937, 4.53452], [6.41833, 4.53515], [6.41352, 4.5374], [6.41023, 4.53828], [6.40995, 4.54077], [6.40846, 4.54953], [6.40813, 4.55343], [6.39661, 4.57455], [6.39579, 4.57677], [6.39432, 4.5807], [6.39312, 4.5839], [6.38978, 4.60116], [6.38647, 4.6198], [6.43935, 4.67928], [6.45061, 4.69348], [6.46106, 4.71328], [6.47848, 4.7139], [6.48964, 4.723], [6.49771, 4.73128], [6.49899, 4.73259], [6.5106, 4.74122], [6.51758, 4.74713], [6.52731, 4.753], [6.52952, 4.75357], [6.53744, 4.75561], [6.55261, 4.7586], [6.5636, 4.7584], [6.57917, 4.75813], [6.58874, 4.75517], [6.59831, 4.75268], [6.60724, 4.74635], [6.60025, 4.73406], [6.59347, 4.72246], [6.58622, 4.7185], [6.57894, 4.71519], [6.57409, 4.70937], [6.57352, 4.70485], [6.57312, 4.70162], [6.56757, 4.70164], [6.56052, 4.69775], [6.56236, 4.69244], [6.55359, 4.68841], [6.54659, 4.68203], [6.53772, 4.67289], [6.52881, 4.6619], [6.51196, 4.64314], [6.51544, 4.63286], [6.51662, 4.62261], [6.52609, 4.61501], [6.53514, 4.60881], [6.53811, 4.59621], [6.54405, 4.59017], [6.54889, 4.5863], [6.5455, 4.58097], [6.54017, 4.57661], [6.54308, 4.56837], [6.55132, 4.55819], [6.56004, 4.55432], [6.56634, 4.55383], [6.56004, 4.54123], [6.55304, 4.5374], [6.54502, 4.53348], [6.54259, 4.52185], [6.54986, 4.51022], [6.54549, 4.50611], [6.53999, 4.50092], [6.53144, 4.51366], [6.52347, 4.53025], [6.52347, 4.52792], [6.52347, 4.52708], [6.52347, 4.52653], [6.52208, 4.52514], [6.51819, 4.52486], [6.51514, 4.52625], [6.51375, 4.52875], [6.51847, 4.52569], [6.52181, 4.52569], [6.52292, 4.53141], [6.5134, 4.55337], [6.50846, 4.56152], [6.50659, 4.5604], [6.50246, 4.56185], [6.49791, 4.56539], [6.49273, 4.57354], [6.48817, 4.57661], [6.48592, 4.58033], [6.48035, 4.59264], [6.47904, 4.59704], [6.4791, 4.60073], [6.47399, 4.61257], [6.44974, 4.60684], [6.43303, 4.59789], [6.4316, 4.5891], [6.43978, 4.58467], [6.44627, 4.58644], [6.4553, 4.58811], [6.46931, 4.58625], [6.47514, 4.57708], [6.48069, 4.57542], [6.48125, 4.56764], [6.48319, 4.56514], [6.48458, 4.55931], [6.49181, 4.5518], [6.49042, 4.54292], [6.49097, 4.53375], [6.49236, 4.53292], [6.49125, 4.5268], [6.49431, 4.51597], [6.49403, 4.50931], [6.49681, 4.49681], [6.50208, 4.48042], [6.50625, 4.47597], [6.51931, 4.47375], [6.5252, 4.46958], [6.51258, 4.4317], [6.51206, 4.38013], [6.51279, 4.37622], [6.51414, 4.36894], [6.51724, 4.36498], [6.52041, 4.36093], [6.53592, 4.35787], [6.54457, 4.35493], [6.54803, 4.34372], [6.54826, 4.34025], [6.54924, 4.32528], [6.49361, 4.32222], [6.47268, 4.31605], [6.46457, 4.31522], [6.45858, 4.31024], [6.45258, 4.29904], [6.44087, 4.30107], [6.43071, 4.31021], [6.41806, 4.30835], [6.4118, 4.30555], [6.38684, 4.30353], [6.36765, 4.3006], [6.38121, 4.313], [6.38153, 4.32089], [6.37707, 4.32926], [6.3732, 4.33358], [6.3688, 4.33714], [6.36052, 4.34482], [6.35438, 4.36568]]]}, "properties": {"name": "Odioma-Diema", "lga": "Brass", "state": "by"}}, {"type": "Feature", "geometry": {"type": "Polygon", "coordinates": [[[6.42737, 4.38572], [6.41437, 4.41436], [6.35968, 4.43798], [6.34792, 4.4458], [6.34704, 4.46534], [6.34994, 4.47336], [6.35911, 4.47662], [6.37847, 4.48575], [6.38985, 4.48313], [6.39483, 4.48664], [6.39762, 4.49117], [6.39862, 4.49279], [6.40111, 4.49189], [6.40336, 4.49232], [6.40325, 4.49423], [6.40192, 4.49519], [6.3996, 4.49595], [6.39799, 4.49839], [6.39764, 4.50241], [6.39548, 4.50515], [6.39447, 4.51067], [6.39, 4.5151], [6.39071, 4.5191], [6.39691, 4.52238], [6.40504, 4.53202], [6.40565, 4.53202], [6.40711, 4.53095], [6.4072, 4.52585], [6.40844, 4.52185], [6.40969, 4.51784], [6.41106, 4.51782], [6.41153, 4.51934], [6.41134, 4.52151], [6.41292, 4.52159], [6.41429, 4.5187], [6.41685, 4.51732], [6.4172, 4.51349], [6.41776, 4.51388], [6.42449, 4.51716], [6.42839, 4.51111], [6.42701, 4.50783], [6.4296, 4.50592], [6.43819, 4.50014], [6.43486, 4.48569], [6.43542, 4.48236], [6.44058, 4.48011], [6.44375, 4.47764], [6.43931, 4.47042], [6.44264, 4.45847], [6.43743, 4.45161], [6.43892, 4.44198], [6.44542, 4.42625], [6.44487, 4.40452], [6.43933, 4.39578], [6.42737, 4.38572]]]}, "properties": {"name": "Basambiri 3", "lga": "Nembe", "state": "by"}}, {"type": "Feature", "geometry": {"type": "Polygon", "coordinates": [[[6.35103, 4.59196], [6.3504, 4.59455], [6.35365, 4.59654], [6.36512, 4.58198], [6.36861, 4.57201], [6.37128, 4.56179], [6.36257, 4.55908], [6.35929, 4.55869], [6.3565, 4.55792], [6.35417, 4.55586], [6.35464, 4.55163], [6.35455, 4.54827], [6.35585, 4.54607], [6.3477, 4.54367], [6.347, 4.53508], [6.34953, 4.52232], [6.34927, 4.51724], [6.34639, 4.51337], [6.34458, 4.51074], [6.3418, 4.507], [6.3382, 4.50416], [6.33498, 4.50332], [6.32979, 4.50309], [6.32683, 4.50459], [6.3227, 4.51105], [6.32037, 4.51519], [6.31842, 4.51883], [6.3183, 4.52333], [6.31694, 4.52445], [6.31547, 4.52566], [6.31602, 4.52857], [6.31796, 4.53075], [6.31867, 4.53217], [6.31699, 4.5341], [6.32016, 4.5368], [6.32023, 4.5406], [6.32208, 4.5413], [6.31989, 4.54457], [6.316, 4.54743], [6.31444, 4.54979], [6.30663, 4.54376], [6.30809, 4.53753], [6.30774, 4.5354], [6.30543, 4.53558], [6.30325, 4.53468], [6.3022, 4.53269], [6.29869, 4.53211], [6.29818, 4.53306], [6.29723, 4.5341], [6.29399, 4.53484], [6.29314, 4.53427], [6.29215, 4.53273], [6.2929, 4.53026], [6.2924, 4.52789], [6.29194, 4.52516], [6.2905, 4.52464], [6.28832, 4.52621], [6.28563, 4.52607], [6.28419, 4.52667], [6.28316, 4.52864], [6.28512, 4.53033], [6.28575, 4.53281], [6.28262, 4.5331], [6.28436, 4.53691], [6.27892, 4.53745], [6.27587, 4.53598], [6.27415, 4.5329], [6.27085, 4.53365], [6.26663, 4.53524], [6.26218, 4.53319], [6.25845, 4.53222], [6.25577, 4.53354], [6.25341, 4.53228], [6.24971, 4.52949], [6.25009, 4.53711], [6.25734, 4.54196], [6.2608, 4.55295], [6.26392, 4.55772], [6.26296, 4.57118], [6.26567, 4.57249], [6.26648, 4.57542], [6.26834, 4.57483], [6.27073, 4.5748], [6.271, 4.57684], [6.27207, 4.57992], [6.27429, 4.57916], [6.27622, 4.57525], [6.28162, 4.5716], [6.28448, 4.57242], [6.28631, 4.57423], [6.28975, 4.57657], [6.2915, 4.57888], [6.28892, 4.58294], [6.28948, 4.58501], [6.29931, 4.59104], [6.30103, 4.58703], [6.30234, 4.58206], [6.30386, 4.57611], [6.30615, 4.57549], [6.30874, 4.57828], [6.31142, 4.57721], [6.31164, 4.57078], [6.31489, 4.57154], [6.31861, 4.56949], [6.31951, 4.57265], [6.32231, 4.57457], [6.32545, 4.57367], [6.32614, 4.56932], [6.32776, 4.5652], [6.33045, 4.56169], [6.33386, 4.56007], [6.33728, 4.56092], [6.34054, 4.56278], [6.34285, 4.56508], [6.34605, 4.56362], [6.35002, 4.56561], [6.34598, 4.57241], [6.35103, 4.59196]]]}, "properties": {"name": "Obioku / Bassambiri 4", "lga": "Nembe", "state": "by"}}, {"type": "Feature", "geometry": {"type": "Polygon", "coordinates": [[[6.12049, 4.65179], [6.12485, 4.64862], [6.12687, 4.64708], [6.12947, 4.64526], [6.13332, 4.63905], [6.1333, 4.61446], [6.14761, 4.61568], [6.15221, 4.60105], [6.14794, 4.58488], [6.15254, 4.557], [6.13849, 4.53822], [6.12641, 4.5296], [6.11587, 4.52932], [6.10513, 4.51836], [6.09541, 4.50775], [6.08477, 4.51496], [6.06479, 4.57346], [6.02546, 4.61101], [6.0282, 4.61632], [6.03582, 4.64643], [6.0404, 4.65317], [6.04238, 4.65508], [6.0602, 4.67286], [6.08881, 4.65248], [6.10809, 4.64271], [6.12049, 4.65179]]]}, "properties": {"name": "Peremabiri", "lga": "Southern Ijaw", "state": "by"}}, {"type": "Feature", "geometry": {"type": "Polygon", "coordinates": [[[5.87009, 5.07521], [5.87021, 5.07603], [5.8717, 5.08124], [5.87443, 5.08619], [5.87765, 5.09139], [5.87839, 5.09709], [5.87789, 5.10031], [5.87765, 5.10526], [5.88077, 5.10951], [5.88135, 5.10951], [5.88273, 5.10184], [5.8853, 5.09997], [5.89652, 5.10441], [5.90937, 5.10488], [5.91451, 5.10815], [5.91591, 5.1175], [5.91638, 5.13152], [5.91755, 5.13409], [5.92175, 5.13502], [5.92689, 5.13993], [5.92759, 5.15488], [5.92783, 5.16072], [5.9332, 5.1647], [5.94605, 5.16423], [5.96054, 5.15722], [5.96424, 5.14911], [5.97246, 5.14061], [5.97493, 5.13752], [5.97025, 5.12818], [5.96645, 5.11002], [5.95987, 5.10085], [5.96289, 5.09104], [5.96322, 5.0903], [5.94742, 5.07498], [5.93721, 5.06185], [5.92418, 5.05822], [5.90945, 5.07604], [5.88448, 5.07446], [5.87009, 5.07521]]]}, "properties": {"name": "Oyakiri 2", "lga": "Ekeremor", "state": "by"}}, {"type": "Feature", "geometry": {"type": "Polygon", "coordinates": [[[6.11302, 4.94123], [6.11017, 4.96736], [6.10645, 4.96888], [6.10462, 4.97401], [6.1067, 4.97514], [6.1075, 4.97597], [6.11631, 4.98739], [6.11572, 4.97926], [6.11604, 4.97672], [6.11633, 4.97537], [6.12109, 4.97394], [6.12494, 4.97154], [6.12442, 4.96739], [6.12282, 4.96604], [6.12134, 4.96435], [6.11674, 4.96672], [6.11302, 4.94123]]]}, "properties": {"name": "Amassoma 1", "lga": "Southern Ijaw", "state": "by"}}, {"type": "Feature", "geometry": {"type": "Polygon", "coordinates": [[[5.59886, 4.91521], [5.62887, 4.93547], [5.64107, 4.94511], [5.65333, 4.94604], [5.67536, 4.93415], [5.67079, 4.9168], [5.68919, 4.92533], [5.71033, 4.91822], [5.72964, 4.93105], [5.74765, 4.9369], [5.75395, 4.94015], [5.78211, 4.94715], [5.78754, 4.94558], [5.79967, 4.95082], [5.81171, 4.95532], [5.84953, 4.96778], [5.85803, 4.9653], [5.86231, 4.96361], [5.87893, 4.93745], [5.9632, 4.90456], [5.98178, 4.88676], [5.91774, 4.8581], [5.90433, 4.85136], [5.89507, 4.84595], [5.87845, 4.83927], [5.86043, 4.83076], [5.84565, 4.82452], [5.83688, 4.82096], [5.82763, 4.81647], [5.81244, 4.8121], [5.7972, 4.80586], [5.78558, 4.80348], [5.78152, 4.80718], [5.77155, 4.81456], [5.76786, 4.81234], [5.76601, 4.80053], [5.75531, 4.7961], [5.74957, 4.79527], [5.74487, 4.79487], [5.71096, 4.80456], [5.70435, 4.80902], [5.70139, 4.81234], [5.69659, 4.8105], [5.69548, 4.80164], [5.69489, 4.79557], [5.6929, 4.78554], [5.69071, 4.77874], [5.68991, 4.77733], [5.68775, 4.77584], [5.68459, 4.77657], [5.67438, 4.78175], [5.66899, 4.78133], [5.66325, 4.7801], [5.64865, 4.77456], [5.64711, 4.76877], [5.64252, 4.76537], [5.64418, 4.75605], [5.64769, 4.74762], [5.64476, 4.73792], [5.63246, 4.74185], [5.62532, 4.74366], [5.62345, 4.74166], [5.62315, 4.74104], [5.62594, 4.73854], [5.62776, 4.73573], [5.62955, 4.73385], [5.62918, 4.73222], [5.62799, 4.73085], [5.62662, 4.7301], [5.61947, 4.73607], [5.61809, 4.73455], [5.61866, 4.73018], [5.6162, 4.72959], [5.61018, 4.73037], [5.61018, 4.73886], [5.6076, 4.73849], [5.60502, 4.7396], [5.60206, 4.7444], [5.59763, 4.74477], [5.59652, 4.74034], [5.59569, 4.73507], [5.58877, 4.73037], [5.58353, 4.72753], [5.57799, 4.72727], [5.56957, 4.72261], [5.56668, 4.72721], [5.56477, 4.73738], [5.55991, 4.74121], [5.54565, 4.74955], [5.53206, 4.75159], [5.52875, 4.76333], [5.52728, 4.77249], [5.48348, 4.84488], [5.46717, 4.8771], [5.4563, 4.89857], [5.47179, 4.96867], [5.48387, 5.05348], [5.51113, 5.0659], [5.50703, 5.04693], [5.51979, 5.03342], [5.52474, 5.01703], [5.51852, 5.00825], [5.51646, 4.99299], [5.52787, 4.97333], [5.53631, 4.97283], [5.54822, 4.94201], [5.55101, 4.93661], [5.55399, 4.92687], [5.55467, 4.92126], [5.55989, 4.91579], [5.56737, 4.90793], [5.57765, 4.90859], [5.59128, 4.90945], [5.59886, 4.91521]]]}, "properties": {"name": "Iduwini 2", "lga": "Ekeremor", "state": "by"}}, {"type": "Feature", "geometry": {"type": "Polygon", "coordinates": [[[5.63765, 5.01699], [5.64233, 5.0156], [5.64789, 5.01178], [5.65667, 5.01178], [5.66181, 5.01288], [5.66364, 5.0151], [5.66346, 5.01884], [5.66346, 5.024], [5.66369, 5.02431], [5.66666, 5.02828], [5.67557, 5.02988], [5.68215, 5.02792], [5.69123, 5.02418], [5.7021, 5.02294], [5.71029, 5.02383], [5.71937, 5.03095], [5.71951, 5.03122], [5.72209, 5.0158], [5.714, 5.00065], [5.71668, 4.99248], [5.72982, 4.97639], [5.71255, 4.96708], [5.68679, 4.95341], [5.68675, 4.93435], [5.68911, 4.92649], [5.68919, 4.92533], [5.67079, 4.9168], [5.67536, 4.93415], [5.65333, 4.94604], [5.64107, 4.94511], [5.62887, 4.93547], [5.59886, 4.91521], [5.60556, 4.95628], [5.61984, 4.96082], [5.63022, 4.95684], [5.63425, 4.97205], [5.62978, 5.00748], [5.63765, 5.01699]]]}, "properties": {"name": "Oporomor 4", "lga": "Ekeremor", "state": "by"}}, {"type": "Feature", "geometry": {"type": "Polygon", "coordinates": [[[5.82155, 5.07549], [5.83669, 5.05396], [5.8388, 5.03199], [5.85265, 5.01317], [5.85422, 4.97489], [5.84953, 4.96778], [5.81171, 4.95532], [5.79967, 4.95082], [5.78754, 4.94558], [5.78211, 4.94715], [5.77816, 4.96254], [5.78726, 4.98342], [5.77814, 5.00647], [5.78521, 5.00767], [5.79247, 5.00715], [5.79901, 5.00757], [5.80743, 5.01093], [5.80795, 5.01921], [5.81185, 5.02978], [5.80849, 5.03706], [5.80515, 5.04306], [5.80175, 5.04591], [5.80211, 5.05153], [5.81368, 5.08469], [5.81413, 5.08452], [5.8153, 5.08189], [5.81735, 5.07736], [5.82027, 5.07517], [5.82155, 5.07549]]]}, "properties": {"name": "Oporomor 1", "lga": "Ekeremor", "state": "by"}}, {"type": "Feature", "geometry": {"type": "Polygon", "coordinates": [[[5.81368, 5.08469], [5.80211, 5.05153], [5.80175, 5.04591], [5.80515, 5.04306], [5.80849, 5.03706], [5.81185, 5.02978], [5.80795, 5.01921], [5.80743, 5.01093], [5.79901, 5.00757], [5.76423, 5.00699], [5.7665, 5.01181], [5.76658, 5.02128], [5.76857, 5.03352], [5.76758, 5.03873], [5.76603, 5.04295], [5.76325, 5.0487], [5.75487, 5.05719], [5.75836, 5.06104], [5.76424, 5.06425], [5.76923, 5.06336], [5.7735, 5.06122], [5.77564, 5.05748], [5.77902, 5.05801], [5.78044, 5.06496], [5.78418, 5.06933], [5.78812, 5.07254], [5.78988, 5.07868], [5.78914, 5.08438], [5.79134, 5.08584], [5.79747, 5.08306], [5.80361, 5.08189], [5.80551, 5.08365], [5.80902, 5.08642], [5.81368, 5.08469]]]}, "properties": {"name": "Oporomor 3", "lga": "Ekeremor", "state": "by"}}, {"type": "Feature", "geometry": {"type": "Polygon", "coordinates": [[[5.87009, 5.07521], [5.88448, 5.07446], [5.90945, 5.07604], [5.90175, 5.05824], [5.90154, 5.0578], [5.90125, 5.05768], [5.882, 5.04908], [5.88178, 5.04895], [5.88949, 5.03145], [5.88011, 5.02861], [5.86854, 5.02692], [5.86162, 5.04959], [5.86078, 5.05884], [5.85977, 5.06828], [5.86223, 5.07446], [5.8623, 5.07484], [5.86308, 5.07444], [5.86374, 5.0728], [5.86506, 5.06953], [5.86774, 5.06811], [5.86789, 5.06838], [5.86947, 5.07108], [5.87009, 5.07521]]]}, "properties": {"name": "Oyakiri 1", "lga": "Ekeremor", "state": "by"}}, {"type": "Feature", "geometry": {"type": "Polygon", "coordinates": [[[5.51113, 5.0659], [5.51761, 5.0793], [5.52409, 5.06881], [5.53313, 5.0629], [5.5446, 5.05803], [5.55086, 5.0556], [5.5693, 5.05629], [5.5846, 5.05525], [5.58564, 5.04795], [5.59086, 5.04342], [5.5992, 5.04238], [5.61103, 5.0389], [5.61972, 5.03473], [5.62529, 5.02604], [5.63294, 5.01838], [5.63765, 5.01699], [5.62978, 5.00748], [5.63425, 4.97205], [5.63022, 4.95684], [5.61984, 4.96082], [5.60556, 4.95628], [5.59886, 4.91521], [5.59128, 4.90945], [5.57765, 4.90859], [5.56737, 4.90793], [5.55989, 4.91579], [5.55467, 4.92126], [5.55399, 4.92687], [5.55101, 4.93661], [5.54822, 4.94201], [5.53631, 4.97283], [5.52787, 4.97333], [5.51646, 4.99299], [5.51852, 5.00825], [5.52474, 5.01703], [5.51979, 5.03342], [5.50703, 5.04693], [5.51113, 5.0659]]]}, "properties": {"name": "Oporomor 5", "lga": "Ekeremor", "state": "by"}}, {"type": "Feature", "geometry": {"type": "Polygon", "coordinates": [[[5.75487, 5.05719], [5.76325, 5.0487], [5.76603, 5.04295], [5.76758, 5.03873], [5.76857, 5.03352], [5.76658, 5.02128], [5.7665, 5.01181], [5.76423, 5.00699], [5.77814, 5.00647], [5.78726, 4.98342], [5.77816, 4.96254], [5.78211, 4.94715], [5.75395, 4.94015], [5.74765, 4.9369], [5.72964, 4.93105], [5.71033, 4.91822], [5.68919, 4.92533], [5.68911, 4.92649], [5.68675, 4.93435], [5.68679, 4.95341], [5.71255, 4.96708], [5.72982, 4.97639], [5.71668, 4.99248], [5.714, 5.00065], [5.72209, 5.0158], [5.71951, 5.03122], [5.72453, 5.0411], [5.72845, 5.05071], [5.73059, 5.05445], [5.73646, 5.05659], [5.74305, 5.0557], [5.74857, 5.05321], [5.75195, 5.05374], [5.75487, 5.05719]]]}, "properties": {"name": "Oporomor 2-Ward 7", "lga": "Ekeremor", "state": "by"}}, {"type": "Feature", "geometry": {"type": "Polygon", "coordinates": [[[5.90154, 5.0578], [5.92287, 5.00597], [5.92615, 4.99781], [5.93895, 4.98792], [5.9632, 4.90456], [5.87893, 4.93745], [5.86231, 4.96361], [5.85803, 4.9653], [5.84953, 4.96778], [5.85422, 4.97489], [5.85265, 5.01317], [5.86854, 5.02692], [5.88011, 5.02861], [5.88949, 5.03145], [5.88178, 5.04895], [5.882, 5.04908], [5.90125, 5.05768], [5.90154, 5.0578]]]}, "properties": {"name": "Oyakiri 3", "lga": "Ekeremor", "state": "by"}}, {"type": "Feature", "geometry": {"type": "Polygon", "coordinates": [[[6.14896, 4.8532], [6.11223, 4.84141], [6.08351, 4.84708], [6.07731, 4.85923], [6.07452, 4.86104], [6.07329, 4.87161], [6.07222, 4.8879], [6.07333, 4.8981], [6.07533, 4.90736], [6.07674, 4.91353], [6.08687, 4.91614], [6.0979, 4.91983], [6.09958, 4.92194], [6.10207, 4.9171], [6.11794, 4.91157], [6.14844, 4.92857], [6.15293, 4.87905], [6.1531, 4.87718], [6.1523, 4.85907], [6.15591, 4.85099], [6.15486, 4.85134], [6.14896, 4.8532]]]}, "properties": {"name": "Otuan", "lga": "Southern Ijaw", "state": "by"}}, {"type": "Feature", "geometry": {"type": "Polygon", "coordinates": [[[5.98178, 4.88676], [5.9632, 4.90456], [5.93895, 4.98792], [5.92615, 4.99781], [5.92287, 5.00597], [5.90154, 5.0578], [5.90175, 5.05824], [5.90945, 5.07604], [5.92418, 5.05822], [5.93721, 5.06185], [5.94742, 5.07498], [5.96322, 5.0903], [5.96684, 5.08214], [5.97126, 5.0737], [5.97882, 5.06148], [5.98373, 5.05666], [5.99232, 5.04823], [5.99352, 5.03892], [5.99234, 5.025], [5.99306, 5.01476], [5.99316, 4.99571], [5.99252, 4.98596], [5.98985, 4.96556], [5.98596, 4.95355], [5.98018, 4.93831], [5.98081, 4.92343], [5.98247, 4.91411], [5.98705, 4.90628], [5.98824, 4.90425], [5.99261, 4.89302], [5.98178, 4.88676]]]}, "properties": {"name": "Oyakiri 4", "lga": "Ekeremor", "state": "by"}}, {"type": "Feature", "geometry": {"type": "Polygon", "coordinates": [[[6.0602, 4.67286], [6.04238, 4.65508], [6.0404, 4.65317], [6.03582, 4.64643], [6.0282, 4.61632], [6.02359, 4.61844], [6.02143, 4.61498], [6.01792, 4.61406], [6.01304, 4.61032], [6.00683, 4.60423], [6.006, 4.58276], [5.99951, 4.57295], [5.9621, 4.547], [5.92781, 4.50168], [5.87184, 4.55464], [5.8713, 4.55535], [5.87314, 4.55956], [5.94007, 4.61595], [5.93882, 4.62], [5.94666, 4.62195], [5.94839, 4.67366], [5.95594, 4.67819], [5.95712, 4.67894], [5.9633, 4.68306], [5.96767, 4.69929], [5.96952, 4.70542], [5.96973, 4.71125], [5.97134, 4.71861], [5.97342, 4.72714], [5.97775, 4.74444], [5.98351, 4.7416], [5.99517, 4.73705], [6.01549, 4.72814], [6.02912, 4.73167], [6.0384, 4.73368], [6.05097, 4.73883], [6.05846, 4.74902], [6.06003, 4.72244], [6.06051, 4.71457], [6.06067, 4.70812], [6.06134, 4.67524], [6.0602, 4.67286]]]}, "properties": {"name": "Olodiama 2", "lga": "Southern Ijaw", "state": "by"}}, {"type": "Feature", "geometry": {"type": "Polygon", "coordinates": [[[6.0282, 4.61632], [6.02546, 4.61101], [6.06479, 4.57346], [6.08477, 4.51496], [6.09541, 4.50775], [6.09297, 4.5051], [6.0757, 4.48774], [6.06458, 4.48097], [6.05622, 4.47508], [6.04743, 4.47058], [6.03589, 4.46568], [6.01881, 4.45901], [6.01696, 4.45848], [5.99488, 4.45293], [5.98988, 4.4441], [5.98249, 4.43071], [5.98169, 4.42706], [5.95953, 4.45189], [5.91806, 4.47228], [5.92781, 4.50168], [5.9621, 4.547], [5.99951, 4.57295], [6.006, 4.58276], [6.00683, 4.60423], [6.01304, 4.61032], [6.01792, 4.61406], [6.02143, 4.61498], [6.02359, 4.61844], [6.0282, 4.61632]]]}, "properties": {"name": "Igbomatoru", "lga": "Southern Ijaw", "state": "by"}}, {"type": "Feature", "geometry": {"type": "Polygon", "coordinates": [[[6.20498, 4.70938], [6.20491, 4.70897], [6.20058, 4.6979], [6.20057, 4.69785], [6.19855, 4.68771], [6.19633, 4.66684], [6.19798, 4.65705], [6.20182, 4.64212], [6.19312, 4.61764], [6.18695, 4.6066], [6.17945, 4.59743], [6.17331, 4.58732], [6.16903, 4.57903], [6.15971, 4.56657], [6.15254, 4.557], [6.14794, 4.58488], [6.15221, 4.60105], [6.14761, 4.61568], [6.1333, 4.61446], [6.13332, 4.63905], [6.12947, 4.64526], [6.12687, 4.64708], [6.12485, 4.64862], [6.12049, 4.65179], [6.12071, 4.65308], [6.12144, 4.65693], [6.12764, 4.66369], [6.13129, 4.68015], [6.13285, 4.68554], [6.13383, 4.69032], [6.1331, 4.69436], [6.1351, 4.69684], [6.12139, 4.72123], [6.1243, 4.72301], [6.1312, 4.72534], [6.16094, 4.72654], [6.17298, 4.72061], [6.20498, 4.70938]]]}, "properties": {"name": "Opuama", "lga": "Southern Ijaw", "state": "by"}}, {"type": "Feature", "geometry": {"type": "Polygon", "coordinates": [[[6.20709, 4.75179], [6.20695, 4.74472], [6.20713, 4.72985], [6.20695, 4.72009], [6.20498, 4.70938], [6.17298, 4.72061], [6.16094, 4.72654], [6.1312, 4.72534], [6.1243, 4.72301], [6.12139, 4.72123], [6.0915, 4.74683], [6.10172, 4.76408], [6.11663, 4.76295], [6.1231, 4.76262], [6.12797, 4.76229], [6.13122, 4.7622], [6.13395, 4.76225], [6.14153, 4.76283], [6.16335, 4.77848], [6.16756, 4.7776], [6.17846, 4.76531], [6.20709, 4.75179]]]}, "properties": {"name": "Enewari", "lga": "Southern Ijaw", "state": "by"}}, {"type": "Feature", "geometry": {"type": "Polygon", "coordinates": [[[6.0915, 4.74683], [6.12139, 4.72123], [6.1351, 4.69684], [6.1331, 4.69436], [6.13383, 4.69032], [6.13285, 4.68554], [6.13129, 4.68015], [6.12764, 4.66369], [6.12144, 4.65693], [6.12071, 4.65308], [6.12049, 4.65179], [6.10809, 4.64271], [6.08881, 4.65248], [6.0602, 4.67286], [6.06134, 4.67524], [6.06067, 4.70812], [6.06051, 4.71457], [6.06003, 4.72244], [6.05846, 4.74902], [6.06893, 4.75064], [6.07758, 4.73973], [6.09362, 4.73545], [6.0915, 4.74683]]]}, "properties": {"name": "Ekowe", "lga": "Southern Ijaw", "state": "by"}}, {"type": "Feature", "geometry": {"type": "Polygon", "coordinates": [[[5.87314, 4.55956], [5.86565, 4.64406], [5.86924, 4.64825], [5.87731, 4.67655], [5.88269, 4.6881], [5.89085, 4.69503], [5.89763, 4.70037], [5.89864, 4.71898], [5.90461, 4.72172], [5.9307, 4.74645], [5.93696, 4.75045], [5.94193, 4.75897], [5.96842, 4.76063], [5.97544, 4.75232], [5.97775, 4.74444], [5.97342, 4.72714], [5.97134, 4.71861], [5.96973, 4.71125], [5.96952, 4.70542], [5.96767, 4.69929], [5.9633, 4.68306], [5.95712, 4.67894], [5.95594, 4.67819], [5.94839, 4.67366], [5.94666, 4.62195], [5.93882, 4.62], [5.94007, 4.61595], [5.87314, 4.55956]]]}, "properties": {"name": "Olodiama 1", "lga": "Southern Ijaw", "state": "by"}}, {"type": "Feature", "geometry": {"type": "Polygon", "coordinates": [[[5.88269, 4.6881], [5.87731, 4.67655], [5.86924, 4.64825], [5.86565, 4.64406], [5.87314, 4.55956], [5.8713, 4.55535], [5.80738, 4.55573], [5.80408, 4.55822], [5.78544, 4.56134], [5.77892, 4.56312], [5.75199, 4.59969], [5.74295, 4.61548], [5.7407, 4.63165], [5.74639, 4.67344], [5.75687, 4.72357], [5.75075, 4.74319], [5.777, 4.76622], [5.78651, 4.76991], [5.80665, 4.77129], [5.81237, 4.77995], [5.86971, 4.77849], [5.88541, 4.78895], [5.89241, 4.7826], [5.90204, 4.789], [5.92498, 4.77708], [5.88969, 4.7471], [5.85912, 4.7241], [5.83696, 4.70652], [5.88269, 4.6881]]]}, "properties": {"name": "Ukubie", "lga": "Southern Ijaw", "state": "by"}}, {"type": "Feature", "geometry": {"type": "Polygon", "coordinates": [[[6.19696, 4.84666], [6.23829, 4.85197], [6.23529, 4.83855], [6.23246, 4.83218], [6.23098, 4.82887], [6.2244, 4.82016], [6.22012, 4.8114], [6.21396, 4.80082], [6.21011, 4.79067], [6.2081, 4.78141], [6.20701, 4.77213], [6.20703, 4.76917], [6.20713, 4.75401], [6.20709, 4.75179], [6.17846, 4.76531], [6.16756, 4.7776], [6.16335, 4.77848], [6.14153, 4.76283], [6.13395, 4.76225], [6.13122, 4.7622], [6.12797, 4.76229], [6.1231, 4.76262], [6.11663, 4.76295], [6.10172, 4.76408], [6.12569, 4.78324], [6.11472, 4.79873], [6.12006, 4.80812], [6.11353, 4.81963], [6.10705, 4.82499], [6.11223, 4.84141], [6.14896, 4.8532], [6.15486, 4.85134], [6.15591, 4.85099], [6.1567, 4.84923], [6.18, 4.84603], [6.19696, 4.84666]]]}, "properties": {"name": "Oporoma 1", "lga": "Southern Ijaw", "state": "by"}}, {"type": "Feature", "geometry": {"type": "Polygon", "coordinates": [[[6.1171, 4.99243], [6.13093, 4.99362], [6.14156, 4.99855], [6.14736, 4.94058], [6.14844, 4.92857], [6.11794, 4.91157], [6.10207, 4.9171], [6.09958, 4.92194], [6.10749, 4.9333], [6.11302, 4.94123], [6.11674, 4.96672], [6.12134, 4.96435], [6.12282, 4.96604], [6.12442, 4.96739], [6.12494, 4.97154], [6.12109, 4.97394], [6.11633, 4.97537], [6.1171, 4.99243]]]}, "properties": {"name": "Amassoma 3", "lga": "Southern Ijaw", "state": "by"}}, {"type": "Feature", "geometry": {"type": "Polygon", "coordinates": [[[6.07674, 4.91353], [6.07733, 4.91615], [6.0812, 4.92724], [6.08553, 4.93831], [6.08766, 4.95407], [6.09064, 4.9661], [6.08993, 4.97727], [6.0856, 4.99082], [6.0799, 5.00393], [6.07054, 5.01804], [6.06249, 5.0284], [6.0549, 5.03923], [6.05463, 5.04899], [6.06572, 5.05391], [6.075, 5.06025], [6.08035, 5.05272], [6.08704, 5.04284], [6.09365, 5.03285], [6.09997, 5.02059], [6.10597, 5.00888], [6.11654, 4.99232], [6.1171, 4.99243], [6.11631, 4.98739], [6.1075, 4.97597], [6.1067, 4.97514], [6.10462, 4.97401], [6.10645, 4.96888], [6.11017, 4.96736], [6.11302, 4.94123], [6.10749, 4.9333], [6.09958, 4.92194], [6.0979, 4.91983], [6.08687, 4.91614], [6.07674, 4.91353]]]}, "properties": {"name": "Amassoma 2", "lga": "Southern Ijaw", "state": "by"}}, {"type": "Feature", "geometry": {"type": "Polygon", "coordinates": [[[5.99558, 4.81383], [5.99459, 4.81187], [5.98621, 4.80274], [5.9797, 4.79259], [5.97487, 4.78247], [5.96842, 4.76063], [5.94193, 4.75897], [5.93696, 4.75045], [5.9307, 4.74645], [5.90461, 4.72172], [5.89864, 4.71898], [5.89763, 4.70037], [5.89085, 4.69503], [5.88269, 4.6881], [5.83696, 4.70652], [5.85912, 4.7241], [5.88969, 4.7471], [5.92498, 4.77708], [5.90204, 4.789], [5.89241, 4.7826], [5.88541, 4.78895], [5.86971, 4.77849], [5.81237, 4.77995], [5.80665, 4.77129], [5.78651, 4.76991], [5.777, 4.76622], [5.75075, 4.74319], [5.74784, 4.74895], [5.74775, 4.74913], [5.74049, 4.76351], [5.73712, 4.7771], [5.74806, 4.7817], [5.74487, 4.79487], [5.74957, 4.79527], [5.75531, 4.7961], [5.76601, 4.80053], [5.76786, 4.81234], [5.77155, 4.81456], [5.78152, 4.80718], [5.78558, 4.80348], [5.7972, 4.80586], [5.81244, 4.8121], [5.82763, 4.81647], [5.89507, 4.84595], [5.90433, 4.85136], [5.91774, 4.8581], [5.97779, 4.88445], [5.98178, 4.88676], [5.99261, 4.89302], [5.99532, 4.88365], [5.99846, 4.87573], [5.99991, 4.86687], [5.99606, 4.85718], [5.98927, 4.83732], [5.98818, 4.82804], [5.98929, 4.81408], [5.99558, 4.81383]]]}, "properties": {"name": "Apoi", "lga": "Southern Ijaw", "state": "by"}}, {"type": "Feature", "geometry": {"type": "Polygon", "coordinates": [[[6.07452, 4.86104], [6.07731, 4.85923], [6.08351, 4.84708], [6.11223, 4.84141], [6.10705, 4.82499], [6.11353, 4.81963], [6.12006, 4.80812], [6.11472, 4.79873], [6.12569, 4.78324], [6.10172, 4.76408], [6.0915, 4.74683], [6.09362, 4.73545], [6.07758, 4.73973], [6.06893, 4.75064], [6.05846, 4.74902], [6.05097, 4.73883], [6.0384, 4.73368], [6.02912, 4.73167], [6.01549, 4.72814], [5.99517, 4.73705], [5.98351, 4.7416], [5.97775, 4.74444], [5.97544, 4.75232], [5.96842, 4.76063], [5.97487, 4.78247], [5.9797, 4.79259], [5.98621, 4.80274], [5.99459, 4.81187], [5.99558, 4.81383], [6.00943, 4.81326], [6.06128, 4.81746], [6.07282, 4.82237], [6.07548, 4.84184], [6.07487, 4.85811], [6.07452, 4.86104]]]}, "properties": {"name": "Oporoma 2", "lga": "Southern Ijaw", "state": "by"}}, {"type": "Feature", "geometry": {"type": "Polygon", "coordinates": [[[6.23575, 4.99847], [6.23213, 5.00385], [6.2332, 5.00879], [6.22997, 5.01027], [6.22874, 5.01461], [6.23037, 5.02206], [6.22837, 5.02561], [6.22291, 5.03442], [6.2357, 5.0315], [6.2373, 5.03272], [6.23876, 5.03355], [6.23957, 5.03465], [6.23974, 5.04104], [6.24042, 5.04325], [6.24198, 5.04534], [6.24264, 5.04543], [6.24364, 5.04658], [6.26545, 5.0532], [6.26936, 5.04972], [6.2676, 5.04709], [6.26511, 5.03644], [6.2612, 5.02304], [6.24858, 5.00978], [6.23575, 4.99847]]]}, "properties": {"name": "Sagreia", "lga": "Kolokuma/Opokuma", "state": "by"}}, {"type": "Feature", "geometry": {"type": "Polygon", "coordinates": [[[6.38254, 4.53848], [6.38656, 4.53942], [6.3924, 4.53634], [6.39538, 4.53726], [6.39574, 4.53734], [6.39999, 4.53106], [6.40196, 4.5313], [6.40228, 4.53063], [6.40314, 4.53003], [6.403, 4.52886], [6.39691, 4.52238], [6.39071, 4.5191], [6.39, 4.5151], [6.39447, 4.51067], [6.39548, 4.50515], [6.39764, 4.50241], [6.39799, 4.49839], [6.3996, 4.49595], [6.40192, 4.49519], [6.40325, 4.49423], [6.40336, 4.49232], [6.40111, 4.49189], [6.39862, 4.49279], [6.39762, 4.49117], [6.39483, 4.48664], [6.38985, 4.48313], [6.37847, 4.48575], [6.37838, 4.49175], [6.38029, 4.49363], [6.38349, 4.50552], [6.38083, 4.50612], [6.38011, 4.50763], [6.38074, 4.51199], [6.37886, 4.51397], [6.37983, 4.51569], [6.37927, 4.51855], [6.37757, 4.51993], [6.37716, 4.52204], [6.3799, 4.52627], [6.38115, 4.53198], [6.38254, 4.53848]]]}, "properties": {"name": "Ogbolomabiri 1", "lga": "Nembe", "state": "by"}}, {"type": "Feature", "geometry": {"type": "Polygon", "coordinates": [[[6.41776, 4.51388], [6.4172, 4.51349], [6.41685, 4.51732], [6.41429, 4.5187], [6.41292, 4.52159], [6.41134, 4.52151], [6.41153, 4.51934], [6.41106, 4.51782], [6.40969, 4.51784], [6.40844, 4.52185], [6.4072, 4.52585], [6.40711, 4.53095], [6.40565, 4.53202], [6.40504, 4.53202], [6.40482, 4.53247], [6.40859, 4.53234], [6.41023, 4.53828], [6.41352, 4.5374], [6.41833, 4.53515], [6.41937, 4.53452], [6.41932, 4.53395], [6.41814, 4.5329], [6.4176, 4.53135], [6.41861, 4.52969], [6.41776, 4.51388]]]}, "properties": {"name": "Basambiri 2", "lga": "Nembe", "state": "by"}}, {"type": "Feature", "geometry": {"type": "Polygon", "coordinates": [[[6.41023, 4.53828], [6.40859, 4.53234], [6.40526, 4.53324], [6.4044, 4.53186], [6.40118, 4.53925], [6.40167, 4.54203], [6.403, 4.54488], [6.4063, 4.54688], [6.40733, 4.54847], [6.40846, 4.54953], [6.40995, 4.54077], [6.41023, 4.53828]]]}, "properties": {"name": "Basambiri 1", "lga": "Nembe", "state": "by"}}, {"type": "Feature", "geometry": {"type": "Polygon", "coordinates": [[[6.3147, 4.6522], [6.32095, 4.64252], [6.31815, 4.63867], [6.31959, 4.63638], [6.32153, 4.6241], [6.31734, 4.62084], [6.30334, 4.62301], [6.2945, 4.62028], [6.29401, 4.61955], [6.28401, 4.61241], [6.28069, 4.6154], [6.27916, 4.6177], [6.27902, 4.61999], [6.2785, 4.62089], [6.27721, 4.62341], [6.27004, 4.6275], [6.26381, 4.63365], [6.26124, 4.63212], [6.25872, 4.63161], [6.25753, 4.63333], [6.25563, 4.63311], [6.25312, 4.63493], [6.25006, 4.63803], [6.24926, 4.64047], [6.24682, 4.64377], [6.24334, 4.64431], [6.24103, 4.64346], [6.23868, 4.64444], [6.23348, 4.64032], [6.22744, 4.64287], [6.23398, 4.64712], [6.25109, 4.65977], [6.25117, 4.65983], [6.26867, 4.66463], [6.27266, 4.66408], [6.28009, 4.66304], [6.2929, 4.66235], [6.29362, 4.66214], [6.30521, 4.65888], [6.3147, 4.6522]]]}, "properties": {"name": "Okoroma 1", "lga": "Nembe", "state": "by"}}, {"type": "Feature", "geometry": {"type": "Polygon", "coordinates": [[[6.23575, 4.99847], [6.22482, 4.98883], [6.20714, 4.9738], [6.18391, 4.95656], [6.15977, 4.93979], [6.14736, 4.94058], [6.14156, 4.99855], [6.14776, 5.01541], [6.1609, 5.02926], [6.16458, 5.04937], [6.18952, 5.08624], [6.19556, 5.08109], [6.20111, 5.07646], [6.21304, 5.04673], [6.21653, 5.04218], [6.21918, 5.03813], [6.22291, 5.03442], [6.22837, 5.02561], [6.23037, 5.02206], [6.22874, 5.01461], [6.22997, 5.01027], [6.2332, 5.00879], [6.23213, 5.00385], [6.23575, 4.99847]]]}, "properties": {"name": "Igbedi", "lga": "Kolokuma/Opokuma", "state": "by"}}, {"type": "Feature", "geometry": {"type": "Polygon", "coordinates": [[[6.26936, 5.04972], [6.2554, 5.06005], [6.26248, 5.07582], [6.26435, 5.08044], [6.26535, 5.086], [6.26607, 5.10954], [6.27143, 5.1083], [6.27406, 5.10682], [6.27863, 5.09967], [6.28508, 5.09552], [6.30734, 5.08859], [6.3162, 5.08843], [6.3216, 5.08415], [6.32129, 5.08279], [6.3203, 5.08063], [6.31719, 5.07605], [6.31686, 5.0677], [6.31176, 5.05653], [6.30522, 5.04967], [6.29342, 5.04619], [6.29186, 5.04573], [6.29254, 5.05518], [6.28306, 5.06121], [6.27359, 5.05604], [6.26936, 5.04972]]]}, "properties": {"name": "Opokuma North", "lga": "Kolokuma/Opokuma", "state": "by"}}, {"type": "Feature", "geometry": {"type": "Polygon", "coordinates": [[[6.27815, 5.18205], [6.28585, 5.18176], [6.29544, 5.18092], [6.29894, 5.16076], [6.29858, 5.15862], [6.29755, 5.15642], [6.29568, 5.15367], [6.27895, 5.13653], [6.26931, 5.14649], [6.2379, 5.14755], [6.23624, 5.14843], [6.2384, 5.15076], [6.24779, 5.16268], [6.25435, 5.17093], [6.26504, 5.17864], [6.27609, 5.18169], [6.27815, 5.18205]]]}, "properties": {"name": "Odi Central", "lga": "Kolokuma/Opokuma", "state": "by"}}, {"type": "Feature", "geometry": {"type": "Polygon", "coordinates": [[[6.18952, 5.08624], [6.1926, 5.08994], [6.20314, 5.10259], [6.2135, 5.11774], [6.21923, 5.13019], [6.22905, 5.1407], [6.23624, 5.14843], [6.26359, 5.1168], [6.26607, 5.10954], [6.26535, 5.086], [6.26435, 5.08044], [6.26248, 5.07582], [6.2554, 5.06005], [6.25432, 5.06059], [6.24839, 5.0626], [6.21723, 5.06971], [6.20111, 5.07646], [6.19556, 5.08109], [6.18952, 5.08624]]]}, "properties": {"name": "Opokuma South", "lga": "Kolokuma/Opokuma", "state": "by"}}, {"type": "Feature", "geometry": {"type": "Polygon", "coordinates": [[[6.22291, 5.03442], [6.21918, 5.03813], [6.21653, 5.04218], [6.21304, 5.04673], [6.20111, 5.07646], [6.21723, 5.06971], [6.24839, 5.0626], [6.25432, 5.06059], [6.26545, 5.0532], [6.24364, 5.04658], [6.24264, 5.04543], [6.24198, 5.04534], [6.24042, 5.04325], [6.23974, 5.04104], [6.23957, 5.03465], [6.23876, 5.03355], [6.2373, 5.03272], [6.2357, 5.0315], [6.22291, 5.03442]]]}, "properties": {"name": "Okoloba", "lga": "Kolokuma/Opokuma", "state": "by"}}, {"type": "Feature", "geometry": {"type": "Polygon", "coordinates": [[[6.02944, 5.09015], [6.02576, 5.09616], [6.02721, 5.09567], [6.04444, 5.09567], [6.05091, 5.09659], [6.05497, 5.09717], [6.06227, 5.10301], [6.06358, 5.11086], [6.10863, 5.12226], [6.11425, 5.11712], [6.11796, 5.1194], [6.12413, 5.11693], [6.12349, 5.11659], [6.12274, 5.11056], [6.12467, 5.09721], [6.13062, 5.08055], [6.12348, 5.06449], [6.11337, 5.05527], [6.09463, 5.05557], [6.08704, 5.04284], [6.08035, 5.05272], [6.075, 5.06025], [6.06572, 5.05391], [6.05463, 5.04899], [6.02944, 5.09015]]]}, "properties": {"name": "Angalabiri", "lga": "Sagbama", "state": "by"}}, {"type": "Feature", "geometry": {"type": "Polygon", "coordinates": [[[6.32033, 4.8311], [6.27719, 4.8269], [6.27623, 4.82701], [6.23246, 4.83218], [6.23529, 4.83855], [6.23829, 4.85197], [6.24272, 4.86862], [6.25794, 4.87393], [6.2753, 4.87409], [6.27535, 4.87409], [6.27998, 4.87451], [6.27874, 4.87282], [6.27711, 4.86882], [6.29315, 4.8757], [6.29593, 4.8814], [6.30281, 4.88727], [6.31961, 4.84762], [6.32025, 4.8313], [6.32033, 4.8311]]]}, "properties": {"name": "Otuokpoti-Ward 2", "lga": "Ogbia", "state": "by"}}, {"type": "Feature", "geometry": {"type": "Polygon", "coordinates": [[[6.38962, 4.75215], [6.34016, 4.82301], [6.40285, 4.82593], [6.42286, 4.77715], [6.42984, 4.7661], [6.40543, 4.7517], [6.38962, 4.75215]]]}, "properties": {"name": "Kolo / Ward 9", "lga": "Ogbia", "state": "by"}}, {"type": "Feature", "geometry": {"type": "Polygon", "coordinates": [[[6.12413, 5.11693], [6.13269, 5.12142], [6.1626, 5.12041], [6.1926, 5.08994], [6.18952, 5.08624], [6.18674, 5.0829], [6.18062, 5.07418], [6.17211, 5.05993], [6.16458, 5.04937], [6.1609, 5.02926], [6.14776, 5.01541], [6.14156, 4.99855], [6.13093, 4.99362], [6.1171, 4.99243], [6.11654, 4.99232], [6.08704, 5.04284], [6.09463, 5.05557], [6.11337, 5.05527], [6.12348, 5.06449], [6.13062, 5.08055], [6.12467, 5.09721], [6.12274, 5.11056], [6.12349, 5.11659], [6.12413, 5.11693]]]}, "properties": {"name": "Agoro", "lga": "Sagbama", "state": "by"}}, {"type": "Feature", "geometry": {"type": "Polygon", "coordinates": [[[6.20182, 4.64212], [6.19798, 4.65705], [6.19633, 4.66684], [6.19855, 4.68771], [6.20057, 4.69785], [6.23158, 4.6943], [6.25109, 4.65977], [6.23398, 4.64712], [6.22744, 4.64287], [6.22424, 4.64079], [6.20182, 4.64212]]]}, "properties": {"name": "Okodi-Ward 5", "lga": "Ogbia", "state": "by"}}, {"type": "Feature", "geometry": {"type": "Polygon", "coordinates": [[[6.18407, 5.16002], [6.19091, 5.15857], [6.20073, 5.16955], [6.20229, 5.17928], [6.19988, 5.1945], [6.21411, 5.1914], [6.22421, 5.1842], [6.21418, 5.1702], [6.2041, 5.15145], [6.20219, 5.14879], [6.19726, 5.14265], [6.18962, 5.14869], [6.18941, 5.14964], [6.18908, 5.15104], [6.19009, 5.15297], [6.18407, 5.16002]]]}, "properties": {"name": "Sagbama", "lga": "Sagbama", "state": "by"}}, {"type": "Feature", "geometry": {"type": "Polygon", "coordinates": [[[6.40285, 4.82593], [6.34016, 4.82301], [6.32828, 4.81014], [6.32033, 4.8311], [6.32025, 4.8313], [6.31961, 4.84762], [6.35744, 4.84797], [6.37287, 4.8419], [6.39904, 4.84302], [6.39928, 4.83844], [6.40228, 4.82724], [6.40285, 4.82593]]]}, "properties": {"name": "Emeyal-Ward 7", "lga": "Ogbia", "state": "by"}}, {"type": "Feature", "geometry": {"type": "Polygon", "coordinates": [[[6.1626, 5.12041], [6.13269, 5.12142], [6.12413, 5.11693], [6.11796, 5.1194], [6.11425, 5.11712], [6.10863, 5.12226], [6.06358, 5.11086], [6.06373, 5.11177], [6.06335, 5.12318], [6.06675, 5.13335], [6.06957, 5.14134], [6.08579, 5.1508], [6.09785, 5.14994], [6.10905, 5.14219], [6.12068, 5.13368], [6.12858, 5.12981], [6.12973, 5.12927], [6.14374, 5.13478], [6.14614, 5.13712], [6.1626, 5.12041]]]}, "properties": {"name": "Ebedebiri", "lga": "Sagbama", "state": "by"}}, {"type": "Feature", "geometry": {"type": "Polygon", "coordinates": [[[5.98089, 5.13056], [5.98394, 5.12643], [5.9856, 5.12419], [5.9884, 5.12138], [5.98408, 5.11948], [5.98013, 5.12114], [5.9794, 5.1214], [5.97863, 5.12076], [5.9763, 5.12102], [5.9728, 5.12003], [5.97242, 5.11701], [5.97452, 5.11529], [5.98116, 5.1072], [6.00452, 5.10369], [6.01358, 5.10039], [6.01946, 5.09825], [6.02576, 5.09616], [6.02944, 5.09015], [6.01876, 5.06931], [6.01029, 5.06797], [6.00001, 5.06359], [5.99601, 5.05941], [5.9922, 5.06445], [5.98573, 5.06521], [5.98373, 5.05666], [5.97882, 5.06148], [5.97126, 5.0737], [5.96684, 5.08214], [5.96322, 5.0903], [5.96289, 5.09104], [5.95987, 5.10085], [5.96645, 5.11002], [5.97025, 5.12818], [5.97493, 5.13752], [5.9783, 5.13331], [5.98089, 5.13056]]]}, "properties": {"name": "Ofoni 1", "lga": "Sagbama", "state": "by"}}, {"type": "Feature", "geometry": {"type": "Polygon", "coordinates": [[[6.34016, 4.82301], [6.38962, 4.75215], [6.31491, 4.75099], [6.3142, 4.72624], [6.28758, 4.72695], [6.28651, 4.73524], [6.27549, 4.73563], [6.25508, 4.76371], [6.27375, 4.79703], [6.27623, 4.82701], [6.27719, 4.8269], [6.32033, 4.8311], [6.32828, 4.81014], [6.34016, 4.82301]]]}, "properties": {"name": "Otueke-Ward 13", "lga": "Ogbia", "state": "by"}}, {"type": "Feature", "geometry": {"type": "Polygon", "coordinates": [[[6.38962, 4.75215], [6.40543, 4.7517], [6.44466, 4.77557], [6.44409, 4.76098], [6.44142, 4.74533], [6.44594, 4.73004], [6.45943, 4.724], [6.45977, 4.72176], [6.46106, 4.71328], [6.45061, 4.69348], [6.43935, 4.67928], [6.43118, 4.6709], [6.34591, 4.67532], [6.31669, 4.66118], [6.31424, 4.66736], [6.31479, 4.67103], [6.3169, 4.67423], [6.32114, 4.67587], [6.32506, 4.67437], [6.32677, 4.67437], [6.32795, 4.67615], [6.32816, 4.68434], [6.333, 4.68569], [6.33651, 4.69107], [6.33541, 4.69166], [6.33425, 4.6939], [6.33207, 4.69498], [6.33079, 4.69456], [6.32872, 4.69313], [6.32715, 4.69291], [6.32549, 4.69308], [6.32106, 4.69883], [6.31965, 4.69848], [6.31912, 4.6976], [6.3198, 4.69501], [6.32105, 4.69409], [6.32083, 4.69345], [6.31033, 4.68817], [6.30955, 4.67709], [6.30611, 4.67685], [6.30658, 4.6733], [6.30302, 4.66903], [6.29362, 4.66214], [6.2929, 4.66235], [6.28009, 4.66304], [6.27266, 4.66408], [6.27549, 4.73563], [6.28651, 4.73524], [6.28758, 4.72695], [6.3142, 4.72624], [6.31491, 4.75099], [6.38962, 4.75215]]]}, "properties": {"name": "Otakeme-Ward 12", "lga": "Ogbia", "state": "by"}}, {"type": "Feature", "geometry": {"type": "Polygon", "coordinates": [[[6.31045, 4.67892], [6.31437, 4.67832], [6.31615, 4.67865], [6.31774, 4.67927], [6.31925, 4.68027], [6.32014, 4.68184], [6.32061, 4.68354], [6.32021, 4.68535], [6.32146, 4.68685], [6.3231, 4.68749], [6.32635, 4.68649], [6.32816, 4.68446], [6.32816, 4.68434], [6.32795, 4.67615], [6.32677, 4.67437], [6.32506, 4.67437], [6.32114, 4.67587], [6.3169, 4.67423], [6.31479, 4.67103], [6.31424, 4.66736], [6.31669, 4.66118], [6.30795, 4.65695], [6.30521, 4.65888], [6.29362, 4.66214], [6.30302, 4.66903], [6.30658, 4.6733], [6.30611, 4.67685], [6.30955, 4.67709], [6.31045, 4.67892]]]}, "properties": {"name": "Oloibiri-Ward 10", "lga": "Ogbia", "state": "by"}}, {"type": "Feature", "geometry": {"type": "Polygon", "coordinates": [[[6.28738, 5.02776], [6.28032, 5.02702], [6.26829, 5.02095], [6.2612, 5.02304], [6.26511, 5.03644], [6.2676, 5.04709], [6.26936, 5.04972], [6.27359, 5.05604], [6.28306, 5.06121], [6.29254, 5.05518], [6.29186, 5.04573], [6.29342, 5.04619], [6.29564, 5.04137], [6.30078, 5.03455], [6.29892, 5.02937], [6.29892, 5.02937], [6.2991, 5.02899], [6.28738, 5.02776]]]}, "properties": {"name": "Gbarain 3", "lga": "Yenegoa", "state": "by"}}, {"type": "Feature", "geometry": {"type": "Polygon", "coordinates": [[[6.28567, 4.95269], [6.28343, 4.94841], [6.2821, 4.94111], [6.28065, 4.94195], [6.27905, 4.94449], [6.27697, 4.9452], [6.27507, 4.94461], [6.27156, 4.94147], [6.26681, 4.93899], [6.26508, 4.93733], [6.26392, 4.93493], [6.26372, 4.93262], [6.26431, 4.92948], [6.26378, 4.92673], [6.26107, 4.92507], [6.25906, 4.92455], [6.2582, 4.92396], [6.25718, 4.92184], [6.25599, 4.92231], [6.25143, 4.92195], [6.23363, 4.90577], [6.22775, 4.91167], [6.23065, 4.91325], [6.23358, 4.91922], [6.23321, 4.93158], [6.22531, 4.93318], [6.22902, 4.94387], [6.2364, 4.94122], [6.24078, 4.94737], [6.25979, 4.95325], [6.27282, 4.95666], [6.27681, 4.96004], [6.28567, 4.95269]]]}, "properties": {"name": "Atissa 2", "lga": "Yenegoa", "state": "by"}}, {"type": "Feature", "geometry": {"type": "Polygon", "coordinates": [[[6.15293, 4.87905], [6.14844, 4.92857], [6.14736, 4.94058], [6.15977, 4.93979], [6.18391, 4.95656], [6.20714, 4.9738], [6.22482, 4.98883], [6.23575, 4.99847], [6.24858, 5.00978], [6.2612, 5.02304], [6.26829, 5.02095], [6.28032, 5.02702], [6.28738, 5.02776], [6.29351, 5.02279], [6.29397, 5.01421], [6.28912, 5.00711], [6.27623, 5.00199], [6.25815, 5.00387], [6.25192, 4.9984], [6.25311, 4.98988], [6.26036, 4.98384], [6.27355, 4.9823], [6.28151, 4.97176], [6.28175, 4.96423], [6.27681, 4.96004], [6.27282, 4.95666], [6.25979, 4.95325], [6.24078, 4.94737], [6.2364, 4.94122], [6.22902, 4.94387], [6.22531, 4.93318], [6.23321, 4.93158], [6.23358, 4.91922], [6.23065, 4.91325], [6.22775, 4.91167], [6.22388, 4.90956], [6.21547, 4.91254], [6.21233, 4.92028], [6.21354, 4.93229], [6.21212, 4.93797], [6.20456, 4.94302], [6.19949, 4.93968], [6.19629, 4.93243], [6.19657, 4.92334], [6.20349, 4.91318], [6.2102, 4.89239], [6.20955, 4.88764], [6.20704, 4.86913], [6.19665, 4.85983], [6.1852, 4.85833], [6.17602, 4.86688], [6.16653, 4.88008], [6.15293, 4.87905]]]}, "properties": {"name": "Ekpetiama 1", "lga": "Yenegoa", "state": "by"}}, {"type": "Feature", "geometry": {"type": "Polygon", "coordinates": [[[6.42167, 4.98163], [6.43068, 4.97358], [6.43742, 4.96649], [6.4404, 4.95482], [6.44057, 4.94666], [6.44064, 4.94319], [6.43399, 4.9303], [6.42556, 4.92069], [6.42072, 4.90684], [6.41457, 4.89626], [6.40661, 4.8871], [6.40431, 4.88229], [6.3809, 4.88774], [6.35956, 4.89839], [6.35505, 4.90754], [6.35589, 4.92121], [6.35874, 4.92373], [6.37125, 4.93887], [6.37334, 4.93512], [6.41829, 4.9724], [6.42167, 4.98163]]]}, "properties": {"name": "Otuasega-Ward 6", "lga": "Ogbia", "state": "by"}}, {"type": "Feature", "geometry": {"type": "Polygon", "coordinates": [[[6.3216, 5.08415], [6.3162, 5.08843], [6.30734, 5.08859], [6.28508, 5.09552], [6.27863, 5.09967], [6.27406, 5.10682], [6.29322, 5.11223], [6.29513, 5.1143], [6.29894, 5.11682], [6.30868, 5.11724], [6.30925, 5.11553], [6.30973, 5.11222], [6.31056, 5.11102], [6.31061, 5.109], [6.31043, 5.10608], [6.31523, 5.10207], [6.33362, 5.08904], [6.33068, 5.08826], [6.32192, 5.08563], [6.3216, 5.08415]]]}, "properties": {"name": "Kaiama / Olobiri", "lga": "Kolokuma/Opokuma", "state": "by"}}, {"type": "Feature", "geometry": {"type": "Polygon", "coordinates": [[[6.29568, 5.15367], [6.29755, 5.15642], [6.29858, 5.15862], [6.29894, 5.16076], [6.29606, 5.17948], [6.31426, 5.17901], [6.3196, 5.17965], [6.33936, 5.18234], [6.32967, 5.16067], [6.31495, 5.14637], [6.30917, 5.14558], [6.30266, 5.14561], [6.29845, 5.14948], [6.29568, 5.15367]]]}, "properties": {"name": "Odi South", "lga": "Kolokuma/Opokuma", "state": "by"}}, {"type": "Feature", "geometry": {"type": "Polygon", "coordinates": [[[6.34225, 5.18639], [6.36599, 5.18801], [6.37929, 5.1887], [6.38854, 5.19365], [6.39773, 5.17072], [6.4011, 5.15486], [6.39987, 5.14752], [6.39955, 5.14559], [6.39573, 5.1373], [6.36902, 5.10524], [6.35848, 5.09404], [6.35827, 5.09381], [6.34253, 5.09136], [6.33419, 5.10349], [6.32458, 5.12549], [6.31495, 5.14637], [6.32967, 5.16067], [6.33936, 5.18234], [6.34225, 5.18639]]]}, "properties": {"name": "Sampou / Kalama", "lga": "Kolokuma/Opokuma", "state": "by"}}, {"type": "Feature", "geometry": {"type": "Polygon", "coordinates": [[[6.27815, 5.18205], [6.31101, 5.18758], [6.32384, 5.18782], [6.33893, 5.18616], [6.34225, 5.18639], [6.33936, 5.18234], [6.3196, 5.17965], [6.31426, 5.17901], [6.3006, 5.17897], [6.29967, 5.17918], [6.29802, 5.17943], [6.29606, 5.17948], [6.29544, 5.18092], [6.28585, 5.18176], [6.27815, 5.18205]]]}, "properties": {"name": "Odi North", "lga": "Kolokuma/Opokuma", "state": "by"}}, {"type": "Feature", "geometry": {"type": "Polygon", "coordinates": [[[6.34253, 5.09136], [6.34219, 5.09131], [6.33362, 5.08904], [6.31523, 5.10207], [6.31043, 5.10608], [6.30925, 5.11553], [6.30868, 5.11724], [6.30678, 5.11779], [6.30186, 5.11624], [6.3011, 5.11683], [6.29997, 5.11665], [6.29894, 5.11682], [6.29513, 5.1143], [6.29322, 5.11223], [6.27406, 5.10682], [6.27143, 5.1083], [6.26607, 5.10954], [6.26359, 5.1168], [6.26341, 5.11712], [6.25842, 5.12292], [6.25925, 5.12189], [6.2379, 5.14755], [6.26931, 5.14649], [6.27895, 5.13653], [6.29568, 5.15367], [6.29845, 5.14948], [6.30266, 5.14561], [6.30917, 5.14558], [6.31495, 5.14637], [6.32458, 5.12549], [6.33419, 5.10349], [6.34253, 5.09136]]]}, "properties": {"name": "Kaiama", "lga": "Kolokuma/Opokuma", "state": "by"}}, {"type": "Feature", "geometry": {"type": "Polygon", "coordinates": [[[6.3768, 5.24952], [6.38854, 5.19365], [6.37929, 5.1887], [6.36599, 5.18801], [6.34225, 5.18639], [6.33893, 5.18616], [6.32384, 5.18782], [6.31101, 5.18758], [6.30045, 5.18591], [6.2885, 5.1838], [6.28317, 5.1829], [6.27256, 5.22824], [6.279, 5.22889], [6.28471, 5.23166], [6.29045, 5.23408], [6.29301, 5.23882], [6.29228, 5.2454], [6.29075, 5.25105], [6.28716, 5.25927], [6.28527, 5.26274], [6.28383, 5.2665], [6.28354, 5.2706], [6.28354, 5.27499], [6.28501, 5.27909], [6.28676, 5.28231], [6.29569, 5.29399], [6.31983, 5.2789], [6.3768, 5.24952]]]}, "properties": {"name": "Odoni", "lga": "Sagbama", "state": "by"}}, {"type": "Feature", "geometry": {"type": "Polygon", "coordinates": [[[6.33307, 4.99594], [6.33553, 4.9989], [6.33934, 5.00266], [6.34626, 5.01012], [6.35009, 5.02161], [6.34983, 5.02916], [6.35254, 5.02806], [6.35436, 5.02612], [6.35547, 5.02886], [6.37293, 5.02884], [6.37275, 5.02555], [6.38597, 5.02676], [6.39434, 5.04071], [6.40552, 5.06029], [6.41876, 5.07956], [6.43542, 5.06868], [6.44333, 5.06635], [6.43904, 5.05289], [6.42961, 5.03865], [6.42577, 5.02942], [6.41727, 5.0161], [6.41156, 5.00458], [6.41039, 4.99113], [6.42167, 4.98163], [6.41829, 4.9724], [6.40201, 4.95921], [6.38897, 4.94782], [6.38528, 4.9448], [6.37386, 4.95769], [6.3724, 4.95845], [6.37189, 4.95771], [6.36496, 4.96434], [6.36365, 4.96405], [6.36223, 4.96586], [6.35645, 4.96898], [6.34824, 4.96478], [6.3253, 4.98236], [6.326, 4.98583], [6.3268, 4.99012], [6.32697, 4.99063], [6.32718, 4.99089], [6.32936, 4.99195], [6.33307, 4.99594]]]}, "properties": {"name": "Epie 1", "lga": "Yenegoa", "state": "by"}}, {"type": "Feature", "geometry": {"type": "Polygon", "coordinates": [[[6.49483, 5.24908], [6.487, 5.2407], [6.43931, 5.21366], [6.42407, 5.20696], [6.40093, 5.19483], [6.38854, 5.19365], [6.3768, 5.24952], [6.40279, 5.25541], [6.41024, 5.25487], [6.43642, 5.25741], [6.44419, 5.2586], [6.4564, 5.26694], [6.46926, 5.27364], [6.47972, 5.27498], [6.49483, 5.24908]]]}, "properties": {"name": "Agbere", "lga": "Sagbama", "state": "by"}}, {"type": "Feature", "geometry": {"type": "Polygon", "coordinates": [[[6.40447, 5.25862], [6.40279, 5.25541], [6.3768, 5.24952], [6.31983, 5.2789], [6.29569, 5.29399], [6.29719, 5.29634], [6.30005, 5.29903], [6.30289, 5.30102], [6.30643, 5.30298], [6.3254, 5.30654], [6.32745, 5.31041], [6.33009, 5.31363], [6.33352, 5.3176], [6.33876, 5.31978], [6.34755, 5.32046], [6.36253, 5.31404], [6.38035, 5.30905], [6.39109, 5.30726], [6.39319, 5.30691], [6.40888, 5.30477], [6.41399, 5.30669], [6.41244, 5.27391], [6.40447, 5.25862]]]}, "properties": {"name": "Trofani", "lga": "Sagbama", "state": "by"}}, {"type": "Feature", "geometry": {"type": "Polygon", "coordinates": [[[6.44333, 5.06635], [6.43542, 5.06868], [6.41876, 5.07956], [6.40957, 5.08566], [6.39284, 5.09655], [6.37385, 5.11114], [6.37652, 5.1144], [6.38449, 5.12402], [6.39543, 5.13694], [6.46331, 5.10481], [6.44333, 5.06635]]]}, "properties": {"name": "Zarama", "lga": "Yenegoa", "state": "by"}}, {"type": "Feature", "geometry": {"type": "Polygon", "coordinates": [[[6.40447, 5.25862], [6.41244, 5.27391], [6.41399, 5.30669], [6.42599, 5.31119], [6.43455, 5.32331], [6.45023, 5.32759], [6.46463, 5.32399], [6.46322, 5.31004], [6.47972, 5.27498], [6.46926, 5.27364], [6.4564, 5.26694], [6.44419, 5.2586], [6.43642, 5.25741], [6.41024, 5.25487], [6.40279, 5.25541], [6.40447, 5.25862]]]}, "properties": {"name": "Osekwenike", "lga": "Sagbama", "state": "by"}}, {"type": "Feature", "geometry": {"type": "Polygon", "coordinates": [[[6.35848, 5.09404], [6.36902, 5.10524], [6.37385, 5.11114], [6.39284, 5.09655], [6.40957, 5.08566], [6.41876, 5.07956], [6.40552, 5.06029], [6.39434, 5.04071], [6.38597, 5.02676], [6.37275, 5.02555], [6.37293, 5.02884], [6.35547, 5.02886], [6.35436, 5.02612], [6.35254, 5.02806], [6.34983, 5.02916], [6.32683, 5.04716], [6.3277, 5.05763], [6.34345, 5.06088], [6.3597, 5.0873], [6.35848, 5.09404]]]}, "properties": {"name": "Gbarain 1", "lga": "Yenegoa", "state": "by"}}, {"type": "Feature", "geometry": {"type": "Polygon", "coordinates": [[[6.51743, 5.20904], [6.39987, 5.14752], [6.4011, 5.15486], [6.39773, 5.17072], [6.38854, 5.19365], [6.40093, 5.19483], [6.42407, 5.20696], [6.43931, 5.21366], [6.487, 5.2407], [6.51973, 5.27637], [6.53088, 5.28454], [6.53251, 5.27382], [6.53738, 5.26491], [6.54746, 5.25797], [6.54085, 5.25013], [6.53525, 5.24204], [6.5297, 5.22718], [6.52777, 5.22437], [6.52334, 5.22117], [6.522, 5.22031], [6.51743, 5.20904]]]}, "properties": {"name": "Biseni 1", "lga": "Yenegoa", "state": "by"}}, {"type": "Feature", "geometry": {"type": "Polygon", "coordinates": [[[6.49483, 5.24908], [6.47972, 5.27498], [6.46322, 5.31004], [6.46463, 5.32399], [6.47305, 5.32188], [6.49017, 5.32402], [6.49353, 5.32604], [6.49302, 5.3283], [6.50259, 5.33894], [6.50054, 5.35199], [6.49587, 5.36966], [6.48548, 5.37921], [6.54002, 5.38057], [6.55283, 5.37988], [6.56198, 5.37925], [6.56963, 5.37214], [6.56708, 5.33362], [6.56316, 5.32021], [6.55565, 5.31059], [6.54862, 5.30235], [6.54117, 5.29597], [6.53088, 5.28454], [6.51973, 5.27637], [6.49483, 5.24908]]]}, "properties": {"name": "Asamabiri", "lga": "Sagbama", "state": "by"}}, {"type": "Feature", "geometry": {"type": "Polygon", "coordinates": [[[6.31961, 4.84762], [6.30281, 4.88727], [6.30494, 4.8889], [6.31468, 4.89523], [6.32352, 4.90251], [6.33247, 4.90728], [6.33979, 4.90764], [6.34897, 4.916], [6.35589, 4.92121], [6.35505, 4.90754], [6.35956, 4.89839], [6.3809, 4.88774], [6.40431, 4.88229], [6.40088, 4.87512], [6.39839, 4.86448], [6.39861, 4.85147], [6.39904, 4.84302], [6.37287, 4.8419], [6.35744, 4.84797], [6.31961, 4.84762]]]}, "properties": {"name": "Imiringi-Ward 8", "lga": "Ogbia", "state": "by"}}, {"type": "Feature", "geometry": {"type": "Polygon", "coordinates": [[[6.39987, 5.14752], [6.51743, 5.20904], [6.53457, 5.18685], [6.5263, 5.17416], [6.51136, 5.17196], [6.49333, 5.16345], [6.48582, 5.15336], [6.47914, 5.13954], [6.47298, 5.1285], [6.46434, 5.10727], [6.46331, 5.10481], [6.39543, 5.13694], [6.39573, 5.1373], [6.39955, 5.14559], [6.39987, 5.14752]]]}, "properties": {"name": "Okordia", "lga": "Yenegoa", "state": "by"}}, {"type": "Feature", "geometry": {"type": "Polygon", "coordinates": [[[6.35848, 5.09404], [6.3597, 5.0873], [6.34345, 5.06088], [6.3277, 5.05763], [6.32683, 5.04716], [6.34983, 5.02916], [6.35009, 5.02161], [6.34626, 5.01012], [6.32936, 4.99195], [6.32718, 4.99089], [6.32697, 4.99063], [6.3268, 4.99012], [6.326, 4.98583], [6.3253, 4.98612], [6.3248, 4.9862], [6.32368, 4.98627], [6.32338, 4.987], [6.30795, 5.01376], [6.30278, 5.02093], [6.29909, 5.02901], [6.29892, 5.02937], [6.30078, 5.03455], [6.29564, 5.04137], [6.29342, 5.04619], [6.30522, 5.04967], [6.31176, 5.05653], [6.31686, 5.0677], [6.31719, 5.07605], [6.32192, 5.08563], [6.33068, 5.08826], [6.33362, 5.08904], [6.34219, 5.09131], [6.34253, 5.09136], [6.35827, 5.09381], [6.35848, 5.09404]]]}, "properties": {"name": "Gbarain 2", "lga": "Yenegoa", "state": "by"}}, {"type": "Feature", "geometry": {"type": "Polygon", "coordinates": [[[6.53457, 5.18685], [6.51743, 5.20904], [6.522, 5.22031], [6.52334, 5.22117], [6.52777, 5.22437], [6.5297, 5.22718], [6.53525, 5.24204], [6.54085, 5.25013], [6.54746, 5.25797], [6.54779, 5.25775], [6.56664, 5.23697], [6.55276, 5.22654], [6.54923, 5.21265], [6.55883, 5.19842], [6.55338, 5.18981], [6.54449, 5.18629], [6.53457, 5.18685]]]}, "properties": {"name": "Biseni 2", "lga": "Yenegoa", "state": "by"}}, {"type": "Feature", "geometry": {"type": "Polygon", "coordinates": [[[5.9884, 5.12138], [6.00452, 5.10369], [5.98116, 5.1072], [5.97452, 5.11529], [5.97242, 5.11701], [5.9728, 5.12003], [5.9763, 5.12102], [5.97863, 5.12076], [5.9794, 5.1214], [5.98013, 5.12114], [5.98408, 5.11948], [5.9884, 5.12138]]]}, "properties": {"name": "Ofoni 2", "lga": "Sagbama", "state": "by"}}, {"type": "Feature", "geometry": {"type": "Polygon", "coordinates": [[[6.32816, 4.68434], [6.32816, 4.68446], [6.32635, 4.68649], [6.3231, 4.68749], [6.32146, 4.68685], [6.31925, 4.68027], [6.31774, 4.67927], [6.31615, 4.67865], [6.31437, 4.67832], [6.31045, 4.67892], [6.30942, 4.68442], [6.31024, 4.68788], [6.31033, 4.68817], [6.3117, 4.68927], [6.32083, 4.69345], [6.32105, 4.69409], [6.3198, 4.69501], [6.31912, 4.6976], [6.31965, 4.69848], [6.32106, 4.69883], [6.32549, 4.69308], [6.32715, 4.69291], [6.32872, 4.69313], [6.33079, 4.69456], [6.33207, 4.69498], [6.33425, 4.6939], [6.33541, 4.69166], [6.33651, 4.69107], [6.333, 4.68569], [6.32816, 4.68434]]]}, "properties": {"name": "Ogbia-Ward 1", "lga": "Ogbia", "state": "by"}}, {"type": "Feature", "geometry": {"type": "Polygon", "coordinates": [[[6.1626, 5.12041], [6.14614, 5.13712], [6.15027, 5.14117], [6.15471, 5.15166], [6.15982, 5.15599], [6.16591, 5.16114], [6.17883, 5.16114], [6.18407, 5.16002], [6.19009, 5.15297], [6.18908, 5.15104], [6.18941, 5.14964], [6.18962, 5.14869], [6.19726, 5.14265], [6.20219, 5.14879], [6.2041, 5.15145], [6.21418, 5.1702], [6.22421, 5.1842], [6.21411, 5.1914], [6.19988, 5.1945], [6.19808, 5.20377], [6.19589, 5.21108], [6.19434, 5.21666], [6.19597, 5.22302], [6.1982, 5.2261], [6.20209, 5.23178], [6.20235, 5.23194], [6.21329, 5.23867], [6.22001, 5.23868], [6.23353, 5.23817], [6.23856, 5.23521], [6.24446, 5.23366], [6.25942, 5.22787], [6.27256, 5.22824], [6.28317, 5.1829], [6.27815, 5.18205], [6.27609, 5.18169], [6.26504, 5.17864], [6.25435, 5.17093], [6.24779, 5.16268], [6.2384, 5.15076], [6.23624, 5.14843], [6.22905, 5.1407], [6.21923, 5.13019], [6.2135, 5.11774], [6.20314, 5.10259], [6.1926, 5.08994], [6.1626, 5.12041]]]}, "properties": {"name": "Adagbabiri", "lga": "Sagbama", "state": "by"}}, {"type": "Feature", "geometry": {"type": "Polygon", "coordinates": [[[6.25508, 4.76371], [6.20703, 4.76917], [6.20701, 4.77213], [6.2081, 4.78141], [6.21011, 4.79067], [6.21396, 4.80082], [6.22012, 4.8114], [6.2244, 4.82016], [6.23098, 4.82887], [6.23246, 4.83218], [6.27623, 4.82701], [6.27375, 4.79703], [6.25508, 4.76371]]]}, "properties": {"name": "Ologi-Ward 3", "lga": "Ogbia", "state": "by"}}, {"type": "Feature", "geometry": {"type": "Polygon", "coordinates": [[[6.25508, 4.76371], [6.27549, 4.73563], [6.27266, 4.66408], [6.26867, 4.66463], [6.25117, 4.65983], [6.25109, 4.65977], [6.23158, 4.6943], [6.20057, 4.69785], [6.20058, 4.6979], [6.20491, 4.70897], [6.20498, 4.70938], [6.20695, 4.72009], [6.20703, 4.76917], [6.25508, 4.76371]]]}, "properties": {"name": "Ayama-Ward 4", "lga": "Ogbia", "state": "by"}}, {"type": "Feature", "geometry": {"type": "Polygon", "coordinates": [[[6.02944, 5.09015], [6.05463, 5.04899], [6.0549, 5.03923], [6.06249, 5.0284], [6.07054, 5.01804], [6.0799, 5.00393], [6.0856, 4.99082], [6.08993, 4.97727], [6.09064, 4.9661], [6.08766, 4.95407], [6.08553, 4.93831], [6.0812, 4.92724], [6.07733, 4.91615], [6.07674, 4.91353], [6.07533, 4.90736], [6.07333, 4.8981], [6.03583, 4.9254], [6.02394, 4.92079], [6.01412, 4.91366], [6.00356, 4.91276], [5.99181, 4.91113], [5.98705, 4.90628], [5.98247, 4.91411], [5.98081, 4.92343], [5.98018, 4.93831], [5.98596, 4.95355], [5.98985, 4.96556], [5.99252, 4.98596], [5.99316, 4.99571], [5.99306, 5.01476], [5.99234, 5.025], [5.99352, 5.03892], [5.99232, 5.04823], [5.98373, 5.05666], [5.98573, 5.06521], [5.9922, 5.06445], [5.99601, 5.05941], [6.00001, 5.06359], [6.01029, 5.06797], [6.01876, 5.06931], [6.02944, 5.09015]]]}, "properties": {"name": "Toru-Ebeni", "lga": "Sagbama", "state": "by"}}, {"type": "Feature", "geometry": {"type": "Polygon", "coordinates": [[[5.99261, 4.89302], [5.98824, 4.90425], [5.98705, 4.90628], [5.99181, 4.91113], [6.00356, 4.91276], [6.01412, 4.91366], [6.02394, 4.92079], [6.03583, 4.9254], [6.07333, 4.8981], [6.07222, 4.8879], [6.07548, 4.84184], [6.07282, 4.82237], [6.06128, 4.81746], [6.05073, 4.81672], [6.04154, 4.81548], [6.02824, 4.81479], [6.00943, 4.81326], [5.99558, 4.81383], [5.98929, 4.81408], [5.98818, 4.82804], [5.98927, 4.83732], [5.99606, 4.85718], [5.99991, 4.86687], [5.99846, 4.87573], [5.99532, 4.88365], [5.99261, 4.89302]]]}, "properties": {"name": "Ossiama", "lga": "Sagbama", "state": "by"}}, {"type": "Feature", "geometry": {"type": "Polygon", "coordinates": [[[6.2753, 4.87409], [6.25794, 4.87393], [6.24272, 4.86862], [6.23829, 4.85197], [6.19696, 4.84666], [6.18, 4.84603], [6.1567, 4.84923], [6.15591, 4.85099], [6.1523, 4.85907], [6.1531, 4.87718], [6.15293, 4.87905], [6.16653, 4.88008], [6.17602, 4.86688], [6.1852, 4.85833], [6.19665, 4.85983], [6.20704, 4.86913], [6.20955, 4.88764], [6.2102, 4.89239], [6.20349, 4.91318], [6.19657, 4.92334], [6.19629, 4.93243], [6.19949, 4.93968], [6.20456, 4.94302], [6.21212, 4.93797], [6.21354, 4.93229], [6.21233, 4.92028], [6.21547, 4.91254], [6.22388, 4.90956], [6.22775, 4.91167], [6.23363, 4.90577], [6.25143, 4.92195], [6.25599, 4.92231], [6.25718, 4.92184], [6.26027, 4.9206], [6.26301, 4.91721], [6.26565, 4.91837], [6.27014, 4.92024], [6.27311, 4.92207], [6.27649, 4.92569], [6.27885, 4.92836], [6.28257, 4.92407], [6.28081, 4.9223], [6.29335, 4.90594], [6.29181, 4.90214], [6.29295, 4.89946], [6.28874, 4.90111], [6.28381, 4.89661], [6.28334, 4.88411], [6.27457, 4.88138], [6.2753, 4.87409]]]}, "properties": {"name": "Atissa 3", "lga": "Yenegoa", "state": "by"}}, {"type": "Feature", "geometry": {"type": "Polygon", "coordinates": [[[6.326, 4.98583], [6.3253, 4.98236], [6.32844, 4.97988], [6.32744, 4.97913], [6.32451, 4.97741], [6.32424, 4.97578], [6.32604, 4.97315], [6.31659, 4.96215], [6.31167, 4.96148], [6.30587, 4.96157], [6.30473, 4.9611], [6.30375, 4.95524], [6.30236, 4.9533], [6.30102, 4.95229], [6.29769, 4.95248], [6.29361, 4.95447], [6.28571, 4.95276], [6.28567, 4.95269], [6.27681, 4.96004], [6.28175, 4.96423], [6.28151, 4.97176], [6.27355, 4.9823], [6.26036, 4.98384], [6.25311, 4.98988], [6.25192, 4.9984], [6.25815, 5.00387], [6.27623, 5.00199], [6.28912, 5.00711], [6.29397, 5.01421], [6.29351, 5.02279], [6.28738, 5.02776], [6.2991, 5.02899], [6.29892, 5.02937], [6.29892, 5.02937], [6.29909, 5.02901], [6.30278, 5.02093], [6.30795, 5.01376], [6.32338, 4.987], [6.32368, 4.98627], [6.3248, 4.9862], [6.3253, 4.98612], [6.326, 4.98583]]]}, "properties": {"name": "Ekpetiama 2", "lga": "Yenegoa", "state": "by"}}, {"type": "Feature", "geometry": {"type": "Polygon", "coordinates": [[[6.40846, 4.54953], [6.40733, 4.54847], [6.4063, 4.54688], [6.403, 4.54488], [6.40167, 4.54203], [6.40118, 4.53925], [6.40186, 4.53713], [6.40221, 4.53648], [6.40234, 4.53623], [6.40122, 4.5361], [6.40073, 4.53591], [6.40045, 4.53583], [6.39849, 4.5332], [6.39574, 4.53734], [6.39538, 4.53726], [6.3924, 4.53634], [6.38656, 4.53942], [6.38254, 4.53848], [6.3844, 4.54291], [6.38792, 4.54539], [6.38992, 4.54908], [6.39516, 4.55761], [6.39287, 4.56291], [6.39579, 4.57677], [6.39661, 4.57455], [6.40813, 4.55343], [6.40846, 4.54953]]]}, "properties": {"name": "Ogbolomabiri 3", "lga": "Nembe", "state": "by"}}, {"type": "Feature", "geometry": {"type": "Polygon", "coordinates": [[[6.39432, 4.5807], [6.36861, 4.57201], [6.36512, 4.58198], [6.35365, 4.59654], [6.3504, 4.59455], [6.35103, 4.59196], [6.35062, 4.58934], [6.34998, 4.58562], [6.34802, 4.58241], [6.34742, 4.57835], [6.34598, 4.57241], [6.35002, 4.56561], [6.34605, 4.56362], [6.34285, 4.56508], [6.34054, 4.56278], [6.33728, 4.56092], [6.33386, 4.56007], [6.33045, 4.56169], [6.32776, 4.5652], [6.32614, 4.56932], [6.32545, 4.57367], [6.32231, 4.57457], [6.31951, 4.57265], [6.31861, 4.56949], [6.31489, 4.57154], [6.31164, 4.57078], [6.31142, 4.57721], [6.30874, 4.57828], [6.30615, 4.57549], [6.30386, 4.57611], [6.30234, 4.58206], [6.30103, 4.58703], [6.29931, 4.59104], [6.29551, 4.58927], [6.29362, 4.58838], [6.29242, 4.58629], [6.28948, 4.58501], [6.28892, 4.58294], [6.28738, 4.5838], [6.28538, 4.58785], [6.28111, 4.59386], [6.27991, 4.60268], [6.28007, 4.6114], [6.28401, 4.61241], [6.29401, 4.61955], [6.2945, 4.62028], [6.30334, 4.62301], [6.31734, 4.62084], [6.32153, 4.6241], [6.31959, 4.63638], [6.31815, 4.63867], [6.32095, 4.64252], [6.32138, 4.64186], [6.32665, 4.63015], [6.33839, 4.62065], [6.38647, 4.6198], [6.38978, 4.60116], [6.39312, 4.5839], [6.39432, 4.5807]]]}, "properties": {"name": "Mini", "lga": "Nembe", "state": "by"}}, {"type": "Feature", "geometry": {"type": "Polygon", "coordinates": [[[6.39579, 4.57677], [6.39287, 4.56291], [6.39516, 4.55761], [6.38992, 4.54908], [6.38792, 4.54539], [6.3844, 4.54291], [6.38254, 4.53848], [6.38115, 4.53198], [6.3799, 4.52627], [6.37716, 4.52204], [6.37757, 4.51993], [6.37927, 4.51855], [6.37983, 4.51569], [6.37886, 4.51397], [6.38074, 4.51199], [6.38011, 4.50763], [6.38083, 4.50612], [6.38349, 4.50552], [6.38029, 4.49363], [6.37838, 4.49175], [6.37847, 4.48575], [6.35911, 4.47662], [6.34994, 4.47336], [6.34042, 4.47848], [6.33592, 4.47496], [6.3325, 4.47433], [6.32937, 4.47551], [6.3261, 4.47173], [6.32414, 4.47147], [6.32413, 4.47382], [6.32263, 4.47547], [6.31987, 4.47696], [6.31561, 4.47703], [6.31377, 4.47925], [6.3087, 4.48053], [6.30706, 4.47832], [6.30615, 4.47654], [6.30542, 4.47563], [6.30379, 4.47505], [6.30353, 4.47361], [6.30565, 4.47255], [6.30514, 4.47146], [6.30296, 4.4702], [6.30187, 4.46781], [6.29956, 4.46823], [6.29165, 4.47109], [6.28984, 4.47102], [6.28625, 4.46961], [6.26535, 4.47179], [6.26312, 4.47835], [6.25751, 4.47857], [6.25448, 4.47545], [6.24406, 4.47434], [6.23624, 4.48858], [6.23959, 4.51003], [6.24971, 4.52949], [6.25341, 4.53228], [6.25577, 4.53354], [6.25845, 4.53222], [6.26218, 4.53319], [6.26663, 4.53524], [6.27085, 4.53365], [6.27415, 4.5329], [6.27587, 4.53598], [6.27892, 4.53745], [6.28436, 4.53691], [6.28262, 4.5331], [6.28575, 4.53281], [6.28512, 4.53033], [6.28316, 4.52864], [6.28419, 4.52667], [6.28563, 4.52607], [6.28832, 4.52621], [6.2905, 4.52464], [6.29194, 4.52516], [6.2924, 4.52789], [6.2929, 4.53026], [6.29215, 4.53273], [6.29314, 4.53427], [6.29399, 4.53484], [6.29723, 4.5341], [6.29818, 4.53306], [6.29869, 4.53211], [6.3022, 4.53269], [6.30325, 4.53468], [6.30543, 4.53558], [6.30774, 4.5354], [6.30809, 4.53753], [6.30663, 4.54376], [6.31444, 4.54979], [6.316, 4.54743], [6.31989, 4.54457], [6.32208, 4.5413], [6.32023, 4.5406], [6.32016, 4.5368], [6.31699, 4.5341], [6.31867, 4.53217], [6.31796, 4.53075], [6.31602, 4.52857], [6.31547, 4.52566], [6.31694, 4.52445], [6.3183, 4.52333], [6.31842, 4.51883], [6.32037, 4.51519], [6.3227, 4.51105], [6.32683, 4.50459], [6.32979, 4.50309], [6.33498, 4.50332], [6.3382, 4.50416], [6.3418, 4.507], [6.34458, 4.51074], [6.34639, 4.51337], [6.34927, 4.51724], [6.34953, 4.52232], [6.347, 4.53508], [6.3477, 4.54367], [6.35585, 4.54607], [6.35455, 4.54827], [6.35464, 4.55163], [6.35417, 4.55586], [6.3565, 4.55792], [6.35929, 4.55869], [6.36257, 4.55908], [6.37128, 4.56179], [6.36861, 4.57201], [6.39432, 4.5807], [6.39579, 4.57677]]]}, "properties": {"name": "Ikensi", "lga": "Nembe", "state": "by"}}, {"type": "Feature", "geometry": {"type": "Polygon", "coordinates": [[[6.30795, 4.65695], [6.31669, 4.66118], [6.34591, 4.67532], [6.43118, 4.6709], [6.42954, 4.66923], [6.42201, 4.65867], [6.40614, 4.64269], [6.39349, 4.62758], [6.38647, 4.6198], [6.33839, 4.62065], [6.32665, 4.63015], [6.32138, 4.64186], [6.32095, 4.64252], [6.3147, 4.6522], [6.3084, 4.6566], [6.30842, 4.65662], [6.30795, 4.65695]]]}, "properties": {"name": "Opume-Ward 11", "lga": "Ogbia", "state": "by"}}, {"type": "Feature", "geometry": {"type": "Polygon", "coordinates": [[[5.82155, 5.07549], [5.83532, 5.08248], [5.84014, 5.08306], [5.84058, 5.08058], [5.83951, 5.07454], [5.83999, 5.07079], [5.84087, 5.06757], [5.84832, 5.06655], [5.85198, 5.0702], [5.85315, 5.07546], [5.85738, 5.07736], [5.8623, 5.07484], [5.86223, 5.07446], [5.85977, 5.06828], [5.86078, 5.05884], [5.86162, 5.04959], [5.86854, 5.02692], [5.85265, 5.01317], [5.8388, 5.03199], [5.83669, 5.05396], [5.82155, 5.07549]]]}, "properties": {"name": "Tarakiri", "lga": "Ekeremor", "state": "by"}}, {"type": "Feature", "geometry": {"type": "Polygon", "coordinates": [[[6.43303, 4.59789], [6.44974, 4.60684], [6.47399, 4.61257], [6.4791, 4.60073], [6.47904, 4.59704], [6.48035, 4.59264], [6.48592, 4.58033], [6.48817, 4.57661], [6.49273, 4.57354], [6.49791, 4.56539], [6.50246, 4.56185], [6.50659, 4.5604], [6.50846, 4.56152], [6.5134, 4.55337], [6.52292, 4.53141], [6.52181, 4.52569], [6.51847, 4.52569], [6.51375, 4.52819], [6.51819, 4.52486], [6.52208, 4.52514], [6.52347, 4.52653], [6.52347, 4.52708], [6.52347, 4.52792], [6.52347, 4.53025], [6.53144, 4.51366], [6.53999, 4.50092], [6.53725, 4.49498], [6.53426, 4.48847], [6.53178, 4.47876], [6.5252, 4.46958], [6.51931, 4.47375], [6.50625, 4.47597], [6.50208, 4.48042], [6.49681, 4.49681], [6.49403, 4.50931], [6.49431, 4.51597], [6.49125, 4.5268], [6.49236, 4.53292], [6.49097, 4.53375], [6.49042, 4.54292], [6.49208, 4.55097], [6.49069, 4.55403], [6.48625, 4.5568], [6.48458, 4.55931], [6.48319, 4.56514], [6.48125, 4.56764], [6.48069, 4.57542], [6.47514, 4.57708], [6.46931, 4.58625], [6.4553, 4.58811], [6.44627, 4.58644], [6.43978, 4.58467], [6.4316, 4.5891], [6.43303, 4.59789]]]}, "properties": {"name": "Oluasiri", "lga": "Nembe", "state": "by"}}]}