{"type": "FeatureCollection", "features": [{"type": "Feature", "properties": {"name": "Akpabuyo", "state": "cr"}, "geometry": {"type": "Polygon", "coordinates": [[[8.396586618177935, 4.780645094395652], [8.400927026061424, 4.788817241022912], [8.409705803180316, 4.818394956562031], [8.41035581696741, 4.825737144953337], [8.434352446907951, 4.843164834389654], [8.455928504796702, 4.842810788387226], [8.459141446120896, 4.846094337283887], [8.467478363835482, 4.847071597276454], [8.474772835098292, 4.85030983383183], [8.4896721579438, 4.847001483431768], [8.499791905172344, 4.847426326763639], [8.504347894040109, 4.841947980614862], [8.526582556939502, 4.844757108353917], [8.584235507762514, 4.854883548337114], [8.583988144737134, 4.886798687309636], [8.61458318506601, 4.896538214666919], [8.61915517107434, 4.905104216686311], [8.625245331406973, 4.908145488223738], [8.63637323843426, 4.908577675419451], [8.64461704663944, 4.908739172974492], [8.652116626281327, 4.91508004360918], [8.654275492919737, 4.924702665395728], [8.648982066269411, 4.936062462612597], [8.650686813046036, 4.943043914944781], [8.653384864619852, 4.946587445254465], [8.65934772681618, 4.94441997660067], [8.668920099882769, 4.952147164759879], [8.666588333185075, 4.958384065672135], [8.66830825062533, 4.963874811673293], [8.68166542142211, 4.972221374616765], [8.681439946096702, 4.979513328677228], [8.685539387832534, 4.983068481825001], [8.69088918758598, 4.98435026035628], [8.697673997756851, 4.984713033379819], [8.69844157002251, 4.988215741663169], [8.694669048937499, 4.996768419327111], [8.69015990755372, 4.995804375771399], [8.685350206446913, 5.000298464302716], [8.691891049432456, 5.005945287644977], [8.70059503713128, 5.014321504833617], [8.625913328937031, 5.035304622610283], [8.60370887696314, 5.041811135775333], [8.580089243723648, 5.026456908859302], [8.527047487551556, 5.023609906172283], [8.521395699951654, 5.025941706144863], [8.514381802778018, 5.022460509644873], [8.471919492190864, 5.034528882701807], [8.47425903442695, 5.040280668618038], [8.4707202993024, 5.058282398913605], [8.466365819726832, 5.064415471297025], [8.45108900195595, 5.075776329713904], [8.441888361858446, 5.09153347628893], [8.430447338773718, 5.100122929929341], [8.423650131448483, 5.106048385724478], [8.402514857374797, 5.119116216740053], [8.396803800854798, 5.126478810748551], [8.39382612127855, 5.124352322401819], [8.388507060352595, 5.112940274574044], [8.368104556580079, 5.078966528982164], [8.394948607392394, 5.070599539737032], [8.393606783826044, 5.049806826423946], [8.387248372814213, 5.036608966030997], [8.384416270094846, 5.035357276117452], [8.380361960835899, 5.034668931426097], [8.375389926703804, 5.034639400388073], [8.373497779199226, 5.029323504176432], [8.362356995678851, 5.034614510751112], [8.367092349832149, 5.011795276830583], [8.366234725752065, 5.007374280698571], [8.3640184418976, 4.998682474316809], [8.361199955813333, 4.994586307012526], [8.357473827155445, 4.990371525425587], [8.355757660787447, 4.986676902716908], [8.365832208089955, 4.987693597081886], [8.371688740742854, 4.98538846740388], [8.377334335611124, 4.983543236631135], [8.3808124501345, 4.978969327872221], [8.387316694310016, 4.97712364024386], [8.397872020977047, 4.976305195128703], [8.40145118782209, 4.971055642803719], [8.400018584889835, 4.964601874876678], [8.394180389413464, 4.949503388170854], [8.388920762882947, 4.944027575412349], [8.382208924602253, 4.944805751584227], [8.378193817690601, 4.95053790170283], [8.37369086184384, 4.955391469940423], [8.366000662800388, 4.955949511860524], [8.3626676601844, 4.953465805602491], [8.359976714154072, 4.950052696774605], [8.35679518075301, 4.942624085333307], [8.355954990030796, 4.927753107320086], [8.337682953205785, 4.870585315559936], [8.327832233670676, 4.863613461691955], [8.312743741130816, 4.857654643746855], [8.302390733145842, 4.844291548216404], [8.322719753314004, 4.824634950242796], [8.332229877107181, 4.821620595414174], [8.33173829058967, 4.804570715666046], [8.344260887829762, 4.793214890754655], [8.36338406192499, 4.779793519155646], [8.372160724737682, 4.774917994869611], [8.396586618177935, 4.780645094395652]]]}}, {"type": "Feature", "properties": {"name": "Oron", "state": "cr"}, "geometry": {"type": "Polygon", "coordinates": [[[8.3011275750776, 4.772331076118292], [8.29998824735975, 4.77926663334847], [8.302151636688734, 4.790444413179159], [8.309542375879971, 4.804202033197328], [8.3021594221197, 4.817186094162992], [8.285020022056415, 4.83146300611287], [8.28051939365514, 4.836507780110026], [8.262917101742914, 4.877148111895906], [8.257434676269327, 4.878882649614638], [8.251363594154611, 4.882097500199507], [8.244810360309941, 4.887208389655484], [8.229965081323485, 4.93053161584146], [8.222429918206217, 4.934481282685113], [8.208985198408243, 4.941528531216818], [8.200590761854244, 4.952037171378379], [8.195923415333425, 4.954357948360666], [8.183718160065098, 4.896463873109326], [8.18401907502033, 4.894013924702904], [8.194670485254733, 4.88127815126569], [8.21119738675003, 4.862552059330142], [8.214351785806343, 4.861638381406237], [8.205146793889469, 4.826955048236925], [8.215215620604454, 4.82084858769224], [8.211950006887378, 4.814042001337327], [8.211822679073407, 4.813893752594652], [8.204993462178606, 4.809731087619639], [8.187372495844045, 4.816390508015559], [8.18721912726096, 4.816448709440465], [8.180664684727446, 4.792069358614071], [8.18973760580593, 4.783873121847137], [8.210301458745391, 4.784232526909648], [8.227497983745025, 4.775412728114986], [8.236313009837602, 4.77712305068826], [8.242962731944544, 4.778516477353605], [8.250229747804667, 4.781582302181562], [8.251944814301794, 4.778319354054986], [8.255061144156514, 4.77556476929874], [8.25946746605075, 4.771669935019531], [8.267325189006328, 4.774856822084701], [8.3011275750776, 4.772331076118292]]]}}, {"type": "Feature", "properties": {"name": "Bakassi", "state": "cr"}, "geometry": {"type": "Polygon", "coordinates": [[[8.396586618177935, 4.780645094395652], [8.396348120669302, 4.775118294573701], [8.399478914320468, 4.768500864423402], [8.39736200015625, 4.764582000259168], [8.390695000274093, 4.759584000001666], [8.384901287964112, 4.753142310869009], [8.38639086114938, 4.744901831954053], [8.38766165895845, 4.743275428718107], [8.397083999926679, 4.735138000418431], [8.404306000221766, 4.732638000243583], [8.4065280001671, 4.734584000051598], [8.408751000158588, 4.734584000051598], [8.410139000314643, 4.732362000106264], [8.418023363887187, 4.726017477324774], [8.423172069835175, 4.725391719152583], [8.430939855190218, 4.726786686356547], [8.437082999980532, 4.733750000262376], [8.437498172902394, 4.736128150393881], [8.44904799956555, 4.736250000437224], [8.457637999993779, 4.74652700042077], [8.458848125940335, 4.753931888645809], [8.460756518798348, 4.754551740970101], [8.470417000244424, 4.739582000309099], [8.481806000246763, 4.729583999701845], [8.481667000132006, 4.72930600037165], [8.48152800001725, 4.729028000142137], [8.465595850767954, 4.728169911112559], [8.462974541042286, 4.72443970402918], [8.459952312649136, 4.713750376578673], [8.454201899098393, 4.699435066275328], [8.459915684161558, 4.694002989346529], [8.469873966210628, 4.694757427013712], [8.475903337768898, 4.692673702329557], [8.480956018605411, 4.688739679192906], [8.50930600037168, 4.694027000345841], [8.507916000123373, 4.704583999751833], [8.50347100018655, 4.708193999853279], [8.516807000043059, 4.70347199973304], [8.531806000146844, 4.710415999798613], [8.530693000081953, 4.718751000158591], [8.522360999860325, 4.733750000262376], [8.52694399986575, 4.734860000188917], [8.525314367164356, 4.746251000283507], [8.525750089595022, 4.756029485372494], [8.52829962532752, 4.769788061369979], [8.545386788269695, 4.802529049576037], [8.551167553939536, 4.80121492872604], [8.555689487280063, 4.797434445942997], [8.574052618233793, 4.802723965938299], [8.579960887984669, 4.801479679243869], [8.587716254601503, 4.801431658144566], [8.628282458868455, 4.82248051456412], [8.631151627145925, 4.82678939221671], [8.631049307679461, 4.834920125963095], [8.629493644216382, 4.840631189677708], [8.62423112636543, 4.849381757761932], [8.618520061751497, 4.855636657705645], [8.61140155543751, 4.860549520044344], [8.604226849589509, 4.868836921087109], [8.60351459372356, 4.882923133595796], [8.612747318034337, 4.893098563248145], [8.61458318506601, 4.896538214666919], [8.583988144737134, 4.886798687309636], [8.584235507762514, 4.854883548337114], [8.526582556939502, 4.844757108353917], [8.504347894040109, 4.841947980614862], [8.499791905172344, 4.847426326763639], [8.4896721579438, 4.847001483431768], [8.474772835098292, 4.85030983383183], [8.467478363835482, 4.847071597276454], [8.459141446120896, 4.846094337283887], [8.455928504796702, 4.842810788387226], [8.434352446907951, 4.843164834389654], [8.41035581696741, 4.825737144953337], [8.409705803180316, 4.818394956562031], [8.400927026061424, 4.788817241022912], [8.396586618177935, 4.780645094395652]]]}}, {"type": "Feature", "properties": {"name": "Calabar South", "state": "cr"}, "geometry": {"type": "Polygon", "coordinates": [[[8.355757660787447, 4.986676902716908], [8.34850320665771, 4.962278327083197], [8.336149483212125, 4.963096360308839], [8.333790631632382, 4.958865342361719], [8.332526664174281, 4.956346027447239], [8.316385357798083, 4.950602339926093], [8.307984726713812, 4.951941021261177], [8.308852502341153, 4.960345454679043], [8.313985374825222, 4.968981611012566], [8.31422897418787, 4.974093461843836], [8.309680704201185, 4.978723641183137], [8.306190670962735, 4.981515453375494], [8.301603549364359, 4.987117524654082], [8.296885899264907, 4.981130125355037], [8.270400748995428, 4.958406744775516], [8.227652265139966, 4.93631926492219], [8.222429918206217, 4.934481282685113], [8.229965081323485, 4.93053161584146], [8.235890079363742, 4.919002058997876], [8.236050195560153, 4.912484513849279], [8.238711651921221, 4.900468097324904], [8.241370993976261, 4.894083215667933], [8.244810360309941, 4.887208389655484], [8.251363594154611, 4.882097500199507], [8.257434676269327, 4.878882649614638], [8.262917101742914, 4.877148111895906], [8.27430268162351, 4.854739202652127], [8.291528743956405, 4.848053680333123], [8.302390733145842, 4.844291548216404], [8.312743741130816, 4.857654643746855], [8.327832233670676, 4.863613461691955], [8.337682953205785, 4.870585315559936], [8.346619600014606, 4.892622093434909], [8.346262883925021, 4.903731370106698], [8.351235874036433, 4.91158860922701], [8.355954990030796, 4.927753107320086], [8.35679518075301, 4.942624085333307], [8.359976714154072, 4.950052696774605], [8.3626676601844, 4.953465805602491], [8.366000662800388, 4.955949511860524], [8.37369086184384, 4.955391469940423], [8.378193817690601, 4.95053790170283], [8.382208924602253, 4.944805751584227], [8.388920762882947, 4.944027575412349], [8.394180389413464, 4.949503388170854], [8.400018584889835, 4.964601874876678], [8.40145118782209, 4.971055642803719], [8.397872020977047, 4.976305195128703], [8.387316694310016, 4.97712364024386], [8.3808124501345, 4.978969327872221], [8.377334335611124, 4.983543236631135], [8.371688740742854, 4.98538846740388], [8.365832208089955, 4.987693597081886], [8.355757660787447, 4.986676902716908]]]}}, {"type": "Feature", "properties": {"name": "Biase", "state": "cr"}, "geometry": {"type": "Polygon", "coordinates": [[[7.916170380158974, 5.748143074743155], [7.9082450866415, 5.719692231311456], [7.886644839687676, 5.700051785161804], [7.887803078349407, 5.696609020290111], [7.890107154921338, 5.69202184743034], [7.890100001713733, 5.684799670868188], [7.917696953251834, 5.649620055820947], [7.909989834363387, 5.587515831390533], [7.904579163097935, 5.568675518360521], [7.90794277234113, 5.535781860344628], [7.91291240528335, 5.525071922231461], [7.913496505959017, 5.523813140264281], [7.969230272059463, 5.547637359376665], [7.993000674841312, 5.555146093217672], [7.996608518368475, 5.495577195231419], [7.995866816000785, 5.481987833871472], [7.995471903905297, 5.463274764119092], [8.006666449796853, 5.399691127043923], [8.042219208849474, 5.346110524980816], [8.036915754758297, 5.334067449852967], [8.037967922881364, 5.331023644026004], [8.051933975172858, 5.299423584331009], [8.0518522573758, 5.296074490145656], [8.054516739955659, 5.280963424622371], [8.058647782069556, 5.27338026288885], [8.05981114956495, 5.272964891216816], [8.100193196958514, 5.272860016776406], [8.140594818995737, 5.302574288073004], [8.162090133053255, 5.307948043967087], [8.16461172235313, 5.311952923788454], [8.172207461105472, 5.345785431752347], [8.171347496090107, 5.352666649246487], [8.219586906710447, 5.377578290805502], [8.22594556413651, 5.383634972975699], [8.244667099207334, 5.391571883036022], [8.25717065779969, 5.436993055784967], [8.26022694441798, 5.44580374085001], [8.254641516892548, 5.457922287983251], [8.25113686337562, 5.461314063992916], [8.23937631206718, 5.467896595051855], [8.233812722778964, 5.481123535023187], [8.229609529855964, 5.483596399054647], [8.190808077830582, 5.543493067551083], [8.181479252865302, 5.581886543029611], [8.182463859419613, 5.584556777673185], [8.163191952746445, 5.61177205963287], [8.150950994392929, 5.641006807917904], [8.144023176728297, 5.660984185072152], [8.144489853823757, 5.666914749016485], [8.120129625282004, 5.690138830742512], [8.11522331270578, 5.703198390693217], [8.070962088229862, 5.722755332992278], [8.066141561983557, 5.736463043334822], [8.065169901170066, 5.739173602679671], [8.064291682615135, 5.745610361728836], [8.053459245148076, 5.768115101830517], [8.048647013349012, 5.770912938581318], [8.040736715127366, 5.774001798644122], [8.039328945174702, 5.774692094864349], [8.031376788907721, 5.793415263103952], [8.031891439438425, 5.798446937576159], [8.013177253627418, 5.813248707361993], [8.000641805075304, 5.813040939687653], [7.999238064085432, 5.785740855256336], [7.993983597864826, 5.784343995878771], [7.973307301790612, 5.768492939397674], [7.951372147306813, 5.775062084047988], [7.936557769925173, 5.769247055107542], [7.921760082162109, 5.759984016449266], [7.916170380158974, 5.748143074743155]]]}}, {"type": "Feature", "properties": {"name": "Ikom", "state": "cr"}, "geometry": {"type": "Polygon", "coordinates": [[[8.598862147170394, 5.826440536901316], [8.602613453248296, 5.829892717674852], [8.627295173233733, 5.832308873156023], [8.636101189918008, 5.83379263492219], [8.703018467228503, 5.847942192078563], [8.715231259714926, 5.866605738863825], [8.715088689291633, 5.876971617046536], [8.715967507694359, 5.881496816724734], [8.712596297381253, 5.888107579301391], [8.712219292586326, 5.895095800830575], [8.707519050663734, 5.89848996723822], [8.714308427591902, 5.927536753618313], [8.760015803286763, 5.92824696262727], [8.764501303292548, 5.928905177332126], [8.77750541644184, 5.933583840921585], [8.77947122201931, 5.93397178686854], [8.779881309275027, 5.938431045556342], [8.7913743149727, 5.998406937130483], [8.787847384349334, 6.001294186277732], [8.790292968345852, 6.030668759355819], [8.79890951586151, 6.064733448889626], [8.798895966675559, 6.064750456868126], [8.783900827361322, 6.091478559887662], [8.779182624178816, 6.090881463109099], [8.787485756162766, 6.153708144415361], [8.753369235102184, 6.184629646740859], [8.753246831076467, 6.201191218000361], [8.796546450058656, 6.282227262378285], [8.777869871197652, 6.307801760043219], [8.737507396649107, 6.322362303777368], [8.735450270313777, 6.351359869362511], [8.717040854851632, 6.377235072440669], [8.705951478378097, 6.377385931015965], [8.686076662607945, 6.370928964200402], [8.66575621387824, 6.369752197705793], [8.636499557208822, 6.385011589313422], [8.627539867071278, 6.361343392683466], [8.626519177917771, 6.360203572137209], [8.599504771228283, 6.359082762359662], [8.585778131055974, 6.356662775766551], [8.570489596917412, 6.3597302904206], [8.56258833598298, 6.362952980395789], [8.54440706413476, 6.378104298674486], [8.542740078991528, 6.382358645934801], [8.527637733294796, 6.38547272028984], [8.511390544338212, 6.3555856361682], [8.513799138319598, 6.354068988892777], [8.513200806771863, 6.350333619700848], [8.51097817730107, 6.346317571198995], [8.502891067868518, 6.342971523916731], [8.496300403340967, 6.340001939138233], [8.495343189236849, 6.338198883871428], [8.508726042872638, 6.321615003129921], [8.507503205008959, 6.320795220722914], [8.497361452269274, 6.32334550738932], [8.493265349716182, 6.32240306824707], [8.490974867296359, 6.3191708166799], [8.490830117815733, 6.306116691332306], [8.49047039799052, 6.299749068564722], [8.489442645561667, 6.297092626823314], [8.483330614616193, 6.292916834444384], [8.482723532664977, 6.289999249365906], [8.485723535213026, 6.287737216999005], [8.485580303788026, 6.285865190925847], [8.481738092439059, 6.284892985123236], [8.472711886644277, 6.285376195355184], [8.458011992059824, 6.273494793150235], [8.457118220629411, 6.268516530313661], [8.458242374086353, 6.265226976643703], [8.460080377907161, 6.263511312097421], [8.473051139698384, 6.262826814705761], [8.47564646171486, 6.260037731955833], [8.476848903853863, 6.256919502732899], [8.474625901164472, 6.25410866358402], [8.441776934058282, 6.249172935982244], [8.442509401287907, 6.243552486158364], [8.445512189935641, 6.235833214731144], [8.444778245119949, 6.231912769558733], [8.442202976186422, 6.229775231242002], [8.437458546974426, 6.229156475191246], [8.432564782638678, 6.230842164434364], [8.429811624207161, 6.225745207275565], [8.426118952127979, 6.219285037974146], [8.425413864758127, 6.214300678633435], [8.425366356272377, 6.204927053041104], [8.428286320957, 6.204728508813673], [8.43100776839384, 6.206831925952656], [8.432747264075033, 6.206826947305842], [8.432138982428171, 6.202116469299654], [8.444617675665256, 6.18131854081804], [8.447017778247925, 6.170950543832589], [8.445437575883489, 6.16575875676125], [8.439577511592915, 6.161050052218172], [8.433545110218688, 6.161470950224214], [8.428304061883011, 6.154702611136656], [8.420663881333098, 6.143424566790372], [8.421965331634794, 6.141133903606828], [8.43327627408081, 6.14241414519671], [8.444607265113234, 6.151748832842429], [8.455576169304834, 6.149761510985002], [8.466402582213448, 6.13690707380249], [8.460195456055487, 6.122661005001419], [8.45118576001488, 6.111389709167781], [8.454974489581105, 6.103109044946507], [8.477060310185209, 6.090142870597049], [8.481014970064848, 6.077172274281054], [8.485519581563494, 6.06313212324892], [8.495090510318846, 6.054157069093492], [8.487481713410375, 6.037172650997093], [8.48816669283866, 5.997692822365934], [8.479439902829313, 5.992416897421947], [8.4771262196993, 5.956085758950678], [8.471843700026795, 5.944102409598599], [8.473335437880223, 5.932941618860696], [8.480167339251352, 5.921950594044745], [8.497488960846908, 5.894374370980472], [8.52298124878564, 5.887416271343909], [8.534791811393006, 5.881966161209448], [8.534932064263387, 5.881909076742545], [8.56461547442467, 5.861114732958583], [8.598862147170394, 5.826440536901316]]]}}, {"type": "Feature", "properties": {"name": "Akamkpa", "state": "cr"}, "geometry": {"type": "Polygon", "coordinates": [[[8.70059503713128, 5.014321504833617], [8.716323906323282, 5.029458061640298], [8.725165739407373, 5.043824956156868], [8.720691901809857, 5.056998095086044], [8.728762219101156, 5.074591277765307], [8.743227741367207, 5.084670538414684], [8.746937908857433, 5.097688107220392], [8.80999946610251, 5.151666641302484], [8.815553665569269, 5.159721374242054], [8.82472038233982, 5.188611030174968], [8.843332290952503, 5.301666260589514], [8.841943740411352, 5.307221412438309], [8.838609694581805, 5.310555459167176], [8.833332061825217, 5.318888663580992], [8.831388473099594, 5.330554962341694], [8.832777023640801, 5.34972190823953], [8.837221145839237, 5.379721642339973], [8.844398804161528, 5.416835762060828], [8.859998703377528, 5.497499467326577], [8.861387253019359, 5.503054619175373], [8.867776871405567, 5.517221451408886], [8.878887176901742, 5.533332824750119], [8.910831451210527, 5.563888549417072], [8.915832519954904, 5.572777747994735], [8.921665191795228, 5.595276832260026], [8.92027664215334, 5.607499121587239], [8.91638755813932, 5.616944313429372], [8.90833282430043, 5.629444122748112], [8.901388168629126, 5.636943818402528], [8.880277634005665, 5.657221793950669], [8.86753227829206, 5.685476971884782], [8.8508319857076, 5.72249984729018], [8.853062039981182, 5.744858530296995], [8.808631884154181, 5.745438040832994], [8.752970530565563, 5.701290716393487], [8.707834379053395, 5.672068021721884], [8.703461839292515, 5.670158704360745], [8.677240114839492, 5.653043864782603], [8.636045202624075, 5.645324358632308], [8.598213908644993, 5.638235160324427], [8.574395668225577, 5.642699413846913], [8.491231523915758, 5.610925883023128], [8.489604361652027, 5.610013437170437], [8.467622015243876, 5.619703750028066], [8.371627049948472, 5.680376593704864], [8.339098386281535, 5.722617075717494], [8.328209440813112, 5.7291703131595], [8.296345204367753, 5.736927928980776], [8.202394061736584, 5.68582048592674], [8.16255222360627, 5.674110439645119], [8.144489853823757, 5.666914749016485], [8.144023176728297, 5.660984185072152], [8.150950994392929, 5.641006807917904], [8.163191952746445, 5.61177205963287], [8.182463859419613, 5.584556777673185], [8.181479252865302, 5.581886543029611], [8.190808077830582, 5.543493067551083], [8.229609529855964, 5.483596399054647], [8.233812722778964, 5.481123535023187], [8.23937631206718, 5.467896595051855], [8.25113686337562, 5.461314063992916], [8.254641516892548, 5.457922287983251], [8.26022694441798, 5.44580374085001], [8.25717065779969, 5.436993055784967], [8.244667099207334, 5.391571883036022], [8.22594556413651, 5.383634972975699], [8.219586906710447, 5.377578290805502], [8.171347496090107, 5.352666649246487], [8.172207461105472, 5.345785431752347], [8.16461172235313, 5.311952923788454], [8.162090133053255, 5.307948043967087], [8.175251982792815, 5.260216146857715], [8.173691193194031, 5.241727482237536], [8.18147837962357, 5.228070294008887], [8.192113840381467, 5.217699921913891], [8.22680887373059, 5.211638076735881], [8.265244748646296, 5.244314204936643], [8.29090281761097, 5.235758748367573], [8.334231474802777, 5.207207908418297], [8.336886571158402, 5.207693083668914], [8.413327109558509, 5.196244142952878], [8.39804568725873, 5.144279590230951], [8.397900300158767, 5.143316139328419], [8.396803800854798, 5.126478810748551], [8.402514857374797, 5.119116216740053], [8.423650131448483, 5.106048385724478], [8.430447338773718, 5.100122929929341], [8.441888361858446, 5.09153347628893], [8.45108900195595, 5.075776329713904], [8.466365819726832, 5.064415471297025], [8.4707202993024, 5.058282398913605], [8.47425903442695, 5.040280668618038], [8.471919492190864, 5.034528882701807], [8.514381802778018, 5.022460509644873], [8.521395699951654, 5.025941706144863], [8.527047487551556, 5.023609906172283], [8.580089243723648, 5.026456908859302], [8.60370887696314, 5.041811135775333], [8.625913328937031, 5.035304622610283], [8.70059503713128, 5.014321504833617]]]}}, {"type": "Feature", "properties": {"name": "Ogoja", "state": "cr"}, "geometry": {"type": "Polygon", "coordinates": [[[8.717040854851632, 6.377235072440669], [8.720905546553752, 6.394453987861311], [8.724350933848541, 6.403560798991748], [8.723419897210533, 6.416156919406376], [8.72432782127197, 6.433320575084508], [8.738904176886308, 6.445735386778722], [8.740669481311556, 6.446003286722373], [8.747823854387434, 6.449619763741168], [8.763495016781633, 6.465427123063307], [8.763473359308136, 6.467060076961047], [8.768166513673691, 6.483072976336814], [8.777260295426345, 6.495632747952982], [8.780969364844339, 6.501587360668225], [8.781067259646363, 6.51061325080093], [8.783331854181768, 6.515331376641768], [8.783685407355733, 6.547071646939003], [8.80052540692202, 6.562319001121068], [8.819334855219438, 6.553839934765222], [8.821942822603205, 6.5522874809825], [8.826137783132253, 6.530628398581769], [8.842417198395026, 6.531993026257226], [8.867077048666886, 6.521120645401538], [8.872456799441807, 6.52028263193796], [8.877519362028977, 6.504129857407065], [8.87829587535441, 6.503698511077459], [8.881491415696303, 6.497137599720475], [8.89457364935447, 6.490464606756234], [8.90550961227882, 6.488988583656237], [8.910523228364355, 6.487386936058329], [8.919337044868769, 6.488311770072187], [8.930084976640387, 6.481473452937564], [8.937676690926594, 6.484387231185792], [8.934940856135654, 6.496263413725615], [8.922876515638734, 6.50189013632081], [8.9195063602304, 6.509171808432257], [8.912838368396024, 6.518444274683588], [8.91938274481788, 6.526167370028134], [8.924226031106514, 6.528528210008915], [8.949212185094325, 6.527311413790756], [8.958575641152947, 6.530409588132045], [8.968400586118207, 6.537610491231248], [8.973461207069079, 6.537722002668318], [8.992840172635908, 6.536595066709026], [9.001772425357217, 6.536992648891669], [9.007714431375973, 6.542207331802956], [9.008720911241085, 6.543211089420311], [9.012876498551634, 6.545360578827683], [9.016060877407597, 6.552737949596747], [8.960793561773528, 6.632641671076328], [8.95625639032022, 6.63646281310838], [8.919202375888972, 6.620257639578426], [8.9403518079896, 6.607380129389526], [8.923823483766796, 6.591973364978855], [8.910610179316393, 6.588762337411993], [8.903056391239488, 6.581717225669479], [8.898959619590812, 6.580559290978556], [8.893235101119046, 6.578245045772292], [8.885613226269413, 6.574984721867452], [8.875322305679902, 6.573753150687423], [8.855521659696876, 6.570239012020863], [8.854455400996017, 6.570465880396114], [8.84861458039859, 6.592439816344495], [8.846274021928593, 6.592196286229694], [8.839645827792765, 6.597778776569328], [8.835775916425462, 6.600640345575528], [8.83881727699577, 6.639243009657207], [8.836491942249381, 6.641348115723019], [8.837501540963387, 6.65203189075919], [8.825719673923857, 6.684551166403253], [8.818608272253982, 6.6910275630716], [8.810002943780887, 6.692034122077132], [8.80964898681134, 6.691847421921011], [8.795672261365837, 6.689200554362117], [8.78407094311956, 6.687959407200935], [8.76642385237892, 6.672506521958496], [8.766385652775682, 6.670949703765871], [8.763399250674922, 6.654637002795482], [8.761919389268428, 6.650175116288608], [8.726065385209381, 6.630543044625881], [8.720889124933194, 6.63014041724648], [8.711868226937156, 6.608649026031799], [8.684776796012386, 6.603699147597638], [8.669332969640891, 6.595182121757546], [8.666798709792658, 6.59576822702212], [8.644858225027122, 6.573908191110206], [8.64676247380919, 6.56555420786043], [8.62209980775998, 6.526520333246822], [8.611650861897829, 6.528739146894168], [8.612816203405089, 6.52444956779334], [8.602338998146308, 6.524046566296022], [8.60242251818471, 6.519440038227231], [8.60162522242615, 6.518032550661758], [8.600128630931636, 6.517789792165217], [8.582986228032041, 6.525120378402789], [8.559985902127721, 6.54392326344788], [8.53788174434709, 6.535807433266484], [8.533746091409057, 6.538909311915234], [8.53202209824127, 6.537825405817898], [8.527814511230758, 6.537561482676324], [8.524774296396686, 6.540392403686553], [8.523462434643704, 6.543283635931118], [8.520438021797304, 6.543009214104018], [8.51890371903147, 6.541832142739224], [8.518770585194375, 6.540708182636592], [8.521253575592084, 6.538854080951126], [8.521814553798663, 6.537786632447194], [8.520846667439798, 6.536845297672414], [8.5200706163659, 6.534157766367855], [8.521541257922763, 6.53351084175199], [8.524193775022752, 6.532187755560528], [8.524094760564822, 6.527473241397047], [8.523330617414103, 6.523407996381991], [8.513707570248243, 6.518916614809996], [8.527097086961021, 6.511112672212107], [8.527821030416249, 6.508350149140142], [8.527845321104735, 6.506014304016958], [8.544500677264466, 6.505615555413613], [8.536051207597211, 6.493692734032493], [8.535146788193742, 6.478239560107681], [8.527719766753876, 6.475121337180042], [8.533805087834594, 6.466922233374419], [8.5306136555958, 6.464655867174599], [8.52647615275231, 6.465218829285618], [8.524885638761248, 6.464144861596139], [8.525172855243113, 6.458562748971758], [8.528476335814275, 6.454119633114601], [8.534049689041979, 6.451575885418833], [8.540859494969766, 6.451948354932711], [8.544247960574978, 6.452688976315244], [8.545118603241008, 6.450004207728057], [8.540425076556062, 6.447179492939313], [8.533819271042546, 6.445727750635228], [8.527395125884425, 6.443189611111734], [8.520348926861516, 6.437005494108291], [8.49264099988227, 6.447753999647432], [8.483265000079712, 6.452751999904933], [8.43754650336848, 6.459817114368377], [8.431208515960293, 6.456778694581146], [8.438661574572052, 6.44684171657201], [8.435482979256165, 6.443663120356746], [8.431850433150998, 6.439576148620404], [8.43230438214158, 6.433218956189933], [8.456825255681053, 6.428223609831775], [8.45364666036511, 6.405973433627082], [8.447952556065673, 6.404424061821032], [8.442654721837982, 6.404684455123572], [8.441581311728214, 6.403104027928578], [8.442233500975362, 6.398893775327508], [8.442806719854275, 6.392180374025088], [8.444204949798632, 6.389262063193712], [8.462837280216377, 6.392566504240847], [8.46459898915208, 6.390938573956078], [8.464903431248388, 6.38791352259102], [8.459822905602664, 6.38377896772522], [8.458835877174067, 6.381761066220292], [8.460229256175296, 6.380104625628007], [8.471808698412758, 6.374117538393705], [8.486201043743222, 6.387712644622923], [8.49181962207797, 6.38582705587396], [8.493728335094659, 6.383168573570856], [8.494399403809496, 6.378441612790255], [8.492175498200709, 6.372791826181867], [8.491555128766208, 6.368181172023526], [8.49422667282272, 6.365512363704681], [8.49956620321774, 6.363257579873448], [8.500789449373656, 6.359490513176695], [8.500219171277763, 6.353281155800744], [8.503373564938101, 6.352093728742659], [8.511390544338212, 6.3555856361682], [8.527637733294796, 6.38547272028984], [8.542740078991528, 6.382358645934801], [8.54440706413476, 6.378104298674486], [8.56258833598298, 6.362952980395789], [8.570489596917412, 6.3597302904206], [8.585778131055974, 6.356662775766551], [8.599504771228283, 6.359082762359662], [8.626519177917771, 6.360203572137209], [8.627539867071278, 6.361343392683466], [8.636499557208822, 6.385011589313422], [8.66575621387824, 6.369752197705793], [8.686076662607945, 6.370928964200402], [8.705951478378097, 6.377385931015965], [8.717040854851632, 6.377235072440669]]]}}, {"type": "Feature", "properties": {"name": "Abi", "state": "cr"}, "geometry": {"type": "Polygon", "coordinates": [[[7.970076084443804, 5.76832675907275], [7.973307301790612, 5.768492939397674], [7.993983597864826, 5.784343995878771], [7.999238064085432, 5.785740855256336], [8.000641805075304, 5.813040939687653], [8.013177253627418, 5.813248707361993], [8.031891439438425, 5.798446937576159], [8.032328707803686, 5.799073106738547], [8.042230048378087, 5.818095552267948], [8.043369370699963, 5.826422175443099], [8.047193788962261, 5.83654862172159], [8.057843649664733, 5.845470203986793], [8.065425965136228, 5.857584880437912], [8.071517573377378, 5.864977725841413], [8.07617648066008, 5.866002427769899], [8.080347795314538, 5.875375009249353], [8.083868692386318, 5.883000967021076], [8.080916997821248, 5.89523759963555], [8.082742480381228, 5.901424241035954], [8.08920366681582, 5.911207593255881], [8.100859115256014, 5.922123165851474], [8.102163294100762, 5.929265869324468], [8.106911101166418, 5.934080237013404], [8.113847733086459, 5.93814992917595], [8.10580253565854, 5.95908498808177], [8.100927067130499, 5.960931769285764], [8.064738944246926, 5.943804070301667], [8.050390608140106, 5.950947864652278], [8.049631743110524, 5.952141292886381], [8.047376493430477, 5.95568801129275], [8.052027951628702, 5.990253412764844], [8.04101881806406, 5.998460275021728], [8.023943901190137, 5.99753713622988], [8.021381041102188, 5.996590149216047], [8.013627774402323, 5.993670446234148], [8.009070396081938, 5.991899013828458], [8.00105094894218, 5.987360953844984], [7.993039130751356, 5.983972072752977], [7.98617696809265, 5.981722832342882], [7.980422020160177, 5.974874020119955], [7.979247092779133, 5.970290183745021], [7.979213237800707, 5.965697765139794], [7.989309787916454, 5.942666053795392], [7.984721184235298, 5.93925285323661], [7.982413769380003, 5.935824871420721], [7.982370852832616, 5.930085182285382], [7.982346057624511, 5.926640986592304], [8.000496864039064, 5.912737846374569], [8.002753257656764, 5.909278870323647], [8.00613307987777, 5.903514861721533], [8.004966735626397, 5.900077820135323], [8.00212340666991, 5.896788767387761], [8.000971043279094, 5.895455757177501], [7.996509583050852, 5.899613638658536], [7.991966220664608, 5.901818037972134], [7.989047593271835, 5.902126349851187], [7.987591997372817, 5.885288014030664], [7.969330110296426, 5.874280627848748], [7.958992180344922, 5.843277494960489], [7.937196168068738, 5.836063375424487], [7.934906992363835, 5.833080507659361], [7.932170746582756, 5.829515097743638], [7.932018461682731, 5.821976965964268], [7.932027680632984, 5.82196496900815], [7.93363571161882, 5.819872378807304], [7.942416667795044, 5.805083275972436], [7.970076084443804, 5.76832675907275]]]}}, {"type": "Feature", "properties": {"name": "Obanliku", "state": "cr"}, "geometry": {"type": "Polygon", "coordinates": [[[9.184833526945738, 6.693329811321803], [9.175674438224803, 6.688799857827235], [9.171102524162222, 6.687684059072126], [9.174319304692233, 6.684942802268552], [9.18009198995344, 6.681190257824198], [9.181139254073344, 6.678397159601275], [9.179619996965357, 6.672133903157146], [9.204366478030579, 6.658884073641161], [9.206733999074856, 6.648213011421376], [9.20792273284792, 6.635599973859769], [9.205465397410194, 6.625980318936627], [9.203084944114948, 6.619586406287681], [9.199476141910452, 6.609196775211046], [9.196565960051089, 6.602857130352334], [9.168121851642184, 6.583771475073547], [9.160929567645496, 6.583399948049191], [9.158131631969297, 6.581233507320576], [9.149510687668169, 6.56207826519983], [9.148664190899751, 6.558676540889678], [9.111902160256534, 6.56139252494512], [9.107548399239306, 6.552225773100986], [9.107919612400224, 6.507687492683715], [9.12719655257888, 6.493123784235308], [9.15116405437766, 6.499711395564475], [9.159946543897945, 6.496921989058592], [9.173913310251123, 6.490142281641056], [9.174011188865336, 6.49007672735911], [9.193312855903628, 6.509837924580609], [9.216635443071311, 6.498521169816172], [9.215932674153635, 6.494528486600416], [9.220293487654374, 6.490111943011811], [9.232054066841783, 6.48456135702105], [9.241507670043006, 6.484890250784474], [9.278067977355306, 6.495310826633386], [9.290167814992742, 6.499295209106663], [9.292987175218002, 6.501654076874217], [9.346320053627608, 6.465369107798153], [9.29710563042056, 6.374304369850847], [9.253129946989532, 6.340941953708239], [9.247057160659494, 6.332820282430134], [9.282251379797401, 6.219915416863046], [9.30127881476551, 6.242314584650387], [9.333055495914437, 6.279722213409457], [9.36055374056275, 6.321944236837112], [9.363332748207824, 6.325833320851132], [9.373888016418846, 6.329166411600681], [9.380554198817265, 6.329166411600681], [9.406944274558668, 6.327499391383867], [9.41222190821452, 6.325833320851132], [9.424720764251902, 6.324443817028566], [9.430831909365168, 6.324999809393717], [9.43499946575281, 6.327776908677436], [9.437776565935792, 6.331665992691455], [9.451407743072934, 6.360418549676353], [9.455554962191798, 6.36916637392909], [9.467408519587536, 6.401266129328462], [9.458027683231023, 6.40473021532722], [9.467286110165901, 6.473245145447152], [9.474327086825667, 6.499602795232875], [9.47332191457474, 6.517979145321362], [9.472207069100989, 6.521430969063999], [9.471092223627295, 6.524884223628078], [9.468827247779302, 6.527194976766793], [9.449518203602281, 6.538808822569138], [9.446721660076605, 6.541663858000675], [9.441592215808157, 6.546901226310581], [9.438075490691404, 6.550514564695447], [9.402062416347462, 6.60113382336732], [9.361248016282957, 6.635858058602594], [9.343207358832615, 6.664684771884765], [9.334148406923475, 6.673932076004576], [9.331221196401145, 6.677294560195833], [9.325098991425364, 6.684327126395829], [9.300264358813138, 6.720088958938334], [9.255754470892157, 6.718100071361278], [9.184833526945738, 6.693329811321803]]]}}, {"type": "Feature", "properties": {"name": "Bekwarra", "state": "cr"}, "geometry": {"type": "Polygon", "coordinates": [[[8.95625639032022, 6.63646281310838], [8.952533983056924, 6.641835139979776], [8.986372001166956, 6.689751494336065], [8.990381117694483, 6.69213607462018], [8.970331192230788, 6.691361904028724], [8.969207763627423, 6.693666934781277], [8.968091964872315, 6.697119236063941], [8.993591308891837, 6.750904083156968], [8.99475765224389, 6.754340173260459], [8.994774817603798, 6.756637095725409], [8.994800567891957, 6.760079860597159], [8.993684769136848, 6.763533115161181], [8.992569922763778, 6.76698398562246], [8.991445540879056, 6.769289017274389], [8.974477768334395, 6.788922786857199], [8.92340373959098, 6.824865818402827], [8.920528163643894, 6.820065740941232], [8.901926647596781, 6.796865627946431], [8.887590142071474, 6.799469955773873], [8.865224590042828, 6.780031223062565], [8.877034792022073, 6.756667583642127], [8.865221886680786, 6.740727713713056], [8.830220564027854, 6.723348402406884], [8.820941171198115, 6.731949570616223], [8.808747241991682, 6.737754719604652], [8.807790391213643, 6.736085853979034], [8.810002943780887, 6.692034122077132], [8.818608272253982, 6.6910275630716], [8.825719673923857, 6.684551166403253], [8.837501540963387, 6.65203189075919], [8.836491942249381, 6.641348115723019], [8.83881727699577, 6.639243009657207], [8.835775916425462, 6.600640345575528], [8.839645827792765, 6.597778776569328], [8.846274021928593, 6.592196286229694], [8.84861458039859, 6.592439816344495], [8.854455400996017, 6.570465880396114], [8.855521659696876, 6.570239012020863], [8.875322305679902, 6.573753150687423], [8.885613226269413, 6.574984721867452], [8.893235101119046, 6.578245045772292], [8.898959619590812, 6.580559290978556], [8.903056391239488, 6.581717225669479], [8.910610179316393, 6.588762337411993], [8.923823483766796, 6.591973364978855], [8.9403518079896, 6.607380129389526], [8.919202375888972, 6.620257639578426], [8.95625639032022, 6.63646281310838]]]}}, {"type": "Feature", "properties": {"name": "Yakurr", "state": "cr"}, "geometry": {"type": "Polygon", "coordinates": [[[8.144489853823757, 5.666914749016485], [8.16255222360627, 5.674110439645119], [8.202394061736584, 5.68582048592674], [8.296345204367753, 5.736927928980776], [8.328209440813112, 5.7291703131595], [8.306937994992552, 5.816164944356728], [8.29808465238483, 5.855269350100457], [8.264043346123572, 5.873067497267243], [8.260306593774317, 5.875327064592398], [8.255949212086534, 5.885804766276976], [8.241880852019733, 5.892811376244083], [8.242006659080118, 5.925394490263557], [8.217067132242391, 5.943788969785203], [8.21358255698948, 5.949692392190173], [8.203263800583954, 5.946295473857106], [8.195445604631004, 5.949599799790974], [8.191921975418893, 5.947739561131868], [8.190885200091941, 5.949030225864306], [8.190150641039281, 5.950381271078868], [8.189828250273592, 5.950890927674209], [8.183132410032727, 5.948505718763954], [8.182300548831336, 5.952331627202909], [8.175172791191414, 5.948271198057398], [8.177301157322574, 5.955174806871867], [8.173430013884058, 5.959294136215476], [8.182771824160398, 5.965306666169738], [8.18230649424936, 5.965737700434602], [8.177862112146784, 5.964970314328582], [8.179956578333474, 5.969997884294969], [8.173255729768186, 5.974019111992448], [8.17295074538066, 5.973770617619948], [8.167712212448691, 5.969502448679123], [8.167653245700762, 5.969493515713225], [8.153177260722032, 5.967300414582496], [8.102163294100762, 5.929265869324468], [8.100859115256014, 5.922123165851474], [8.08920366681582, 5.911207593255881], [8.082742480381228, 5.901424241035954], [8.080916997821248, 5.89523759963555], [8.083868692386318, 5.883000967021076], [8.080347795314538, 5.875375009249353], [8.07617648066008, 5.866002427769899], [8.071517573377378, 5.864977725841413], [8.065425965136228, 5.857584880437912], [8.057843649664733, 5.845470203986793], [8.047193788962261, 5.83654862172159], [8.031376788907721, 5.793415263103952], [8.039328945174702, 5.774692094864349], [8.040736715127366, 5.774001798644122], [8.048647013349012, 5.770912938581318], [8.053459245148076, 5.768115101830517], [8.064291682615135, 5.745610361728836], [8.065169901170066, 5.739173602679671], [8.066141561983557, 5.736463043334822], [8.070962088229862, 5.722755332992278], [8.11522331270578, 5.703198390693217], [8.120129625282004, 5.690138830742512], [8.144489853823757, 5.666914749016485]]]}}, {"type": "Feature", "properties": {"name": "Yala", "state": "cr"}, "geometry": {"type": "Polygon", "coordinates": [[[8.810002943780887, 6.692034122077132], [8.807790391213643, 6.736085853979034], [8.808747241991682, 6.737754719604652], [8.820941171198115, 6.731949570616223], [8.830220564027854, 6.723348402406884], [8.865221886680786, 6.740727713713056], [8.877034792022073, 6.756667583642127], [8.865224590042828, 6.780031223062565], [8.887590142071474, 6.799469955773873], [8.901926647596781, 6.796865627946431], [8.920528163643894, 6.820065740941232], [8.92340373959098, 6.824865818402827], [8.839305877764104, 6.869072915382787], [8.759608269206296, 6.891436100395765], [8.70374202667324, 6.896412848773991], [8.6647405618275, 6.867979050193071], [8.623627663286072, 6.862522124996133], [8.600760460426955, 6.855791091585672], [8.604122162208057, 6.84773111290059], [8.637044906996891, 6.825689793449271], [8.639301299715271, 6.822229862318352], [8.641556740051556, 6.818769932086752], [8.636840820247699, 6.798137188380565], [8.62074089077953, 6.781025886735335], [8.578411101591087, 6.765244007005379], [8.544134139678874, 6.758592129223416], [8.508768081681694, 6.758834839156577], [8.468745231607215, 6.746480942141829], [8.450499535025585, 6.747755051254671], [8.435746192832596, 6.758190154751901], [8.419765472098902, 6.757152080803962], [8.393416405442792, 6.742407799280556], [8.37489795707512, 6.706943988574267], [8.361105919102954, 6.693262099566311], [8.321065902769249, 6.678613185749953], [8.294514655926662, 6.678709030097707], [8.301980019062682, 6.669801235338809], [8.303591798422815, 6.666577339372736], [8.30652046224958, 6.66071939478428], [8.304704666287364, 6.650729178708673], [8.309245110373581, 6.639377116560752], [8.315204930163418, 6.63469401841428], [8.315602302804052, 6.634381771101914], [8.322414398405783, 6.634381771101914], [8.325138092349107, 6.625754356178618], [8.324230194367999, 6.62121343635107], [8.321505547143317, 6.618488789126388], [8.321116353836715, 6.614595634780756], [8.321051598152792, 6.613947868399464], [8.314240455832419, 6.612131595796541], [8.314240455832419, 6.60713625123708], [8.3219594961339, 6.603049755242068], [8.323322296386891, 6.596238136280988], [8.324751854214753, 6.589499474820968], [8.330133437807945, 6.59169721555412], [8.333312034922528, 6.58488559659304], [8.340123177242901, 6.575349807947305], [8.346935271945313, 6.575349807947305], [8.351929665022055, 6.574441909966197], [8.358741759724467, 6.563997745799384], [8.374180793608787, 6.563543320168151], [8.372817993355739, 6.559002399441226], [8.372364044365213, 6.553099155101961], [8.371456146384105, 6.548104286283831], [8.375088691589895, 6.545834063791062], [8.37963008895747, 6.548558235274413], [8.386895180268425, 6.549920558886754], [8.39143657673668, 6.550374985417307], [8.393252372698896, 6.544471741078041], [8.39643096891416, 6.539476395619204], [8.40006351501927, 6.5362977976053], [8.399553846732715, 6.534003487670873], [8.399155617038161, 6.532210826768278], [8.393706321689422, 6.53130292878717], [8.39098167356542, 6.52630805996904], [8.39098167356542, 6.523128986213806], [8.395977019923578, 6.519496441008016], [8.410054206836207, 6.517226219414567], [8.415503502184947, 6.518588066386201], [8.419136047390737, 6.514501573089149], [8.420043945371845, 6.510414599554167], [8.42049789436237, 6.505419730736037], [8.412323951789006, 6.500424385277199], [8.405966759358535, 6.484985353191519], [8.406248272339951, 6.484234664798009], [8.408691405683896, 6.47771978434065], [8.410478592413142, 6.47771978434065], [8.422768592596526, 6.47771978434065], [8.423676490577634, 6.466367722192672], [8.430487632898007, 6.457739829729405], [8.431208515960293, 6.456778694581146], [8.43754650336848, 6.459817114368377], [8.483265000079712, 6.452751999904933], [8.49264099988227, 6.447753999647432], [8.520348926861516, 6.437005494108291], [8.527395125884425, 6.443189611111734], [8.533819271042546, 6.445727750635228], [8.540425076556062, 6.447179492939313], [8.545118603241008, 6.450004207728057], [8.544247960574978, 6.452688976315244], [8.540859494969766, 6.451948354932711], [8.534049689041979, 6.451575885418833], [8.528476335814275, 6.454119633114601], [8.525172855243113, 6.458562748971758], [8.524885638761248, 6.464144861596139], [8.52647615275231, 6.465218829285618], [8.5306136555958, 6.464655867174599], [8.533805087834594, 6.466922233374419], [8.527719766753876, 6.475121337180042], [8.535146788193742, 6.478239560107681], [8.536051207597211, 6.493692734032493], [8.544500677264466, 6.505615555413613], [8.527845321104735, 6.506014304016958], [8.527821030416249, 6.508350149140142], [8.527097086961021, 6.511112672212107], [8.513707570248243, 6.518916614809996], [8.523330617414103, 6.523407996381991], [8.524094760564822, 6.527473241397047], [8.524193775022752, 6.532187755560528], [8.521541257922763, 6.53351084175199], [8.5200706163659, 6.534157766367855], [8.520846667439798, 6.536845297672414], [8.521814553798663, 6.537786632447194], [8.521253575592084, 6.538854080951126], [8.518770585194375, 6.540708182636592], [8.51890371903147, 6.541832142739224], [8.520438021797304, 6.543009214104018], [8.523462434643704, 6.543283635931118], [8.524774296396686, 6.540392403686553], [8.527814511230758, 6.537561482676324], [8.53202209824127, 6.537825405817898], [8.533746091409057, 6.538909311915234], [8.53788174434709, 6.535807433266484], [8.559985902127721, 6.54392326344788], [8.582986228032041, 6.525120378402789], [8.600128630931636, 6.517789792165217], [8.60162522242615, 6.518032550661758], [8.60242251818471, 6.519440038227231], [8.602338998146308, 6.524046566296022], [8.612816203405089, 6.52444956779334], [8.611650861897829, 6.528739146894168], [8.62209980775998, 6.526520333246822], [8.64676247380919, 6.56555420786043], [8.644858225027122, 6.573908191110206], [8.666798709792658, 6.59576822702212], [8.669332969640891, 6.595182121757546], [8.684776796012386, 6.603699147597638], [8.711868226937156, 6.608649026031799], [8.720889124933194, 6.63014041724648], [8.726065385209381, 6.630543044625881], [8.761919389268428, 6.650175116288608], [8.763399250674922, 6.654637002795482], [8.766385652775682, 6.670949703765871], [8.76642385237892, 6.672506521958496], [8.78407094311956, 6.687959407200935], [8.795672261365837, 6.689200554362117], [8.80964898681134, 6.691847421921011], [8.810002943780887, 6.692034122077132]]]}}, {"type": "Feature", "properties": {"name": "Calabar Municipal", "state": "cr"}, "geometry": {"type": "Polygon", "coordinates": [[[8.362356995678851, 5.034614510751112], [8.360607987868377, 5.045763530262775], [8.351530149296991, 5.044375818789035], [8.345348759937394, 5.045901884664318], [8.335160909748254, 5.0492333251579], [8.327167828932204, 5.047324509618477], [8.324007936816884, 5.048579962295491], [8.294038053913084, 5.040550342924007], [8.293854797261133, 5.018446498107437], [8.295705307054334, 5.017045888556936], [8.296417285929067, 5.010327702861218], [8.301603549364359, 4.987117524654082], [8.306190670962735, 4.981515453375494], [8.309680704201185, 4.978723641183137], [8.31422897418787, 4.974093461843836], [8.313985374825222, 4.968981611012566], [8.308852502341153, 4.960345454679043], [8.307984726713812, 4.951941021261177], [8.316385357798083, 4.950602339926093], [8.332526664174281, 4.956346027447239], [8.333790631632382, 4.958865342361719], [8.336149483212125, 4.963096360308839], [8.349178384374966, 4.962966244596544], [8.352463105088304, 4.980358447684239], [8.3640184418976, 4.998682474316809], [8.366234725752065, 5.007374280698571], [8.367092349832149, 5.011795276830583], [8.362356995678851, 5.034614510751112]]]}}, {"type": "Feature", "properties": {"name": "Boki", "state": "cr"}, "geometry": {"type": "Polygon", "coordinates": [[[8.79890951586151, 6.064733448889626], [8.842432239556274, 6.057943104290871], [8.851577377993635, 6.047530651118677], [8.872948482186757, 6.036946892385231], [8.922573427022087, 6.025959916317106], [8.932236214329862, 6.019248882030354], [8.947885191348576, 6.018450552950696], [8.97661063197512, 5.956057530130977], [8.991571122209564, 5.934950435414294], [9.000311455109625, 5.943534360022738], [9.071664810182881, 6.013610839668559], [9.123156509265527, 6.060104054658439], [9.220948897373773, 6.14840338630728], [9.223331450586045, 6.150554657271641], [9.282251379797401, 6.219915416863046], [9.247057160659494, 6.332820282430134], [9.253129946989532, 6.340941953708239], [9.29710563042056, 6.374304369850847], [9.346320053627608, 6.465369107798153], [9.292987175218002, 6.501654076874217], [9.290167814992742, 6.499295209106663], [9.278067977355306, 6.495310826633386], [9.241507670043006, 6.484890250784474], [9.232054066841783, 6.48456135702105], [9.220293487654374, 6.490111943011811], [9.215932674153635, 6.494528486600416], [9.216635443071311, 6.498521169816172], [9.193312855903628, 6.509837924580609], [9.174011188865336, 6.49007672735911], [9.173913310251123, 6.490142281641056], [9.159946543897945, 6.496921989058592], [9.15116405437766, 6.499711395564475], [9.12719655257888, 6.493123784235308], [9.107919612400224, 6.507687492683715], [9.089284350192656, 6.491681938071054], [9.089125699891213, 6.49150133262043], [9.077081911600999, 6.47400358689606], [9.07667785519891, 6.47223170123209], [9.082664490973514, 6.4439979415518], [9.079178600012426, 6.427885286676712], [9.079727444565947, 6.416440656411226], [9.072460112144483, 6.396088803355667], [8.986499198579224, 6.397193242773994], [8.990382248142282, 6.410575359864993], [9.000237342879132, 6.421555859915031], [9.008773606117074, 6.437917931867105], [9.014442895423315, 6.460018941121291], [9.001772425357217, 6.536992648891669], [8.992840172635908, 6.536595066709026], [8.973461207069079, 6.537722002668318], [8.968400586118207, 6.537610491231248], [8.958575641152947, 6.530409588132045], [8.949212185094325, 6.527311413790756], [8.924226031106514, 6.528528210008915], [8.91938274481788, 6.526167370028134], [8.912838368396024, 6.518444274683588], [8.9195063602304, 6.509171808432257], [8.922876515638734, 6.50189013632081], [8.934940856135654, 6.496263413725615], [8.937676690926594, 6.484387231185792], [8.930084976640387, 6.481473452937564], [8.919337044868769, 6.488311770072187], [8.910523228364355, 6.487386936058329], [8.90550961227882, 6.488988583656237], [8.89457364935447, 6.490464606756234], [8.881491415696303, 6.497137599720475], [8.87829587535441, 6.503698511077459], [8.877519362028977, 6.504129857407065], [8.872456799441807, 6.52028263193796], [8.867077048666886, 6.521120645401538], [8.842417198395026, 6.531993026257226], [8.826137783132253, 6.530628398581769], [8.821942822603205, 6.5522874809825], [8.819334855219438, 6.553839934765222], [8.80052540692202, 6.562319001121068], [8.783685407355733, 6.547071646939003], [8.783331854181768, 6.515331376641768], [8.781067259646363, 6.51061325080093], [8.780969364844339, 6.501587360668225], [8.777260295426345, 6.495632747952982], [8.768166513673691, 6.483072976336814], [8.763473359308136, 6.467060076961047], [8.763495016781633, 6.465427123063307], [8.747823854387434, 6.449619763741168], [8.740669481311556, 6.446003286722373], [8.738904176886308, 6.445735386778722], [8.72432782127197, 6.433320575084508], [8.723419897210533, 6.416156919406376], [8.724350933848541, 6.403560798991748], [8.720905546553752, 6.394453987861311], [8.717040854851632, 6.377235072440669], [8.735450270313777, 6.351359869362511], [8.737507396649107, 6.322362303777368], [8.777869871197652, 6.307801760043219], [8.796546450058656, 6.282227262378285], [8.753246831076467, 6.201191218000361], [8.753369235102184, 6.184629646740859], [8.787485756162766, 6.153708144415361], [8.779182624178816, 6.090881463109099], [8.783900827361322, 6.091478559887662], [8.798895966675559, 6.064750456868126], [8.79890951586151, 6.064733448889626]]]}}, {"type": "Feature", "properties": {"name": "Obubra", "state": "cr"}, "geometry": {"type": "Polygon", "coordinates": [[[8.400745391786472, 6.216616630752981], [8.371229171888842, 6.196636677041056], [8.363509178306003, 6.178018570300821], [8.339442252857737, 6.153043746871447], [8.33126926356573, 6.135334014753028], [8.32082462275821, 6.128976822322556], [8.317646027442265, 6.123981475964399], [8.316256936408536, 6.120045880812825], [8.314921379318264, 6.116261959022268], [8.309472083969524, 6.112629414715741], [8.305801964189357, 6.110421578193325], [8.302002906808752, 6.108136176943049], [8.298229218403776, 6.067536830860092], [8.291483878578163, 6.055393696262115], [8.288840294444071, 6.045703411283455], [8.287519454759092, 6.028965473078188], [8.286638260347502, 6.016632557246794], [8.285377036720945, 6.013227475767451], [8.282233237973628, 6.00473976063148], [8.274305343616788, 5.999013901270587], [8.26373386422648, 5.99681138963399], [8.258448600722375, 5.998132705959677], [8.25404357924782, 6.005180360085603], [8.252722739562842, 6.012228012412891], [8.249198914298518, 6.015751361935827], [8.244793891924644, 6.017953872673161], [8.238186836353464, 6.014870644164944], [8.230258941996624, 6.012668133427667], [8.225880095290222, 6.013698432736533], [8.222770691114533, 6.01443004561014], [8.214842795858374, 6.012228012412891], [8.173255729768186, 5.974019111992448], [8.179956578333474, 5.969997884294969], [8.177862112146784, 5.964970314328582], [8.18230649424936, 5.965737700434602], [8.182771824160398, 5.965306666169738], [8.173430013884058, 5.959294136215476], [8.177301157322574, 5.955174806871867], [8.174346394270742, 5.94929153737462], [8.182300548831336, 5.952331627202909], [8.183132410032727, 5.948505718763954], [8.189828250273592, 5.950890927674209], [8.190150641039281, 5.950381271078868], [8.190885200091941, 5.949030225864306], [8.191921975418893, 5.947739561131868], [8.195445604631004, 5.949599799790974], [8.203263800583954, 5.946295473857106], [8.21358255698948, 5.949692392190173], [8.217067132242391, 5.943788969785203], [8.242006659080118, 5.925394490263557], [8.241880852019733, 5.892811376244083], [8.255949212086534, 5.885804766276976], [8.260306593774317, 5.875327064592398], [8.264043346123572, 5.873067497267243], [8.29808465238483, 5.855269350100457], [8.306937994992552, 5.816164944356728], [8.328209440813112, 5.7291703131595], [8.339098386281535, 5.722617075717494], [8.371627049948472, 5.680376593704864], [8.467622015243876, 5.619703750028066], [8.489604361652027, 5.610013437170437], [8.491231523915758, 5.610925883023128], [8.574395668225577, 5.642699413846913], [8.596580158847303, 5.801049480249389], [8.598862147170394, 5.826440536901316], [8.56461547442467, 5.861114732958583], [8.534932064263387, 5.881909076742545], [8.534791811393006, 5.881966161209448], [8.52298124878564, 5.887416271343909], [8.497488960846908, 5.894374370980472], [8.480167339251352, 5.921950594044745], [8.473335437880223, 5.932941618860696], [8.471843700026795, 5.944102409598599], [8.4771262196993, 5.956085758950678], [8.479439902829313, 5.992416897421947], [8.48816669283866, 5.997692822365934], [8.487481713410375, 6.037172650997093], [8.495090510318846, 6.054157069093492], [8.485519581563494, 6.06313212324892], [8.481014970064848, 6.077172274281054], [8.477060310185209, 6.090142870597049], [8.454974489581105, 6.103109044946507], [8.45118576001488, 6.111389709167781], [8.460195456055487, 6.122661005001419], [8.466402582213448, 6.13690707380249], [8.455576169304834, 6.149761510985002], [8.444607265113234, 6.151748832842429], [8.43327627408081, 6.14241414519671], [8.421965331634794, 6.141133903606828], [8.420663881333098, 6.143424566790372], [8.428304061883011, 6.154702611136656], [8.433545110218688, 6.161470950224214], [8.439577511592915, 6.161050052218172], [8.445437575883489, 6.16575875676125], [8.447017778247925, 6.170950543832589], [8.444617675665256, 6.18131854081804], [8.432138982428171, 6.202116469299654], [8.432747264075033, 6.206826947305842], [8.43100776839384, 6.206831925952656], [8.428286320957, 6.204728508813673], [8.425366356272377, 6.204927053041104], [8.425413864758127, 6.214300678633435], [8.426118952127979, 6.219285037974146], [8.429811624207161, 6.225745207275565], [8.432564782638678, 6.230842164434364], [8.437458546974426, 6.229156475191246], [8.442202976186422, 6.229775231242002], [8.444778245119949, 6.231912769558733], [8.445512189935641, 6.235833214731144], [8.442509401287907, 6.243552486158364], [8.441776934058282, 6.249172935982244], [8.474625901164472, 6.25410866358402], [8.476848903853863, 6.256919502732899], [8.47564646171486, 6.260037731955833], [8.473051139698384, 6.262826814705761], [8.460080377907161, 6.263511312097421], [8.458242374086353, 6.265226976643703], [8.457118220629411, 6.268516530313661], [8.458011992059824, 6.273494793150235], [8.472711886644277, 6.285376195355184], [8.481738092439059, 6.284892985123236], [8.485580303788026, 6.285865190925847], [8.485723535213026, 6.287737216999005], [8.482723532664977, 6.289999249365906], [8.483330614616193, 6.292916834444384], [8.489442645561667, 6.297092626823314], [8.49047039799052, 6.299749068564722], [8.490830117815733, 6.306116691332306], [8.490974867296359, 6.3191708166799], [8.493265349716182, 6.32240306824707], [8.497361452269274, 6.32334550738932], [8.507503205008959, 6.320795220722914], [8.508726042872638, 6.321615003129921], [8.495343189236849, 6.338198883871428], [8.496300403340967, 6.340001939138233], [8.502891067868518, 6.342971523916731], [8.51097817730107, 6.346317571198995], [8.513200806771863, 6.350333619700848], [8.513799138319598, 6.354068988892777], [8.500219171277763, 6.353281155800744], [8.500789449373656, 6.359490513176695], [8.49956620321774, 6.363257579873448], [8.49422667282272, 6.365512363704681], [8.491555128766208, 6.368181172023526], [8.492175498200709, 6.372791826181867], [8.494399403809496, 6.378441612790255], [8.493728335094659, 6.383168573570856], [8.49181962207797, 6.38582705587396], [8.486201043743222, 6.387712644622923], [8.471808698412758, 6.374117538393705], [8.460229256175296, 6.380104625628007], [8.458835877174067, 6.381761066220292], [8.459822905602664, 6.38377896772522], [8.464903431248388, 6.38791352259102], [8.46459898915208, 6.390938573956078], [8.454495046609168, 6.390313152130318], [8.453650908762484, 6.391640076628278], [8.453146907104156, 6.392868468704933], [8.45112679506559, 6.392311601299411], [8.445952714746056, 6.388960650913361], [8.444204949798632, 6.389262063193712], [8.445018767901843, 6.385539055183301], [8.43094253516989, 6.380998135355696], [8.423238466781868, 6.371173983592541], [8.414199119194052, 6.369638109711047], [8.403697014405736, 6.366013049562639], [8.399155617038161, 6.353752612792903], [8.391663551231943, 6.306527138316824], [8.394387245175267, 6.296990871231742], [8.416638373761998, 6.273378372314085], [8.418000220733632, 6.261117458004321], [8.411189079312635, 6.246132374009903], [8.410478592413142, 6.245039326303925], [8.40528583497337, 6.237050532556054], [8.403470039011154, 6.227060794919794], [8.403301271336659, 6.226413871203249], [8.400745391786472, 6.216616630752981]]]}}, {"type": "Feature", "properties": {"name": "Obudu", "state": "cr"}, "geometry": {"type": "Polygon", "coordinates": [[[9.001772425357217, 6.536992648891669], [9.014442895423315, 6.460018941121291], [9.008773606117074, 6.437917931867105], [9.000237342879132, 6.421555859915031], [8.990382248142282, 6.410575359864993], [8.986499198579224, 6.397193242773994], [9.072460112144483, 6.396088803355667], [9.079727444565947, 6.416440656411226], [9.079178600012426, 6.427885286676712], [9.082664490973514, 6.4439979415518], [9.07667785519891, 6.47223170123209], [9.077081911600999, 6.47400358689606], [9.089125699891213, 6.49150133262043], [9.089284350192656, 6.491681938071054], [9.107919612400224, 6.507687492683715], [9.107548399239306, 6.552225773100986], [9.111902160256534, 6.56139252494512], [9.148664190899751, 6.558676540889678], [9.149510687668169, 6.56207826519983], [9.158131631969297, 6.581233507320576], [9.160929567645496, 6.583399948049191], [9.168121851642184, 6.583771475073547], [9.196565960051089, 6.602857130352334], [9.20792273284792, 6.635599973859769], [9.206733999074856, 6.648213011421376], [9.204366478030579, 6.658884073641161], [9.179619996965357, 6.672133903157146], [9.181139254073344, 6.678397159601275], [9.18009198995344, 6.681190257824198], [9.174319304692233, 6.684942802268552], [9.171102524162222, 6.687684059072126], [9.13567638425775, 6.679891108887603], [9.07036781332397, 6.642453194559323], [9.059971010154072, 6.642524893908785], [9.058959006652856, 6.642531872647851], [9.04755973819141, 6.643758773648528], [9.035036086945922, 6.647288798839043], [9.03382956098551, 6.647819138942168], [9.027075768432042, 6.650787829794581], [8.990170391250615, 6.692373993864749], [8.990381117694483, 6.69213607462018], [8.986372001166956, 6.689751494336065], [8.952533983056924, 6.641835139979776], [8.973352616629995, 6.616670320379058], [8.97759032373449, 6.607106178807157], [9.016060877407597, 6.552737949596747], [9.012876498551634, 6.545360578827683], [9.008720911241085, 6.543211089420311], [9.007714431375973, 6.542207331802956], [9.001772425357217, 6.536992648891669]]]}}, {"type": "Feature", "properties": {"name": "Etung", "state": "cr"}, "geometry": {"type": "Polygon", "coordinates": [[[8.598862147170394, 5.826440536901316], [8.596580158847303, 5.801049480249389], [8.574395668225577, 5.642699413846913], [8.598213908644993, 5.638235160324427], [8.636045202624075, 5.645324358632308], [8.677240114839492, 5.653043864782603], [8.703461839292515, 5.670158704360745], [8.707834379053395, 5.672068021721884], [8.752970530565563, 5.701290716393487], [8.808631884154181, 5.745438040832994], [8.853062039981182, 5.744858530296995], [8.861110687208509, 5.82555484767812], [8.863332748307755, 5.836943626447237], [8.865276337033379, 5.84194374101088], [8.868055343779133, 5.8458328250249], [8.868447448191205, 5.846179217796703], [8.925425455120717, 5.896514821301992], [8.929998398007683, 5.900554656871975], [8.934165954395326, 5.903332710336372], [8.943887710249669, 5.907221794350392], [8.95694351193356, 5.907776833434184], [8.963054657046825, 5.906944275258127], [8.991571122209564, 5.934950435414294], [8.97661063197512, 5.956057530130977], [8.947885191348576, 6.018450552950696], [8.932236214329862, 6.019248882030354], [8.922573427022087, 6.025959916317106], [8.872948482186757, 6.036946892385231], [8.851577377993635, 6.047530651118677], [8.842432239556274, 6.057943104290871], [8.79890951586151, 6.064733448889626], [8.790292968345852, 6.030668759355819], [8.787847384349334, 6.001294186277732], [8.7913743149727, 5.998406937130483], [8.779881309275027, 5.938431045556342], [8.77947122201931, 5.93397178686854], [8.77750541644184, 5.933583840921585], [8.764501303292548, 5.928905177332126], [8.760015803286763, 5.92824696262727], [8.714308427591902, 5.927536753618313], [8.707519050663734, 5.89848996723822], [8.712219292586326, 5.895095800830575], [8.712596297381253, 5.888107579301391], [8.715967507694359, 5.881496816724734], [8.715088689291633, 5.876971617046536], [8.715231259714926, 5.866605738863825], [8.703018467228503, 5.847942192078563], [8.636101189918008, 5.83379263492219], [8.627295173233733, 5.832308873156023], [8.602613453248296, 5.829892717674852], [8.598862147170394, 5.826440536901316]]]}}, {"type": "Feature", "properties": {"name": "Odukpani", "state": "cr"}, "geometry": {"type": "Polygon", "coordinates": [[[8.396803800854798, 5.126478810748551], [8.397900300158767, 5.143316139328419], [8.39804568725873, 5.144279590230951], [8.413327109558509, 5.196244142952878], [8.336886571158402, 5.207693083668914], [8.334231474802777, 5.207207908418297], [8.29090281761097, 5.235758748367573], [8.265244748646296, 5.244314204936643], [8.22680887373059, 5.211638076735881], [8.192113840381467, 5.217699921913891], [8.18147837962357, 5.228070294008887], [8.173691193194031, 5.241727482237536], [8.175251982792815, 5.260216146857715], [8.162090133053255, 5.307948043967087], [8.140594818995737, 5.302574288073004], [8.100193196958514, 5.272860016776406], [8.05981114956495, 5.272964891216816], [8.058647782069556, 5.27338026288885], [8.054516739955659, 5.280963424622371], [8.0518522573758, 5.296074490145656], [8.051933975172858, 5.299423584331009], [8.037967922881364, 5.331023644026004], [8.036915754758297, 5.334067449852967], [8.042219208849474, 5.346110524980816], [8.006666449796853, 5.399691127043923], [7.995471903905297, 5.463274764119092], [7.995866816000785, 5.481987833871472], [7.996608518368475, 5.495577195231419], [7.993000674841312, 5.555146093217672], [7.969230272059463, 5.547637359376665], [7.913496505959017, 5.523813140264281], [7.934503078054661, 5.469237804381237], [7.956337929352003, 5.437153816795274], [7.973660945796041, 5.393556118420179], [7.978248118655813, 5.388978957712766], [7.980556965231813, 5.383243084400874], [7.984013081438604, 5.376361847121586], [7.987501144262467, 5.362585067946554], [7.986370086710167, 5.36028099137468], [7.985239029157924, 5.357976913004165], [7.982965945921705, 5.355668068226805], [7.97726392668892, 5.354492186665141], [7.97269821165321, 5.354471207280426], [7.880370140269804, 5.366795539982206], [7.881334781874727, 5.362595080998233], [7.884815215749654, 5.358582020044253], [7.903316975398127, 5.343149185186803], [7.904480933748118, 5.341426850368919], [7.903935908615324, 5.338537217118926], [7.901671886048746, 5.33563280081313], [7.899390220582291, 5.334459781793555], [7.896533965670017, 5.333282947849796], [7.875854014751042, 5.337155818886004], [7.872963904860342, 5.339440822635879], [7.870654105902304, 5.34115409858282], [7.868342876122881, 5.342865944607695], [7.848832130198673, 5.344439983918164], [7.845976830366453, 5.343263149075142], [7.841986178719196, 5.340921879241364], [7.840874194888215, 5.337450980878089], [7.862884997644585, 5.315118790100144], [7.874897002994317, 5.318101882695771], [7.892114162038979, 5.316510201384745], [7.912880898434764, 5.303979873572359], [7.929697037188589, 5.285070896404818], [7.940071106396488, 5.249722957948222], [7.943515777830953, 5.245141983216001], [7.948098183384502, 5.241714001400112], [7.95382213618268, 5.238293170993074], [7.961822987141204, 5.236031054989269], [7.966410160000919, 5.231453896080495], [7.976094245952766, 5.208294391972686], [7.992694854983597, 5.206701755581605], [7.997476054776143, 5.212418351026145], [8.003334999410754, 5.219192981770732], [8.006573676633934, 5.225669861375025], [8.009812354756434, 5.238161086664888], [8.016752243121573, 5.24695110261132], [8.017694911590922, 5.24704086304547], [8.028124709987424, 5.243830106174528], [8.041580780128925, 5.234612912256125], [8.065328598236249, 5.198836802976132], [8.06486606611611, 5.14517116461758], [8.069683075113858, 5.135974884433438], [8.09521484418974, 5.115192412599811], [8.099286078689602, 5.107050419341419], [8.098175049039355, 5.043021679007325], [8.100026130801325, 5.033398628244129], [8.102616309595078, 5.02377605412164], [8.115570067904343, 5.002679825013956], [8.122232437177274, 4.994167328159733], [8.125563622263428, 4.981954097703522], [8.134789177178845, 4.972769952071701], [8.14207074227096, 4.96825678622173], [8.159235138990539, 4.969608292788507], [8.161326060049703, 4.96925081317454], [8.18385446311305, 4.965399191319648], [8.186968329724664, 4.958810746318932], [8.195923415333425, 4.954357948360666], [8.200590761854244, 4.952037171378379], [8.208985198408243, 4.941528531216818], [8.222429918206217, 4.934481282685113], [8.227652265139966, 4.93631926492219], [8.270400748995428, 4.958406744775516], [8.296885899264907, 4.981130125355037], [8.301603549364359, 4.987117524654082], [8.296417285929067, 5.010327702861218], [8.295705307054334, 5.017045888556936], [8.293854797261133, 5.018446498107437], [8.294038053913084, 5.040550342924007], [8.324007936816884, 5.048579962295491], [8.327167828932204, 5.047324509618477], [8.335160909748254, 5.0492333251579], [8.345348759937394, 5.045901884664318], [8.351530149296991, 5.044375818789035], [8.360607987868377, 5.045763530262775], [8.362356995678851, 5.034614510751112], [8.373497779199226, 5.029323504176432], [8.375389926703804, 5.034639400388073], [8.380361960835899, 5.034668931426097], [8.384416270094846, 5.035357276117452], [8.387248372814213, 5.036608966030997], [8.393606783826044, 5.049806826423946], [8.394948607392394, 5.070599539737032], [8.368104556580079, 5.078966528982164], [8.388507060352595, 5.112940274574044], [8.39382612127855, 5.124352322401819], [8.396803800854798, 5.126478810748551]]]}}]}