{"type": "FeatureCollection", "features": [{"type": "Feature", "properties": {"name": "Afikpo North", "state": "eb"}, "geometry": {"type": "Polygon", "coordinates": [[[7.970076084443804, 5.76832675907275], [7.942416667795044, 5.805083275972436], [7.93363571161882, 5.819872378807304], [7.932027680632984, 5.82196496900815], [7.932018461682731, 5.821976965964268], [7.932170746582756, 5.829515097743638], [7.934906992363835, 5.833080507659361], [7.937196168068738, 5.836063375424487], [7.958992180344922, 5.843277494960489], [7.969330110296426, 5.874280627848748], [7.987591997372817, 5.885288014030664], [7.989047593271835, 5.902126349851187], [7.991966220664608, 5.901818037972134], [7.996509583050852, 5.899613638658536], [8.000971043279094, 5.895455757177501], [8.00212340666991, 5.896788767387761], [8.004966735626397, 5.900077820135323], [8.00613307987777, 5.903514861721533], [8.002753257656764, 5.909278870323647], [8.000496864039064, 5.912737846374569], [7.982346057624511, 5.926640986592304], [7.982370852832616, 5.930085182285382], [7.982413769380003, 5.935824871420721], [7.984721184235298, 5.93925285323661], [7.989309787916454, 5.942666053795392], [7.979247092779133, 5.970290183745021], [7.980422020160177, 5.974874020119955], [7.98617696809265, 5.981722832342882], [7.993039130751356, 5.983972072752977], [7.9925507134447, 5.994654086017306], [7.991826539763053, 5.996491390165545], [7.991105520903091, 5.997906813348777], [7.963055767909395, 5.988101193015666], [7.958879067215207, 5.992684213705559], [7.95703878181439, 5.991900270181361], [7.956416844861565, 5.988648565379037], [7.954939306403901, 5.987530565083546], [7.951842607850097, 5.987702608988286], [7.950409265675091, 5.986839499943017], [7.950547257649873, 5.982671017253665], [7.947934453712094, 5.979316678222176], [7.930346030245175, 5.973095565807739], [7.92819518196211, 5.976778205949472], [7.927219125262468, 5.98083747227156], [7.921259861253645, 5.981738906825115], [7.919803736553263, 5.979702760773819], [7.918159525841475, 5.977492079695764], [7.914056999431011, 5.975519000401619], [7.913033999919207, 5.969315000287054], [7.905175422607726, 5.970082554566261], [7.902341301809656, 5.969759838245977], [7.901392540433449, 5.975247540941325], [7.894419805229859, 5.976052349636291], [7.893095091265479, 5.976537542873359], [7.895090855958301, 5.979790650618099], [7.890835388142705, 5.979475938263988], [7.89055994198776, 5.975998239227408], [7.889840252325826, 5.972779836320456], [7.886601489667044, 5.971002242659438], [7.885519768922222, 5.972454952633996], [7.885212277224866, 5.974054004788513], [7.884582163635969, 5.976175584635598], [7.883198162765041, 5.976754327150502], [7.880385286651688, 5.976376170324045], [7.87710075839334, 5.977001884429455], [7.874924354975064, 5.97546201486017], [7.873897126850977, 5.973528003914282], [7.874896306019764, 5.969066165970844], [7.874665260293568, 5.967383589281269], [7.872472818365907, 5.96582416125608], [7.868697986922598, 5.971692296062656], [7.86352032820065, 5.963836101954598], [7.862421253238267, 5.9631446564008], [7.860002208235358, 5.961964923942162], [7.857778158735073, 5.961071123733404], [7.853091371569576, 5.967550635653367], [7.849948821081284, 5.965090779415959], [7.837654575198542, 5.948893474054614], [7.838179475302582, 5.944810721037982], [7.847400350146074, 5.936242834938923], [7.851262199990572, 5.932650825775056], [7.855848689365587, 5.927148222212736], [7.851901107150411, 5.907672218897858], [7.863289531586645, 5.885681786685154], [7.869428999948411, 5.87694170379666], [7.887279405819982, 5.869015893168978], [7.885716295970326, 5.863256474706589], [7.887052083287074, 5.857294727669569], [7.888103772071474, 5.854364249010928], [7.890548367713052, 5.850144341288342], [7.885225876772836, 5.838365993296009], [7.884971446874829, 5.814021967839608], [7.888607322270161, 5.807604162901839], [7.886478817643365, 5.803224424067992], [7.884298641569103, 5.797164607760465], [7.887168551787283, 5.78320974033727], [7.888624905814822, 5.776128254615287], [7.889973210795063, 5.769572152832609], [7.91124822242756, 5.754582707126303], [7.909497153370978, 5.750368270879051], [7.912503851371696, 5.749057730230106], [7.914362575572454, 5.748493059407224], [7.916170380158974, 5.748143074743155], [7.921760082162109, 5.759984016449266], [7.951372147306813, 5.775062084047988], [7.970076084443804, 5.76832675907275]]]}}, {"type": "Feature", "properties": {"name": "Abakaliki", "state": "eb"}, "geometry": {"type": "Polygon", "coordinates": [[[8.03331156967323, 6.203533923152065], [8.034392666288568, 6.182510981596579], [8.039839351804687, 6.169347003161704], [8.054600204236067, 6.176301160170453], [8.071045988681476, 6.176715869042198], [8.075099909433334, 6.196581911026442], [8.077404836763833, 6.196085257728498], [8.079744611025035, 6.195525793980266], [8.08452698892944, 6.2048421372549], [8.095708929923205, 6.20504580042342], [8.108892113380364, 6.195239115292964], [8.112929725826234, 6.193590201126938], [8.112996275657622, 6.19361752612798], [8.115398673310153, 6.192881154941404], [8.119014751929285, 6.194946875198184], [8.128444892717653, 6.181251169006316], [8.139684000915963, 6.192322517670107], [8.147045665025473, 6.192113828190656], [8.147053526898787, 6.194468325253069], [8.160080711255887, 6.201059719130797], [8.171372061071793, 6.209157084431922], [8.182366211931196, 6.210854495438639], [8.188290482419859, 6.214777185318894], [8.219941798075581, 6.182367852694313], [8.219981252233026, 6.182404411934101], [8.224044999876867, 6.186170000145466], [8.235633999209767, 6.189660000108972], [8.24391899996192, 6.188366999837228], [8.256657099045924, 6.190323306775213], [8.261492999202574, 6.191066000195804], [8.285334999710528, 6.210248999891462], [8.301601999832485, 6.21757699967884], [8.306880000411752, 6.215874000284941], [8.312126999561428, 6.212328000436912], [8.317151999265377, 6.209248999641659], [8.313161785587965, 6.231158062994268], [8.32458186256298, 6.256277373302169], [8.340159412726791, 6.261737908377825], [8.371925366762298, 6.22928626444957], [8.388341513150351, 6.224928140821078], [8.400745391786472, 6.216616630752981], [8.403301271336659, 6.226413871203249], [8.403470039011154, 6.227060794919794], [8.40528583497337, 6.237050532556054], [8.410478592413142, 6.245039326303925], [8.411189079312635, 6.246132374009903], [8.418000220733632, 6.261117458004321], [8.416638373761998, 6.273378372314085], [8.394387245175267, 6.296990871231742], [8.391663551231943, 6.306527138316824], [8.381139419348756, 6.313737790067023], [8.371433999679368, 6.31339900016377], [8.354062999907569, 6.309086000018908], [8.320752999851095, 6.317713000354729], [8.312196999192224, 6.316478000059703], [8.302013999946212, 6.314346999814234], [8.29707999994207, 6.308900000434733], [8.292236418675827, 6.308017064935655], [8.289528883751018, 6.307523508902875], [8.281822021169376, 6.309062537606053], [8.276944010257921, 6.310036657166052], [8.2606919901433, 6.309099587875721], [8.261258163733316, 6.313457277131704], [8.225763798560479, 6.306946921163501], [8.204945814297957, 6.297402597951589], [8.193471644001193, 6.278228515034016], [8.157978742025364, 6.282174973096573], [8.158574209232427, 6.283166519719146], [8.158982494246743, 6.284211423118734], [8.158595188617085, 6.285176785080637], [8.157431327393908, 6.286463466715645], [8.154792946737132, 6.287520369769311], [8.153842634030411, 6.289088385420712], [8.155491432183908, 6.29476187725885], [8.156147296060908, 6.29534544193865], [8.157292211266565, 6.29448653002936], [8.158841190968246, 6.29493340675134], [8.161289938779703, 6.315491193763648], [8.16616406282128, 6.318300231570504], [8.169941838645002, 6.320699065209737], [8.170988425575445, 6.326713274198312], [8.144287269841698, 6.33324358162605], [8.13973684238141, 6.343873070885536], [8.144122779342865, 6.351238126338501], [8.13681256274964, 6.357062415598023], [8.124233549238966, 6.337057313244486], [8.115901009424078, 6.333510155069632], [8.117423603916222, 6.325502487250048], [8.117268113832438, 6.325472023615021], [8.116463530867293, 6.325390689828509], [8.110845546085159, 6.324779069898227], [8.113855620140782, 6.320591767096403], [8.102299734745031, 6.309614099910846], [8.085567097143894, 6.324000637419545], [8.075384522377874, 6.320894222590368], [8.071027100220533, 6.304684402263376], [8.075208886580924, 6.275825647935335], [8.08285448015016, 6.265898228820276], [8.067281112733212, 6.25570263636763], [8.062599347382047, 6.243769758767428], [8.063532328354313, 6.242053991698413], [8.063790512921855, 6.238497778249894], [8.06384270058021, 6.235151474660881], [8.037420698006883, 6.219022614901803], [8.033201211167011, 6.204151278059101], [8.03331156967323, 6.203533923152065]]]}}, {"type": "Feature", "properties": {"name": "Ishielu", "state": "eb"}, "geometry": {"type": "MultiPolygon", "coordinates": [[[[7.865128804350888, 6.557200388287356], [7.85060954579393, 6.554846088176475], [7.8483569149397, 6.55004932471661], [7.84468747684565, 6.548491495686051], [7.842294742408512, 6.547709088203931], [7.839781675983602, 6.547025197854623], [7.836367533834675, 6.537715050908901], [7.839621838577045, 6.529657659573388], [7.848657077162443, 6.532278292109538], [7.849274444659954, 6.531437365741908], [7.849214980586908, 6.529779613038784], [7.849777979570149, 6.529294877556595], [7.853240443191964, 6.530292403771455], [7.854036017648127, 6.530019428953551], [7.852983062618307, 6.525891952651534], [7.857985397608047, 6.522865781630571], [7.856364114212568, 6.518184536087517], [7.856567696442085, 6.516362150792645], [7.855816354241426, 6.513608570579095], [7.853944910029611, 6.513855814893986], [7.853346308685218, 6.513647665907115], [7.852882603849139, 6.512484262438818], [7.854371388328957, 6.489246460655693], [7.862205272055689, 6.489107882322969], [7.869375486689421, 6.496797135279621], [7.871697854572403, 6.494656190330943], [7.876050461759462, 6.499693134830352], [7.880524331732545, 6.498696441387722], [7.890422880811343, 6.50328394609727], [7.898189562698235, 6.502148567302584], [7.903088486444517, 6.49780185966813], [7.905336529857038, 6.496321995563676], [7.905825397723959, 6.496055777352296], [7.902800229447053, 6.492476865914682], [7.928586852001672, 6.479172739830119], [7.945630229651442, 6.481245693334131], [7.925481767269787, 6.512055723792685], [7.919248992447081, 6.511483351175741], [7.899342193187692, 6.526357064027309], [7.884123261179582, 6.527767686629488], [7.86892635536708, 6.544091912411886], [7.870607401410496, 6.552484154620061], [7.865128804350888, 6.557200388287356]]], [[[7.733001708861821, 6.226606369288561], [7.741006855881722, 6.231558655207834], [7.755611999694054, 6.234428999798524], [7.775707000078057, 6.235930999815821], [7.780632192122027, 6.234966134279716], [7.788583998552724, 6.233409999571847], [7.79642540510838, 6.232376354785004], [7.796150995871812, 6.225616865026325], [7.793538378093729, 6.225511108351043], [7.792479688087212, 6.225471482423018], [7.793062928111681, 6.219019775742083], [7.788278905347227, 6.217043845597061], [7.791690937686667, 6.199176912884298], [7.810317366753111, 6.20082303555472], [7.811284672149952, 6.20837132157925], [7.811642480016474, 6.209964047003211], [7.810600494916969, 6.211996289097499], [7.821016600235964, 6.225745743271489], [7.823648786362469, 6.227622800152176], [7.82494256005117, 6.228313128747914], [7.832373694090734, 6.233584104722695], [7.850567869411691, 6.231102567629421], [7.85285152687652, 6.243076248370187], [7.868622059860229, 6.251017939226585], [7.868248666742602, 6.251753989355166], [7.867749854172473, 6.252938693266117], [7.879276256194316, 6.25120484262942], [7.879819167920289, 6.258171244807158], [7.884981512986485, 6.262175326929821], [7.893371114785168, 6.267365276686235], [7.89562606409163, 6.270606992718569], [7.900121606826758, 6.278002527994317], [7.902967652635084, 6.282482727395973], [7.898200513742779, 6.285603784087414], [7.89375024827541, 6.287064730053316], [7.8882247560677, 6.286829453016878], [7.88352638923152, 6.309231058866317], [7.882746718386386, 6.317384504091649], [7.888327723945338, 6.321753888131468], [7.902487002773, 6.331394122241022], [7.909354072132771, 6.337651603238953], [7.910208249111463, 6.34585683772292], [7.910360206658254, 6.347626298814703], [7.910506008345635, 6.348674802200435], [7.919949131747103, 6.348033188980537], [7.926831998597891, 6.408718999981886], [7.926061999961405, 6.418180000106986], [7.925523999433096, 6.427636000001428], [7.923024806849412, 6.434407689962995], [7.919820087127391, 6.439390283035209], [7.91624101561041, 6.439237343428715], [7.915052535446193, 6.440690029121583], [7.90950267610765, 6.44863905664721], [7.90783100099992, 6.4480772951311], [7.907400903828716, 6.44758644066178], [7.905988016733659, 6.44667518820944], [7.900644773037868, 6.451703082831045], [7.899778972321769, 6.453194043670237], [7.888706196433873, 6.446171538185979], [7.887445783096439, 6.448330195282324], [7.885721104645313, 6.451989005188466], [7.881695597074213, 6.453211171258602], [7.878960702074778, 6.453405780952096], [7.868771609921907, 6.453640862835584], [7.868745422563222, 6.450744399234679], [7.868176433195856, 6.444117465948352], [7.858327803685256, 6.443529839030873], [7.857135109297928, 6.442562147824901], [7.856724314275709, 6.440182174767585], [7.854877980034814, 6.440016712101624], [7.805617544813913, 6.472926766557066], [7.803523619119801, 6.469500342366928], [7.798461895600042, 6.472968735219013], [7.803070942669933, 6.485016702658754], [7.807140399210084, 6.484157822225768], [7.808415948137565, 6.511323404051893], [7.807093293620653, 6.511924350828167], [7.805978997632678, 6.513159682973026], [7.804187385339617, 6.513705120894656], [7.804393789641722, 6.514786258878814], [7.804870567922421, 6.516802566785088], [7.805463175285354, 6.519153671604727], [7.818224680124956, 6.54199678162621], [7.811425275755937, 6.550762077008301], [7.807198757117021, 6.552128321664782], [7.803511504352514, 6.545459249744624], [7.801700838123224, 6.546729454900458], [7.794297431081645, 6.552023649571822], [7.810116088586653, 6.563273742089564], [7.830715558276438, 6.586329768404141], [7.846200968400012, 6.598260794300245], [7.845239960056176, 6.602786515585251], [7.844027041714639, 6.608498573050781], [7.83676195130306, 6.614855766380572], [7.833582878447146, 6.619396687107496], [7.833582878447146, 6.6262083051692], [7.831766604944903, 6.638468741938937], [7.821776867308643, 6.638922690929519], [7.817716096420781, 6.637506170573374], [7.80225086168798, 6.632111550407785], [7.799255613855564, 6.632266480213957], [7.775990828813747, 6.6336756090422], [7.737992624260244, 6.644685233636665], [7.736201460728864, 6.644751195311471], [7.720029654744792, 6.646857043317937], [7.700919676402009, 6.64122535466646], [7.691221265149295, 6.638367245352129], [7.688214926877436, 6.629262079981061], [7.701669216361267, 6.6107692721842], [7.703923701617612, 6.607056141427847], [7.704382395431253, 6.578151454226258], [7.704551931126787, 6.578009192270429], [7.715835873227036, 6.568540525424964], [7.726122319689352, 6.560058200825381], [7.733774142862444, 6.528172457093262], [7.740042593790747, 6.501607402060017], [7.74183127339461, 6.494019999123736], [7.74637437407813, 6.461657618304514], [7.749121666231986, 6.447295665562592], [7.751392365365405, 6.385539055183301], [7.745212796233602, 6.370090481290731], [7.740666963409694, 6.35872615328941], [7.738677502065116, 6.353752612792903], [7.720968245688027, 6.331048011856296], [7.709595456864918, 6.30218974226284], [7.708026408791795, 6.29835319484414], [7.708068652646261, 6.29740293429802], [7.708934784312873, 6.277919292141689], [7.733001708861821, 6.226606369288561]]]]}}, {"type": "Feature", "properties": {"name": "Ohaozara", "state": "eb"}, "geometry": {"type": "Polygon", "coordinates": [[[7.669428349238956, 6.063587189197449], [7.663694217014552, 6.047228742412585], [7.665372387026082, 6.039094289969569], [7.667158126746187, 6.03043842319471], [7.675786018310134, 6.01000451959294], [7.684454372171615, 6.001335973276582], [7.697131463945937, 5.988667398081986], [7.711205005906322, 5.970952511049575], [7.714838027752819, 5.945977210979549], [7.707358747608168, 5.933398698391272], [7.715892499938946, 5.927084814612556], [7.71929649503727, 5.922280638041059], [7.727421000079119, 5.907747000223935], [7.733043998581707, 5.908769999735739], [7.737435999671675, 5.90938500021764], [7.74837099942215, 5.915189999918596], [7.751574969109583, 5.918371786928446], [7.755565969693805, 5.922681786934959], [7.760036969030921, 5.928135788435952], [7.757431044007546, 5.940552298949513], [7.760487154358714, 5.940383623905177], [7.76484724930117, 5.942970943754119], [7.768816580720681, 5.955007176839786], [7.777077770123014, 5.961641079871981], [7.777385936311987, 5.963503651372434], [7.777196779208055, 5.967534294971756], [7.777877787230125, 5.96924246456814], [7.779095730083952, 5.96961996219153], [7.782863661029182, 5.967802899983894], [7.784312701769807, 5.966674641121813], [7.784227369597488, 5.96276406960618], [7.784461537769801, 5.962069643699124], [7.785108520841618, 5.962115260910593], [7.788423367944119, 5.96530260303274], [7.790008893395736, 5.965342933129932], [7.804002977555399, 5.956281769787893], [7.800429741739265, 5.968963361769795], [7.802175607318475, 5.971131768416456], [7.803193420440039, 5.971392790345021], [7.804672241330934, 5.96890188681266], [7.805965629210448, 5.966654370402921], [7.807174087813962, 5.965718166260388], [7.812468903017532, 5.966855489389388], [7.812770175902926, 5.96783477375584], [7.805681838246301, 5.974334592367597], [7.805515784725742, 5.977490928563554], [7.806077914064531, 5.979115981017742], [7.806865060973848, 5.980547322201232], [7.814659186572271, 5.973507956227252], [7.815963637911636, 5.973492824234484], [7.817855984166385, 5.973660769029323], [7.818319887752693, 5.974556958736684], [7.815477572332156, 5.980398602213768], [7.82625374281605, 5.977206371377008], [7.829481047212596, 5.980238023765821], [7.830998857311442, 5.976419549122966], [7.844420694759322, 5.971251827909555], [7.845330776294361, 5.971124942562085], [7.847481191104123, 5.972736227295115], [7.848385070015013, 5.97241708308195], [7.857778158735073, 5.961071123733404], [7.860002208235358, 5.961964923942162], [7.862421253238267, 5.9631446564008], [7.86352032820065, 5.963836101954598], [7.868697986922598, 5.971692296062656], [7.872472818365907, 5.96582416125608], [7.874665260293568, 5.967383589281269], [7.874896306019764, 5.969066165970844], [7.873897126850977, 5.973528003914282], [7.874924354975064, 5.97546201486017], [7.87710075839334, 5.977001884429455], [7.880385286651688, 5.976376170324045], [7.883198162765041, 5.976754327150502], [7.884582163635969, 5.976175584635598], [7.885212277224866, 5.974054004788513], [7.885519768922222, 5.972454952633996], [7.886601489667044, 5.971002242659438], [7.889840252325826, 5.972779836320456], [7.89055994198776, 5.975998239227408], [7.890835388142705, 5.979475938263988], [7.901392540433449, 5.975247540941325], [7.902341301809656, 5.969759838245977], [7.905175422607726, 5.970082554566261], [7.913033999919207, 5.969315000287054], [7.914056999431011, 5.975519000401619], [7.907714999247844, 5.982771000281502], [7.90132799968751, 5.987256000264267], [7.894874480872659, 5.998638555724824], [7.868845471241571, 6.017895303425576], [7.873496256746876, 6.021383409416842], [7.862760779686255, 6.046644880956535], [7.85994920938856, 6.061839792972137], [7.844997411101701, 6.06911373810857], [7.835655052238906, 6.07799888793835], [7.827372085753211, 6.072858184157894], [7.818476464217497, 6.053060164195244], [7.818863431702084, 6.047919648373124], [7.816314593843458, 6.047069292613799], [7.815695448386293, 6.046862730930343], [7.809502678106185, 6.052229944256567], [7.814109340173957, 6.058175823655404], [7.811301915750846, 6.063490377179221], [7.787078160228987, 6.067324925405046], [7.780012126658391, 6.06259385382333], [7.773516078004661, 6.063912563913732], [7.773451899685483, 6.075825657328267], [7.766580720423974, 6.084943468066626], [7.750926884368255, 6.084839733966589], [7.744527461573114, 6.0920071589033], [7.733891999915897, 6.103918999562211], [7.726202385431804, 6.11489963540987], [7.713829533406283, 6.083912410629296], [7.705869562030728, 6.078811233851411], [7.698079909660123, 6.073960314117244], [7.686230183376324, 6.071306705240318], [7.682117704168775, 6.06941724760793], [7.669428349238956, 6.063587189197449]]]}}, {"type": "Feature", "properties": {"name": "Ezza North", "state": "eb"}, "geometry": {"type": "Polygon", "coordinates": [[[8.085567097143894, 6.324000637419545], [8.034541367390261, 6.373240274918828], [8.02590826065773, 6.362049197712338], [8.010673531158602, 6.350122923833908], [7.997339133893945, 6.34620165488252], [7.956809770354653, 6.349588725639251], [7.929337116814565, 6.34550019897506], [7.910506008345635, 6.348674802200435], [7.910360206658254, 6.347626298814703], [7.910208249111463, 6.34585683772292], [7.909354072132771, 6.337651603238953], [7.902487002773, 6.331394122241022], [7.888327723945338, 6.321753888131468], [7.882746718386386, 6.317384504091649], [7.88352638923152, 6.309231058866317], [7.8882247560677, 6.286829453016878], [7.89375024827541, 6.287064730053316], [7.898200513742779, 6.285603784087414], [7.902967652635084, 6.282482727395973], [7.900121606826758, 6.278002527994317], [7.89562606409163, 6.270606992718569], [7.893371114785168, 6.267365276686235], [7.884981512986485, 6.262175326929821], [7.879819167920289, 6.258171244807158], [7.879276256194316, 6.25120484262942], [7.867749854172473, 6.252938693266117], [7.868248666742602, 6.251753989355166], [7.868622059860229, 6.251017939226585], [7.851825690902956, 6.242120538831841], [7.851767958924199, 6.241333899140159], [7.851160386842423, 6.235428302174455], [7.851184825019686, 6.231492478595044], [7.860288240310069, 6.228694382839535], [7.863176064124104, 6.232819478636088], [7.867706878269871, 6.227783258990257], [7.869607450623391, 6.23330324734701], [7.877948889229913, 6.225962809036446], [7.877826918677385, 6.225093745579954], [7.875878265869346, 6.220753084986939], [7.872941177193638, 6.216209588601657], [7.877338913260303, 6.214736971234288], [7.873463157199012, 6.210377993249836], [7.878368883417295, 6.203399136361099], [7.87843487387039, 6.20206891584786], [7.876678833361495, 6.199295725917068], [7.878077646965892, 6.197653866033136], [7.879290308101304, 6.197540482207557], [7.886400013649734, 6.201767134845454], [7.885919123668657, 6.199747437394365], [7.882186549569667, 6.196465694336382], [7.880753774866889, 6.19567149584293], [7.878516406407073, 6.180364582259699], [7.887382201027776, 6.184073370189935], [7.888208888429517, 6.193577087212873], [7.894853826143219, 6.189666855640951], [7.898694532926413, 6.193837312342112], [7.897153936704854, 6.185152842629634], [7.906128337952509, 6.183359090849422], [7.92238222955632, 6.153561528841522], [7.946331379789399, 6.158067312156788], [7.959218813097777, 6.152546428075254], [7.96715921162837, 6.161266187184822], [7.97253665204488, 6.16433015940936], [7.981759573745364, 6.16821157220636], [7.983028892169671, 6.16884964569465], [7.983625064445221, 6.173933178673281], [7.984146933833983, 6.176087377830299], [7.97830420667384, 6.181181246717188], [7.996047784777488, 6.197364543339063], [8.000907543948017, 6.198360138709461], [8.004851650283456, 6.194006310243083], [8.027611496573343, 6.196588646049236], [8.028049060815533, 6.199488241089512], [8.028391960620525, 6.201842578971878], [8.02847876138577, 6.202887142427755], [8.03331156967323, 6.203533923152065], [8.033201211167011, 6.204151278059101], [8.037420698006883, 6.219022614901803], [8.06384270058021, 6.235151474660881], [8.063790512921855, 6.238497778249894], [8.063532328354313, 6.242053991698413], [8.062599347382047, 6.243769758767428], [8.067281112733212, 6.25570263636763], [8.08285448015016, 6.265898228820276], [8.075208886580924, 6.275825647935335], [8.071027100220533, 6.304684402263376], [8.075384522377874, 6.320894222590368], [8.085567097143894, 6.324000637419545]]]}}, {"type": "Feature", "properties": {"name": "Ohaukwu", "state": "eb"}, "geometry": {"type": "Polygon", "coordinates": [[[7.919949131747103, 6.348033188980537], [7.929337116814565, 6.34550019897506], [7.956809770354653, 6.349588725639251], [7.997339133893945, 6.34620165488252], [8.010673531158602, 6.350122923833908], [8.02590826065773, 6.362049197712338], [8.03368351578166, 6.370027878583755], [8.044297559185054, 6.409685774778723], [8.047291465228966, 6.413310665854567], [8.049859812080683, 6.419150478311963], [8.053749999562854, 6.425463999663918], [8.058786915283974, 6.45141324482546], [8.086236932888198, 6.48136529687099], [8.086135430006152, 6.486492362432614], [8.101351250359983, 6.492822650744756], [8.092744384945433, 6.501612228721399], [8.096101480399057, 6.503550148120894], [8.095169211689836, 6.506936812384026], [8.096556794560456, 6.506339979106826], [8.09740411330921, 6.506381810172456], [8.097872809382693, 6.506673979220807], [8.093409659328358, 6.515795032914468], [8.100069625612775, 6.557440446119756], [8.098236277582203, 6.563507821228995], [8.096596852163032, 6.582258750640904], [8.095245770076303, 6.595224175855094], [8.096827183827543, 6.601592277061968], [8.109723014105839, 6.61006242304245], [8.104307062920668, 6.622085096150329], [8.075722999317009, 6.68569499972449], [8.069109000080346, 6.699271999902919], [8.062454230978005, 6.720163731271214], [8.046267639240227, 6.727270385420013], [8.031993555658119, 6.732458244252598], [8.019998760634337, 6.733300205739965], [8.009328243403786, 6.725019057683426], [7.987260177215433, 6.721696584329948], [7.984430910957826, 6.720462039991219], [7.975701576766426, 6.712410001420494], [7.974455105618688, 6.711260243365587], [7.974600013379984, 6.690289160316524], [7.978831892877622, 6.667121526337439], [7.978288213130554, 6.647921513267249], [7.987066268993146, 6.633473873120806], [7.988428592605487, 6.618034840135806], [7.987066268993146, 6.611223221174782], [7.973248238815245, 6.596771270577733], [7.959155246317607, 6.590753583011519], [7.955248691174233, 6.583411748053777], [7.954156038270582, 6.561854246776136], [7.954186256390642, 6.551826136866794], [7.950778277295683, 6.543111689153193], [7.944760342415918, 6.540019822656745], [7.932869856158959, 6.541549110802862], [7.899586254801875, 6.555954884810149], [7.888164129171287, 6.558842580021121], [7.878084183238514, 6.561727046665908], [7.869002341784721, 6.568992614617514], [7.867057136078017, 6.570736588023181], [7.85583353039317, 6.580799103296044], [7.846200968400012, 6.598260794300245], [7.830715558276438, 6.586329768404141], [7.810116088586653, 6.563273742089564], [7.794297431081645, 6.552023649571822], [7.801700838123224, 6.546729454900458], [7.803511504352514, 6.545459249744624], [7.807198757117021, 6.552128321664782], [7.811425275755937, 6.550762077008301], [7.818224680124956, 6.54199678162621], [7.805463175285354, 6.519153671604727], [7.804870567922421, 6.516802566785088], [7.804393789641722, 6.514786258878814], [7.804187385339617, 6.513705120894656], [7.805978997632678, 6.513159682973026], [7.807093293620653, 6.511924350828167], [7.808415948137565, 6.511323404051893], [7.807140399210084, 6.484157822225768], [7.803070942669933, 6.485016702658754], [7.798461895600042, 6.472968735219013], [7.803523619119801, 6.469500342366928], [7.805617544813913, 6.472926766557066], [7.854877980034814, 6.440016712101624], [7.856724314275709, 6.440182174767585], [7.857135109297928, 6.442562147824901], [7.858327803685256, 6.443529839030873], [7.868176433195856, 6.444117465948352], [7.868745422563222, 6.450744399234679], [7.868771609921907, 6.453640862835584], [7.878960702074778, 6.453405780952096], [7.881695597074213, 6.453211171258602], [7.885721104645313, 6.451989005188466], [7.887445783096439, 6.448330195282324], [7.888706196433873, 6.446171538185979], [7.899778972321769, 6.453194043670237], [7.900644773037868, 6.451703082831045], [7.905988016733659, 6.44667518820944], [7.907400903828716, 6.44758644066178], [7.90783100099992, 6.4480772951311], [7.90950267610765, 6.44863905664721], [7.923024806849412, 6.434407689962995], [7.925523999433096, 6.427636000001428], [7.926061999961405, 6.418180000106986], [7.926831998597891, 6.408718999981886], [7.919949131747103, 6.348033188980537]], [[7.865128804350888, 6.557200388287356], [7.870607401410496, 6.552484154620061], [7.86892635536708, 6.544091912411886], [7.884123261179582, 6.527767686629488], [7.899342193187692, 6.526357064027309], [7.919248992447081, 6.511483351175741], [7.925481767269787, 6.512055723792685], [7.945630229651442, 6.481245693334131], [7.928586852001672, 6.479172739830119], [7.902800229447053, 6.492476865914682], [7.905825397723959, 6.496055777352296], [7.905336529857038, 6.496321995563676], [7.903088486444517, 6.49780185966813], [7.898189562698235, 6.502148567302584], [7.890422880811343, 6.50328394609727], [7.880524331732545, 6.498696441387722], [7.876050461759462, 6.499693134830352], [7.871697854572403, 6.494656190330943], [7.869375486689421, 6.496797135279621], [7.862205272055689, 6.489107882322969], [7.854371388328957, 6.489246460655693], [7.852882603849139, 6.512484262438818], [7.853346308685218, 6.513647665907115], [7.853944910029611, 6.513855814893986], [7.855816354241426, 6.513608570579095], [7.856567696442085, 6.516362150792645], [7.856364114212568, 6.518184536087517], [7.857985397608047, 6.522865781630571], [7.852983062618307, 6.525891952651534], [7.854036017648127, 6.530019428953551], [7.853240443191964, 6.530292403771455], [7.849777979570149, 6.529294877556595], [7.849214980586908, 6.529779613038784], [7.849274444659954, 6.531437365741908], [7.848657077162443, 6.532278292109538], [7.839621838577045, 6.529657659573388], [7.836367533834675, 6.537715050908901], [7.839781675983602, 6.547025197854623], [7.842294742408512, 6.547709088203931], [7.84468747684565, 6.548491495686051], [7.8483569149397, 6.55004932471661], [7.85060954579393, 6.554846088176475], [7.865128804350888, 6.557200388287356]]]}}, {"type": "Feature", "properties": {"name": "Ebonyi", "state": "eb"}, "geometry": {"type": "Polygon", "coordinates": [[[8.13681256274964, 6.357062415598023], [8.137105024077641, 6.362984562787403], [8.14156660931161, 6.362563541574218], [8.139891350405549, 6.359780004044012], [8.141564587635685, 6.359980406270779], [8.142754280985343, 6.360932514923661], [8.14087960730808, 6.366780450057774], [8.135110037298432, 6.370874256641684], [8.136327889320683, 6.37477108291921], [8.140715007991275, 6.372976623372494], [8.138639682075734, 6.384007569094081], [8.139661739997337, 6.384700975169892], [8.142329675973826, 6.384798360955642], [8.142956772337243, 6.384604797173722], [8.14784731530142, 6.377942211164168], [8.149374907326148, 6.377701879038511], [8.15092824064584, 6.378121034158426], [8.152198390043736, 6.379931707582273], [8.147963903411437, 6.388073046134195], [8.153750812350154, 6.396779050113139], [8.151686967179842, 6.398542227641713], [8.154717984647334, 6.399339205939668], [8.146098893848944, 6.397586464144069], [8.146052010391998, 6.400979794182206], [8.146744983893939, 6.404818341693158], [8.147564218613866, 6.405151224849192], [8.15133310733711, 6.404972045723355], [8.15006981706847, 6.413399579127315], [8.154585912909624, 6.415189882906816], [8.149614520893465, 6.417408814365331], [8.149708205069658, 6.417629752611049], [8.150604643889267, 6.418396896799379], [8.150819968566736, 6.420245642122723], [8.14563400730367, 6.422108675874767], [8.147306017858511, 6.423712673401212], [8.139378699067777, 6.423768594145372], [8.139725402105682, 6.430566375238072], [8.136322248772785, 6.431314075184446], [8.135895006049736, 6.435554160096444], [8.13303570423443, 6.435095200083481], [8.132178143106842, 6.435004929733793], [8.130875214319758, 6.441372483253531], [8.134311550837424, 6.445072170944002], [8.149050074901083, 6.444205157042404], [8.148186007178538, 6.458032593229632], [8.143942794424447, 6.460689767019176], [8.144351761124938, 6.47149020211117], [8.14020843427187, 6.477538690558163], [8.153194299277516, 6.482601671330144], [8.161413367133207, 6.495979209972631], [8.167826443435672, 6.500548421572432], [8.169778779866874, 6.508532467799171], [8.162745629107519, 6.518817019389985], [8.163031410271401, 6.520694773245225], [8.163391322551547, 6.523598536643192], [8.161091945836688, 6.523887219019969], [8.158488981381424, 6.524028006087633], [8.159510139081704, 6.53389659155448], [8.155225135731484, 6.542509162268061], [8.155594248975433, 6.549368426411775], [8.144930616055149, 6.550559973264228], [8.1482130587857, 6.558938357818988], [8.1515141993209, 6.559265943068851], [8.154143835869377, 6.558613375207131], [8.155834823018722, 6.564283437930385], [8.15698985469811, 6.567895983113203], [8.152474002573229, 6.577355385142937], [8.154069809973805, 6.586328486870229], [8.159333210958948, 6.586751089990855], [8.158959270154241, 6.592377707365358], [8.163893977025452, 6.595700250865946], [8.15141902316941, 6.601282907580185], [8.151420807424358, 6.616756542880182], [8.14744350621288, 6.619575116198689], [8.145475131272349, 6.621309801406255], [8.15075400689193, 6.638585313861199], [8.153256955943789, 6.641984242179092], [8.161767411336996, 6.646884194749816], [8.18082260567877, 6.654591799272168], [8.191923301918905, 6.663589259137041], [8.192256947700002, 6.727923759973578], [8.173017502056098, 6.77333450328473], [8.16529750757394, 6.766522884323706], [8.160303116295836, 6.761074065615674], [8.152583121813677, 6.754716395645175], [8.149063109674842, 6.74708890902599], [8.147133827364314, 6.742909907866022], [8.145318031402098, 6.734736442832627], [8.144409180139576, 6.725200653287573], [8.136236190847569, 6.71611881363242], [8.127608299283622, 6.711577892006176], [8.112169266298622, 6.70930719377202], [8.103995322825938, 6.712031840996701], [8.098546028376575, 6.707036972178571], [8.062454230978005, 6.720163731271214], [8.069109000080346, 6.699271999902919], [8.075722999317009, 6.68569499972449], [8.104307062920668, 6.622085096150329], [8.109723014105839, 6.61006242304245], [8.096827183827543, 6.601592277061968], [8.095245770076303, 6.595224175855094], [8.096596852163032, 6.582258750640904], [8.098236277582203, 6.563507821228995], [8.100069625612775, 6.557440446119756], [8.093409659328358, 6.515795032914468], [8.097872809382693, 6.506673979220807], [8.09740411330921, 6.506381810172456], [8.096556794560456, 6.506339979106826], [8.095169211689836, 6.506936812384026], [8.096101480399057, 6.503550148120894], [8.092744384945433, 6.501612228721399], [8.098264332832741, 6.493925658442436], [8.101616644792387, 6.493743117650808], [8.090403921803613, 6.486132549077922], [8.086135430006152, 6.486492362432614], [8.086236932888198, 6.48136529687099], [8.058786915283974, 6.45141324482546], [8.053749999562854, 6.425463999663918], [8.049859812080683, 6.419150478311963], [8.047291465228966, 6.413310665854567], [8.044297559185054, 6.409685774778723], [8.034541367390261, 6.373240274918828], [8.102299734745031, 6.309614099910846], [8.113855620140782, 6.320591767096403], [8.110845546085159, 6.324779069898227], [8.116463530867293, 6.325390689828509], [8.117268113832438, 6.325472023615021], [8.117423603916222, 6.325502487250048], [8.115901009424078, 6.333510155069632], [8.124233549238966, 6.337057313244486], [8.13681256274964, 6.357062415598023]]]}}, {"type": "Feature", "properties": {"name": "Afikpo South", "state": "eb"}, "geometry": {"type": "Polygon", "coordinates": [[[7.853091371569576, 5.967550635653367], [7.848385070015013, 5.97241708308195], [7.847481191104123, 5.972736227295115], [7.845330776294361, 5.971124942562085], [7.844420694759322, 5.971251827909555], [7.830998857311442, 5.976419549122966], [7.829481047212596, 5.980238023765821], [7.82625374281605, 5.977206371377008], [7.815477572332156, 5.980398602213768], [7.818319887752693, 5.974556958736684], [7.817855984166385, 5.973660769029323], [7.815963637911636, 5.973492824234484], [7.814659186572271, 5.973507956227252], [7.806865060973848, 5.980547322201232], [7.806077914064531, 5.979115981017742], [7.805515784725742, 5.977490928563554], [7.805681838246301, 5.974334592367597], [7.812770175902926, 5.96783477375584], [7.812468903017532, 5.966855489389388], [7.807174087813962, 5.965718166260388], [7.802175607318475, 5.971131768416456], [7.803137048236238, 5.956123875816274], [7.791736021600173, 5.964798590582518], [7.784461537769801, 5.962069643699124], [7.784227369597488, 5.96276406960618], [7.784312701769807, 5.966674641121813], [7.782863661029182, 5.967802899983894], [7.779095730083952, 5.96961996219153], [7.777877787230125, 5.96924246456814], [7.777196779208055, 5.967534294971756], [7.777385936311987, 5.963503651372434], [7.777077770123014, 5.961641079871981], [7.768816580720681, 5.955007176839786], [7.76484724930117, 5.942970943754119], [7.760487154358714, 5.940383623905177], [7.757431044007546, 5.940552298949513], [7.760036969030921, 5.928135788435952], [7.755565969693805, 5.922681786934959], [7.751574969109583, 5.918371786928446], [7.74837099942215, 5.915189999918596], [7.737435999671675, 5.90938500021764], [7.733043998581707, 5.908769999735739], [7.727421000079119, 5.907747000223935], [7.713903999969659, 5.880749999912609], [7.713307512032088, 5.878647084595343], [7.708765999551304, 5.862636000051396], [7.687262999887594, 5.845256999910646], [7.685082000034299, 5.838844000050585], [7.683592999717234, 5.832417000444252], [7.68395519267807, 5.822346209609918], [7.769443999940677, 5.81372738411153], [7.780373095641892, 5.806818962125476], [7.786321639731909, 5.804915428304412], [7.79298400900484, 5.79159069065787], [7.793112737962531, 5.789659689742962], [7.793935775915372, 5.777313708560825], [7.796791076646912, 5.761609076997331], [7.801998895033023, 5.749458312551155], [7.803929806015788, 5.744953156063332], [7.808084912188974, 5.743934282641078], [7.823441049265057, 5.74016880774434], [7.830545709616842, 5.735343500702072], [7.835488433044816, 5.729311144293945], [7.84079875525839, 5.724126516725391], [7.853772849037796, 5.717927048294712], [7.863103239722761, 5.708303740325391], [7.869914387439053, 5.699878924672703], [7.870554446630479, 5.693556786016927], [7.886259079093293, 5.687846183654528], [7.890100001713733, 5.684799670868188], [7.890107154921338, 5.69202184743034], [7.887803078349407, 5.696609020290111], [7.886644839687676, 5.700051785161804], [7.9082450866415, 5.719692231311456], [7.916170380158974, 5.748143074743155], [7.914362575572454, 5.748493059407224], [7.912503851371696, 5.749057730230106], [7.909497153370978, 5.750368270879051], [7.91124822242756, 5.754582707126303], [7.889973210795063, 5.769572152832609], [7.888624905814822, 5.776128254615287], [7.887168551787283, 5.78320974033727], [7.884298641569103, 5.797164607760465], [7.886478817643365, 5.803224424067992], [7.888607322270161, 5.807604162901839], [7.884971446874829, 5.814021967839608], [7.885225876772836, 5.838365993296009], [7.890548367713052, 5.850144341288342], [7.888103772071474, 5.854364249010928], [7.887052083287074, 5.857294727669569], [7.885716295970326, 5.863256474706589], [7.887279405819982, 5.869015893168978], [7.869428999948411, 5.87694170379666], [7.863289531586645, 5.885681786685154], [7.851901107150411, 5.907672218897858], [7.855848689365587, 5.927148222212736], [7.851262199990572, 5.932650825775056], [7.847400350146074, 5.936242834938923], [7.838179475302582, 5.944810721037982], [7.837654575198542, 5.948893474054614], [7.849948821081284, 5.965090779415959], [7.853091371569576, 5.967550635653367]]]}}, {"type": "Feature", "properties": {"name": "Ikwo", "state": "eb"}, "geometry": {"type": "Polygon", "coordinates": [[[8.126497099661492, 6.183403045214391], [8.1139278725733, 6.168300410835343], [8.11650957885405, 6.165003461140884], [8.117586722948943, 6.163675773118484], [8.117912180402868, 6.162995212958776], [8.113378701565864, 6.161732443397568], [8.116990487720898, 6.147541322274265], [8.114492715166705, 6.142780646809456], [8.112795778102736, 6.138587596440459], [8.103827743155875, 6.134900164710871], [8.09937399821149, 6.128190849927819], [8.089328835357492, 6.12429120877232], [8.08600156412092, 6.120103752186481], [8.084710736611271, 6.11840168179225], [8.07943330530287, 6.114891197071131], [8.094059355654792, 6.096171111707463], [8.079680681818047, 6.09529571522512], [8.078529186272988, 6.093976849552007], [8.07586712736611, 6.081840827692076], [8.075526805018058, 6.081423744610163], [8.063233999849274, 6.070688999597678], [8.063222913906372, 6.070415753184534], [8.062850999274247, 6.06124900044108], [8.044975535592528, 6.047572569418605], [8.018648999651646, 6.038263999883725], [8.0065046167947, 6.022467722907152], [8.004772544117657, 6.004377645012369], [8.013627774402323, 5.993670446234148], [8.021381041102188, 5.996590149216047], [8.023943901190137, 5.99753713622988], [8.04101881806406, 5.998460275021728], [8.046126190271536, 5.996459297858337], [8.04920857521563, 5.994504607002057], [8.050796266234727, 5.992356134727856], [8.052027951628702, 5.990253412764844], [8.052810485015925, 5.986099232893309], [8.047376493430477, 5.95568801129275], [8.049631743110524, 5.952141292886381], [8.050390608140106, 5.950947864652278], [8.064738944246926, 5.943804070301667], [8.100927067130499, 5.960931769285764], [8.10580253565854, 5.95908498808177], [8.113847733086459, 5.93814992917595], [8.153177260722032, 5.967300414582496], [8.167653245700762, 5.969493515713225], [8.167712212448691, 5.969502448679123], [8.214842795858374, 6.012228012412891], [8.222770691114533, 6.01443004561014], [8.225880095290222, 6.013698432736533], [8.230258941996624, 6.012668133427667], [8.238186836353464, 6.014870644164944], [8.244793891924644, 6.017953872673161], [8.249198914298518, 6.015751361935827], [8.252722739562842, 6.012228012412891], [8.25404357924782, 6.005180360085603], [8.258448600722375, 5.998132705959677], [8.26373386422648, 5.99681138963399], [8.274305343616788, 5.999013901270587], [8.282233237973628, 6.00473976063148], [8.285377036720945, 6.013227475767451], [8.286638260347502, 6.016632557246794], [8.287519454759092, 6.028965473078188], [8.288840294444071, 6.045703411283455], [8.291483878578163, 6.055393696262115], [8.298229218403776, 6.067536830860092], [8.302002906808752, 6.108136176943049], [8.305801964189357, 6.110421578193325], [8.309472083969524, 6.112629414715741], [8.314921379318264, 6.116261959022268], [8.316256936408536, 6.120045880812825], [8.317646027442265, 6.123981475964399], [8.32082462275821, 6.128976822322556], [8.33126926356573, 6.135334014753028], [8.339442252857737, 6.153043746871447], [8.363509178306003, 6.178018570300821], [8.371229171888842, 6.196636677041056], [8.400745391786472, 6.216616630752981], [8.388341513150351, 6.224928140821078], [8.371925366762298, 6.22928626444957], [8.340159412726791, 6.261737908377825], [8.32458186256298, 6.256277373302169], [8.313161785587965, 6.231158062994268], [8.317151999265377, 6.209248999641659], [8.312126999561428, 6.212328000436912], [8.306880000411752, 6.215874000284941], [8.301601999832485, 6.21757699967884], [8.285334999710528, 6.210248999891462], [8.261492999202574, 6.191066000195804], [8.256657099045924, 6.190323306775213], [8.24391899996192, 6.188366999837228], [8.235633999209767, 6.189660000108972], [8.224044999876867, 6.186170000145466], [8.219981252233026, 6.182404411934101], [8.219941798075581, 6.182367852694313], [8.188290482419859, 6.214777185318894], [8.182366211931196, 6.210854495438639], [8.171372061071793, 6.209157084431922], [8.160080711255887, 6.201059719130797], [8.147053526898787, 6.194468325253069], [8.147045665025473, 6.192113828190656], [8.139684000915963, 6.192322517670107], [8.128444892717653, 6.181251169006316], [8.126497099661492, 6.183403045214391]]]}}, {"type": "Feature", "properties": {"name": "Onicha", "state": "eb"}, "geometry": {"type": "Polygon", "coordinates": [[[7.726202385431804, 6.11489963540987], [7.733891999915897, 6.103918999562211], [7.744527461573114, 6.0920071589033], [7.750926884368255, 6.084839733966589], [7.766580720423974, 6.084943468066626], [7.773451899685483, 6.075825657328267], [7.773516078004661, 6.063912563913732], [7.780012126658391, 6.06259385382333], [7.787078160228987, 6.067324925405046], [7.811301915750846, 6.063490377179221], [7.814109340173957, 6.058175823655404], [7.809502678106185, 6.052229944256567], [7.815695448386293, 6.046862730930343], [7.816314593843458, 6.047069292613799], [7.818863431702084, 6.047919648373124], [7.818476464217497, 6.053060164195244], [7.827372085753211, 6.072858184157894], [7.835655052238906, 6.07799888793835], [7.844997411101701, 6.06911373810857], [7.85994920938856, 6.061839792972137], [7.862760779686255, 6.046644880956535], [7.873496256746876, 6.021383409416842], [7.868845471241571, 6.017895303425576], [7.894874480872659, 5.998638555724824], [7.90132799968751, 5.987256000264267], [7.907714999247844, 5.982771000281502], [7.914056999431011, 5.975519000401619], [7.918159525841475, 5.977492079695764], [7.919803736553263, 5.979702760773819], [7.921259861253645, 5.981738906825115], [7.927219125262468, 5.98083747227156], [7.92819518196211, 5.976778205949472], [7.930346030245175, 5.973095565807739], [7.933373435135991, 5.973854134960391], [7.936766093380527, 5.97492224176807], [7.942193897630318, 5.976113464864568], [7.958879067215207, 5.992684213705559], [7.963055767909395, 5.988101193015666], [7.991105520903091, 5.997906813348777], [7.991826539763053, 5.996491390165545], [7.9925507134447, 5.994654086017306], [7.993039130751356, 5.983972072752977], [8.00105094894218, 5.987360953844984], [8.009070396081938, 5.991899013828458], [8.013627774402323, 5.993670446234148], [8.004772544117657, 6.004377645012369], [8.012038502375049, 6.064219713868738], [7.970721412763055, 6.04817475635997], [7.955179143003079, 6.046403019084096], [7.95400556910181, 6.051494691826633], [7.952175526079714, 6.054898058298818], [7.951784429807617, 6.056803083195803], [7.952531152190943, 6.057555013553099], [7.954489264068343, 6.058266109293584], [7.95498672495745, 6.059593146206794], [7.954295610354166, 6.069089869202173], [7.951638530094158, 6.071957773932183], [7.949496850399385, 6.078154851964882], [7.947798932175033, 6.079481715308987], [7.935187490910039, 6.081856938147212], [7.935432251297414, 6.083849324986431], [7.937350828078308, 6.086104545888134], [7.936565605718158, 6.086461465224488], [7.917006435798442, 6.090744494562841], [7.896082147173388, 6.090236007985425], [7.894928159606934, 6.099034839985904], [7.90215887073532, 6.100266580238554], [7.902914192436072, 6.100369022912105], [7.902671472610393, 6.101856677843443], [7.902273293277915, 6.104306185582061], [7.901384410562173, 6.109774373888285], [7.892993815012574, 6.110231236682296], [7.884749387174509, 6.117290098159572], [7.892737918320336, 6.123257490241031], [7.892069082622129, 6.126865331969555], [7.894087106434881, 6.127276401284917], [7.895869038425417, 6.127508543284705], [7.893124408264896, 6.139024565331454], [7.897709980331399, 6.156182579562426], [7.896355026663173, 6.155905934611269], [7.88822910878639, 6.153915707943611], [7.886308862863757, 6.167872663592618], [7.885764886340496, 6.168804231729951], [7.88388365480688, 6.167902929376737], [7.878516406407073, 6.180364582259699], [7.878205464010989, 6.181013215587484], [7.880753774866889, 6.19567149584293], [7.882186549569667, 6.196465694336382], [7.885919123668657, 6.199747437394365], [7.886400013649734, 6.201767134845454], [7.879290308101304, 6.197540482207557], [7.878077646965892, 6.197653866033136], [7.876678833361495, 6.199295725917068], [7.87843487387039, 6.20206891584786], [7.878368883417295, 6.203399136361099], [7.873463157199012, 6.210377993249836], [7.877338913260303, 6.214736971234288], [7.872941177193638, 6.216209588601657], [7.875878265869346, 6.220753084986939], [7.877826918677385, 6.225093745579954], [7.877948889229913, 6.225962809036446], [7.869607450623391, 6.23330324734701], [7.867706878269871, 6.227783258990257], [7.863176064124104, 6.232819478636088], [7.860288240310069, 6.228694382839535], [7.853710221149811, 6.232481606041347], [7.849571654408351, 6.230672067561898], [7.844159215075763, 6.233779397900946], [7.841684548802959, 6.234104692577546], [7.839962743685703, 6.233856373572848], [7.835345632395047, 6.231512878816375], [7.834148502551386, 6.231779629426399], [7.832373694090734, 6.233584104722695], [7.817838269320703, 6.222884144587624], [7.810600494916969, 6.211996289097499], [7.811642480016474, 6.209964047003211], [7.811284672149952, 6.20837132157925], [7.810317366753111, 6.20082303555472], [7.801556388116865, 6.199458600334196], [7.79791303036211, 6.20135816994366], [7.791690937686667, 6.199176912884298], [7.790683158301135, 6.20284198926646], [7.789614689966015, 6.20637209], [7.789069360862356, 6.20993908811846], [7.788278905347227, 6.217043845597061], [7.793062928111681, 6.219019775742083], [7.792479688087212, 6.225471482423018], [7.793538378093729, 6.225511108351043], [7.796150995871812, 6.225616865026325], [7.79642540510838, 6.232376354785004], [7.788583998552724, 6.233409999571847], [7.780632192122027, 6.234966134279716], [7.775707000078057, 6.235930999815821], [7.755611999694054, 6.234428999798524], [7.741006855881722, 6.231558655207834], [7.733001708861821, 6.226606369288561], [7.728725259862927, 6.199857766222976], [7.726202385431804, 6.11489963540987]]]}}, {"type": "Feature", "properties": {"name": "Ivo", "state": "eb"}, "geometry": {"type": "Polygon", "coordinates": [[[7.53016705696416, 6.005994174591535], [7.520816639276518, 6.000288162368861], [7.523626197790861, 5.987691764963017], [7.527294931715801, 5.979359051579024], [7.53049575917197, 5.972089088640587], [7.529133840254588, 5.951950052053292], [7.517171020626165, 5.931425085799106], [7.513162188284412, 5.924385339411913], [7.506054256199036, 5.91190339062905], [7.503497155369473, 5.900165637134478], [7.5051529619397, 5.882827331316321], [7.527328999833514, 5.869013000049961], [7.525859000392586, 5.856202000122266], [7.526593000066953, 5.844423000121424], [7.534576807973338, 5.834697727917842], [7.551944732963079, 5.843462944159569], [7.56244747986733, 5.843801732264183], [7.566697597616098, 5.843938827614863], [7.617618084207265, 5.827282429140837], [7.68395519267807, 5.822346209609918], [7.683592999717234, 5.832417000444252], [7.685082000034299, 5.838844000050585], [7.687262999887594, 5.845256999910646], [7.708765999551304, 5.862636000051396], [7.713307512032088, 5.878647084595343], [7.713903999969659, 5.880749999912609], [7.727421000079119, 5.907747000223935], [7.71929649503727, 5.922280638041059], [7.715892499938946, 5.927084814612556], [7.707358747608168, 5.933398698391272], [7.704847812576531, 5.929175854382208], [7.691889286061723, 5.924640179400797], [7.678964615424718, 5.928721906291003], [7.664433478622186, 5.930084229004024], [7.589054107860818, 5.961416244863869], [7.573160648345265, 5.969135760906681], [7.559083938972663, 5.985483170312136], [7.549334227692498, 5.992398728418607], [7.533302919194398, 6.003769879576339], [7.53016705696416, 6.005994174591535]]]}}, {"type": "Feature", "properties": {"name": "Izzi", "state": "eb"}, "geometry": {"type": "Polygon", "coordinates": [[[8.391663551231943, 6.306527138316824], [8.399155617038161, 6.353752612792903], [8.403697014405736, 6.366013049562639], [8.414199119194052, 6.369638109711047], [8.423238466781868, 6.371173983592541], [8.43094253516989, 6.380998135355696], [8.445018767901843, 6.385539055183301], [8.441581311728214, 6.403104027928578], [8.442654721837982, 6.404684455123572], [8.447952556065673, 6.404424061821032], [8.45364666036511, 6.405973433627082], [8.456825255681053, 6.428223609831775], [8.43230438214158, 6.433218956189933], [8.431850433150998, 6.439576148620404], [8.435482979256165, 6.443663120356746], [8.438661574572052, 6.44684171657201], [8.431208515960293, 6.456778694581146], [8.430487632898007, 6.457739829729405], [8.423676490577634, 6.466367722192672], [8.422768592596526, 6.47771978434065], [8.410478592413142, 6.47771978434065], [8.408691405683896, 6.47771978434065], [8.406248272339951, 6.484234664798009], [8.405966759358535, 6.484985353191519], [8.412323951789006, 6.500424385277199], [8.42049789436237, 6.505419730736037], [8.420043945371845, 6.510414599554167], [8.419136047390737, 6.514501573089149], [8.415503502184947, 6.518588066386201], [8.410054206836207, 6.517226219414567], [8.395977019923578, 6.519496441008016], [8.39098167356542, 6.523128986213806], [8.39098167356542, 6.52630805996904], [8.393706321689422, 6.53130292878717], [8.399155617038161, 6.532210826768278], [8.399553846732715, 6.534003487670873], [8.40006351501927, 6.5362977976053], [8.39643096891416, 6.539476395619204], [8.393252372698896, 6.544471741078041], [8.39143657673668, 6.550374985417307], [8.386895180268425, 6.549920558886754], [8.37963008895747, 6.548558235274413], [8.375088691589895, 6.545834063791062], [8.371456146384105, 6.548104286283831], [8.372364044365213, 6.553099155101961], [8.372817993355739, 6.559002399441226], [8.374180793608787, 6.563543320168151], [8.358741759724467, 6.563997745799384], [8.351929665022055, 6.574441909966197], [8.346935271945313, 6.575349807947305], [8.340123177242901, 6.575349807947305], [8.333312034922528, 6.58488559659304], [8.330133437807945, 6.59169721555412], [8.324751854214753, 6.589499474820968], [8.323322296386891, 6.596238136280988], [8.3219594961339, 6.603049755242068], [8.314240455832419, 6.60713625123708], [8.314240455832419, 6.612131595796541], [8.321051598152792, 6.613947868399464], [8.321116353836715, 6.614595634780756], [8.321505547143317, 6.618488789126388], [8.324230194367999, 6.62121343635107], [8.325138092349107, 6.625754356178618], [8.322414398405783, 6.634381771101914], [8.315602302804052, 6.634381771101914], [8.315204930163418, 6.63469401841428], [8.309245110373581, 6.639377116560752], [8.304704666287364, 6.650729178708673], [8.30652046224958, 6.66071939478428], [8.303591798422815, 6.666577339372736], [8.301980019062682, 6.669801235338809], [8.278820991595524, 6.697955131624099], [8.280183791848572, 6.704766273045095], [8.285632133016577, 6.710215570192474], [8.280183791848572, 6.715210438111285], [8.273825645237366, 6.712940215618517], [8.273825645237366, 6.716572761723626], [8.268831253059943, 6.727925301411574], [8.261111258577785, 6.731103896727518], [8.25157546993205, 6.735644816555066], [8.256032904794779, 6.737461090057309], [8.262490850972029, 6.737931832088407], [8.26608981279469, 6.741573250005558], [8.264828138607754, 6.745034556199869], [8.261111258577785, 6.755170822175728], [8.255661964128365, 6.766068936232443], [8.249758719789156, 6.768339156926572], [8.249758719789156, 6.77106380505063], [8.249758719789156, 6.771075049274145], [8.249758719789156, 6.775604724878178], [8.244310378621151, 6.785594940054466], [8.240676880133947, 6.792406082374839], [8.234319686804156, 6.79921770133592], [8.229325293727356, 6.800125599317028], [8.226146698411469, 6.789681911790865], [8.220243454072204, 6.778783321093442], [8.21297740858057, 6.776058673868761], [8.207766840067677, 6.776927223812379], [8.199355124839201, 6.778329372102917], [8.191635132155682, 6.778329372102917], [8.1839160918542, 6.775604724878178], [8.173017502056098, 6.77333450328473], [8.192256947700002, 6.727923759973578], [8.191923301918905, 6.663589259137041], [8.18082260567877, 6.654591799272168], [8.161767411336996, 6.646884194749816], [8.153256955943789, 6.641984242179092], [8.15075400689193, 6.638585313861199], [8.145475131272349, 6.621309801406255], [8.14744350621288, 6.619575116198689], [8.151420807424358, 6.616756542880182], [8.15141902316941, 6.601282907580185], [8.163893977025452, 6.595700250865946], [8.158959270154241, 6.592377707365358], [8.159333210958948, 6.586751089990855], [8.154069809973805, 6.586328486870229], [8.152474002573229, 6.577355385142937], [8.15698985469811, 6.567895983113203], [8.155834823018722, 6.564283437930385], [8.154143835869377, 6.558613375207131], [8.1515141993209, 6.559265943068851], [8.1482130587857, 6.558938357818988], [8.144930616055149, 6.550559973264228], [8.155594248975433, 6.549368426411775], [8.155225135731484, 6.542509162268061], [8.159510139081704, 6.53389659155448], [8.158488981381424, 6.524028006087633], [8.161091945836688, 6.523887219019969], [8.163391322551547, 6.523598536643192], [8.163031410271401, 6.520694773245225], [8.162745629107519, 6.518817019389985], [8.169778779866874, 6.508532467799171], [8.167826443435672, 6.500548421572432], [8.161413367133207, 6.495979209972631], [8.153194299277516, 6.482601671330144], [8.14020843427187, 6.477538690558163], [8.144351761124938, 6.47149020211117], [8.143942794424447, 6.460689767019176], [8.148186007178538, 6.458032593229632], [8.149050074901083, 6.444205157042404], [8.134311550837424, 6.445072170944002], [8.130490519421983, 6.437952413672974], [8.139515664916075, 6.430912020673247], [8.139378699067777, 6.423768594145372], [8.147306017858511, 6.423712673401212], [8.14563400730367, 6.422108675874767], [8.150819968566736, 6.420245642122723], [8.150604643889267, 6.418396896799379], [8.149708205069658, 6.417629752611049], [8.149614520893465, 6.417408814365331], [8.154585912909624, 6.415189882906816], [8.15006981706847, 6.413399579127315], [8.15133310733711, 6.404972045723355], [8.147564218613866, 6.405151224849192], [8.146744983893939, 6.404818341693158], [8.146052010391998, 6.400979794182206], [8.146098893848944, 6.397586464144069], [8.154717984647334, 6.399339205939668], [8.151686967179842, 6.398542227641713], [8.153750812350154, 6.396779050113139], [8.147963903411437, 6.388073046134195], [8.152198390043736, 6.379931707582273], [8.15092824064584, 6.378121034158426], [8.149374907326148, 6.377701879038511], [8.14784731530142, 6.377942211164168], [8.142956772337243, 6.384604797173722], [8.142329675973826, 6.384798360955642], [8.139661739997337, 6.384700975169892], [8.138042754369678, 6.377725086043938], [8.138486279318386, 6.377338238169216], [8.139329452192499, 6.374925395790456], [8.140715007991275, 6.372976623372494], [8.136327889320683, 6.37477108291921], [8.13568240541872, 6.374502987822666], [8.135473010870783, 6.372955968643112], [8.135164253827327, 6.371556408601407], [8.142565274068204, 6.363063527759664], [8.142754280985343, 6.360932514923661], [8.141564587635685, 6.359980406270779], [8.139891350405549, 6.359780004044012], [8.139431857993884, 6.360205223292496], [8.141162587983104, 6.362810302053845], [8.136202626350155, 6.362058967047744], [8.136514430296756, 6.359636625130179], [8.13619494613988, 6.357992133829953], [8.13681256274964, 6.357062415598023], [8.140953070228079, 6.356121206728346], [8.14463353041316, 6.349587537634818], [8.13973684238141, 6.343873070885536], [8.141544217092019, 6.338508953925157], [8.149133907903604, 6.330541405761323], [8.15585059442941, 6.329266891953523], [8.167891985127085, 6.327235615731126], [8.170988425575445, 6.326713274198312], [8.169941838645002, 6.320699065209737], [8.16616406282128, 6.318300231570504], [8.161289938779703, 6.315491193763648], [8.158841190968246, 6.29493340675134], [8.157292211266565, 6.29448653002936], [8.156147296060908, 6.29534544193865], [8.155491432183908, 6.29476187725885], [8.153842634030411, 6.289088385420712], [8.154792946737132, 6.287520369769311], [8.157431327393908, 6.286463466715645], [8.158595188617085, 6.285176785080637], [8.158982494246743, 6.284211423118734], [8.158574209232427, 6.283166519719146], [8.157978742025364, 6.282174973096573], [8.193471644001193, 6.278228515034016], [8.204945814297957, 6.297402597951589], [8.225763798560479, 6.306946921163501], [8.261258163733316, 6.313457277131704], [8.2606919901433, 6.309099587875721], [8.276944010257921, 6.310036657166052], [8.281822021169376, 6.309062537606053], [8.289528883751018, 6.307523508902875], [8.292236418675827, 6.308017064935655], [8.29707999994207, 6.308900000434733], [8.302013999946212, 6.314346999814234], [8.312196999192224, 6.316478000059703], [8.320752999851095, 6.317713000354729], [8.354062999907569, 6.309086000018908], [8.371433999679368, 6.31339900016377], [8.381139419348756, 6.313737790067023], [8.391663551231943, 6.306527138316824]]]}}, {"type": "Feature", "properties": {"name": "Ezza South", "state": "eb"}, "geometry": {"type": "Polygon", "coordinates": [[[8.03331156967323, 6.203533923152065], [8.02847876138577, 6.202887142427755], [8.028391960620525, 6.201842578971878], [8.028049060815533, 6.199488241089512], [8.027611496573343, 6.196588646049236], [8.025196780007434, 6.196004010276909], [8.01890005079673, 6.194322864408718], [8.01708778017695, 6.193839010262138], [7.996047784777488, 6.197364543339063], [7.97830420667384, 6.181181246717188], [7.984146933833983, 6.176087377830299], [7.983625064445221, 6.173933178673281], [7.983028892169671, 6.16884964569465], [7.981759573745364, 6.16821157220636], [7.97253665204488, 6.16433015940936], [7.96715921162837, 6.161266187184822], [7.959218813097777, 6.152546428075254], [7.946331379789399, 6.158067312156788], [7.92238222955632, 6.153561528841522], [7.906128337952509, 6.183359090849422], [7.897153936704854, 6.185152842629634], [7.898694532926413, 6.193837312342112], [7.894853826143219, 6.189666855640951], [7.888208888429517, 6.193577087212873], [7.887382201027776, 6.184073370189935], [7.878516406407073, 6.180364582259699], [7.88388365480688, 6.167902929376737], [7.885764886340496, 6.168804231729951], [7.886308862863757, 6.167872663592618], [7.88822910878639, 6.153915707943611], [7.896355026663173, 6.155905934611269], [7.897709980331399, 6.156182579562426], [7.893124408264896, 6.139024565331454], [7.895869038425417, 6.127508543284705], [7.894087106434881, 6.127276401284917], [7.892069082622129, 6.126865331969555], [7.892737918320336, 6.123257490241031], [7.884749387174509, 6.117290098159572], [7.892993815012574, 6.110231236682296], [7.901384410562173, 6.109774373888285], [7.902273293277915, 6.104306185582061], [7.902671472610393, 6.101856677843443], [7.902914192436072, 6.100369022912105], [7.90215887073532, 6.100266580238554], [7.894928159606934, 6.099034839985904], [7.896082147173388, 6.090236007985425], [7.917006435798442, 6.090744494562841], [7.936565605718158, 6.086461465224488], [7.937350828078308, 6.086104545888134], [7.935432251297414, 6.083849324986431], [7.935187490910039, 6.081856938147212], [7.947798932175033, 6.079481715308987], [7.949496850399385, 6.078154851964882], [7.951638530094158, 6.071957773932183], [7.954295610354166, 6.069089869202173], [7.95498672495745, 6.059593146206794], [7.954489264068343, 6.058266109293584], [7.952531152190943, 6.057555013553099], [7.951784429807617, 6.056803083195803], [7.952175526079714, 6.054898058298818], [7.95400556910181, 6.051494691826633], [7.955179143003079, 6.046403019084096], [7.970721412763055, 6.04817475635997], [8.012038502375049, 6.064219713868738], [8.0065046167947, 6.022467722907152], [8.018648999651646, 6.038263999883725], [8.044975535592528, 6.047572569418605], [8.062850999274247, 6.06124900044108], [8.063222913906372, 6.070415753184534], [8.063233999849274, 6.070688999597678], [8.075526805018058, 6.081423744610163], [8.07586712736611, 6.081840827692076], [8.078529186272988, 6.093976849552007], [8.079680681818047, 6.09529571522512], [8.094059355654792, 6.096171111707463], [8.07943330530287, 6.114891197071131], [8.084710736611271, 6.11840168179225], [8.08600156412092, 6.120103752186481], [8.089328835357492, 6.12429120877232], [8.09937399821149, 6.128190849927819], [8.103827743155875, 6.134900164710871], [8.112795778102736, 6.138587596440459], [8.114492715166705, 6.142780646809456], [8.116990487720898, 6.147541322274265], [8.113378701565864, 6.161732443397568], [8.117912180402868, 6.162995212958776], [8.117586722948943, 6.163675773118484], [8.11650957885405, 6.165003461140884], [8.1139278725733, 6.168300410835343], [8.126497099661492, 6.183403045214391], [8.12453118886333, 6.185758325586278], [8.12109177396627, 6.193624918555201], [8.119014751929285, 6.194946875198184], [8.115398673310153, 6.192881154941404], [8.112996275657622, 6.19361752612798], [8.112929725826234, 6.193590201126938], [8.108892113380364, 6.195239115292964], [8.095708929923205, 6.20504580042342], [8.08452698892944, 6.2048421372549], [8.079744611025035, 6.195525793980266], [8.077404836763833, 6.196085257728498], [8.075099909433334, 6.196581911026442], [8.071045988681476, 6.176715869042198], [8.054600204236067, 6.176301160170453], [8.039839351804687, 6.169347003161704], [8.034392666288568, 6.182510981596579], [8.03331156967323, 6.203533923152065]]]}}]}