{"type": "FeatureCollection", "features": [{"type": "Feature", "properties": {"name": "Esan South-East", "state": "ed"}, "geometry": {"type": "Polygon", "coordinates": [[[6.623610019886542, 6.793598175115733], [6.616251944971339, 6.790788174135002], [6.60627508202947, 6.791617869768913], [6.593578814910416, 6.791497231112373], [6.584594519321683, 6.790061912227543], [6.517399788569435, 6.793547152978761], [6.431306839239312, 6.776103973619513], [6.43042707474973, 6.767782210380744], [6.429543017796107, 6.760383129078207], [6.428662777565194, 6.752059936816693], [6.435112952700649, 6.719789027841387], [6.429689884280776, 6.714194775268709], [6.397047996867627, 6.712962151881868], [6.385172872829855, 6.710109600377791], [6.378979330931429, 6.70709384260681], [6.373497963060572, 6.704424858020843], [6.376988525100387, 6.691889127081595], [6.378839363146142, 6.680147709749065], [6.377299837117846, 6.675760385133742], [6.372702162874589, 6.672748061873619], [6.338625362170774, 6.667736873957608], [6.35016679815925, 6.626605988075937], [6.334867001810721, 6.590434074572954], [6.329445839054301, 6.583916186782631], [6.324923992048639, 6.580177784177465], [6.295929908638414, 6.572513103397057], [6.293218136108123, 6.569715022930041], [6.288699149845911, 6.565053940187227], [6.285089015745541, 6.559476852075136], [6.281490803058148, 6.55020523118651], [6.278789043579536, 6.544637202844683], [6.273902125782513, 6.538724656817521], [6.267941951659793, 6.533449173440658], [6.261614798384301, 6.526922225880071], [6.278028011183835, 6.498439788365602], [6.284401894132145, 6.490187167703652], [6.293497086021773, 6.481957912327857], [6.297132968611663, 6.479221820330793], [6.295351981808551, 6.469042778101766], [6.294465065010797, 6.462567805959509], [6.28096008344113, 6.431954861927409], [6.285513877963126, 6.425531864304162], [6.290960788309803, 6.423736095344566], [6.296411036939844, 6.42101621632537], [6.303674220788707, 6.418313980206051], [6.306408881964387, 6.413721084960173], [6.28161621081955, 6.360329150769758], [6.312781334091369, 6.367324828578035], [6.336294651277171, 6.378173351319163], [6.341586112908828, 6.378413677149524], [6.349565983583318, 6.37877607335713], [6.357560157974945, 6.384293556202692], [6.3622894291139, 6.384438991866034], [6.365606785324928, 6.384541035240659], [6.370153904179404, 6.383304119389663], [6.412735939711922, 6.396037102230537], [6.43126201612921, 6.406817913216173], [6.448867798310289, 6.428103923557273], [6.502198218872763, 6.463956833141367], [6.50962591210623, 6.47580814403068], [6.510120016725466, 6.476151416155005], [6.520029068087069, 6.483035565439025], [6.523318768346542, 6.487541198567499], [6.540155888283664, 6.492012024335509], [6.608807087277285, 6.499517918117476], [6.632654189639197, 6.489315033062383], [6.646256923917974, 6.4887337679491], [6.649354457941911, 6.490977764412321], [6.656365395446699, 6.49605751034585], [6.659813880905915, 6.498556137256003], [6.668920994208577, 6.50123405570713], [6.665485405926802, 6.528192354593557], [6.661695818407338, 6.557928405671419], [6.661944865862893, 6.572853565139951], [6.659196425274843, 6.607753262603012], [6.652776241630306, 6.634282111830032], [6.651162008020322, 6.636912787994845], [6.634967302598966, 6.663304901599986], [6.628021717028673, 6.67462348918275], [6.617936134145339, 6.704879283652076], [6.621603489409551, 6.722299098624546], [6.626187802425193, 6.731467723756509], [6.628021717028673, 6.74888753872898], [6.631689072292886, 6.769058228754318], [6.623610019886542, 6.793598175115733]]]}}, {"type": "Feature", "properties": {"name": "Etsako West", "state": "ed"}, "geometry": {"type": "Polygon", "coordinates": [[[6.250658035040317, 6.836287022228362], [6.260694980788799, 6.816983222897477], [6.266205787966783, 6.794864177739669], [6.270019317237768, 6.792960417289464], [6.271655083315466, 6.792143822079765], [6.285219192611692, 6.804282187572937], [6.303277968703355, 6.828472136679807], [6.339580059072489, 6.819577216615301], [6.398548125395735, 6.811820983951293], [6.424746036700299, 6.843479156038256], [6.464454174420666, 6.903901100555402], [6.483428954982344, 6.925326824173624], [6.480154039577315, 6.926866755796198], [6.477665830413798, 6.929744115998176], [6.472310269603327, 6.930224571606743], [6.464800874760613, 6.932254749756964], [6.458928148015673, 6.93422275687476], [6.445929695199311, 6.934685088446145], [6.43265379613581, 6.932796836804641], [6.420718765558604, 6.936047959745622], [6.411969960145598, 6.939104183411359], [6.402544145096272, 6.935559725900703], [6.396197218426948, 6.932431750724788], [6.381401286140488, 6.92962466084947], [6.372779170022739, 6.932807297718682], [6.367897387354617, 6.940061372334526], [6.368175029653969, 6.952873230215459], [6.364994552056999, 6.955496713602486], [6.36387983428699, 6.957764648220007], [6.359033637792209, 6.961626281327881], [6.356715031773319, 6.966259709917722], [6.354918412055099, 6.971783343226775], [6.353325954629156, 6.981828317223119], [6.353199300407425, 6.990992005976352], [6.351548113654587, 6.998271828182396], [6.36586873175662, 7.013256081203224], [6.363133593940233, 7.019886124345192], [6.36713202202526, 7.029333821698572], [6.36888002978958, 7.03789128915173], [6.361967496103091, 7.048447283115649], [6.407658100341109, 7.084424972734325], [6.413081168760982, 7.09001922620638], [6.417596816739774, 7.095604897448084], [6.420300007039714, 7.101172923991271], [6.422014236268012, 7.132597924354798], [6.414650917405936, 7.166707992779664], [6.376522063842231, 7.180203914579067], [6.283073902138938, 7.194099903387894], [6.273087979426748, 7.19770097681868], [6.264008999615669, 7.201310159436332], [6.256732941072414, 7.207706928332129], [6.237775803410671, 7.180737971580186], [6.229671000716166, 7.16310882591165], [6.22606706564261, 7.15568494940095], [6.198979855236189, 7.118476867613424], [6.184488773338273, 7.112796782845294], [6.18031787956653, 7.112758159661382], [6.185437201965328, 7.099873066388966], [6.202735900741288, 7.077866077657404], [6.207296847571513, 7.069594859914901], [6.213683127674244, 7.057645797215798], [6.219188211566745, 7.037374973076567], [6.219221133948224, 7.026938897412208], [6.219237760614192, 7.021668364803247], [6.219266890554593, 7.012434006424314], [6.215715885080101, 6.988380909851173], [6.215847969408287, 6.946812153058488], [6.214962005891891, 6.940337180916231], [6.178926945821956, 6.865169047413644], [6.167360782973788, 6.823766231726268], [6.17180204442883, 6.824454784160991], [6.17996311230786, 6.824532987407508], [6.18540382362761, 6.824584006846464], [6.241571902921009, 6.841743945626661], [6.24793481863702, 6.837184906258472], [6.250658035040317, 6.836287022228362]]]}}, {"type": "Feature", "properties": {"name": "Owan West", "state": "ed"}, "geometry": {"type": "Polygon", "coordinates": [[[6.04481133417579, 6.776801319625235], [6.044764996607341, 6.850041866938682], [6.042033195275792, 6.853712082047025], [6.037498951115765, 6.853669167298278], [6.030251026064036, 6.851751803702825], [6.023906230787986, 6.850769042557317], [6.019381046398223, 6.847953795831074], [6.005677222925556, 6.880156993950152], [5.996489047431623, 6.917944907331673], [5.972817898327378, 6.947281836587536], [5.969239208122985, 6.979133462739185], [5.969085217209056, 6.98050403583261], [5.975377082886098, 6.998115062859938], [5.985292912438013, 7.016685009105913], [5.992517947944975, 7.025990963412255], [5.991760135122206, 7.033462932068687], [5.991581917371661, 7.035220146192842], [5.987032890155831, 7.03979587607887], [5.984292984133958, 7.046236038162704], [5.929793835217367, 7.074357986032282], [5.923439980170997, 7.076145171862265], [5.91436290692269, 7.078831195903035], [5.906197070838175, 7.080601214574415], [5.869006157108515, 7.083943844432895], [5.861740111616882, 7.087570189712551], [5.855378150980926, 7.092129229980003], [5.852578163051817, 7.093998909721961], [5.823740959177997, 7.08144092595802], [5.822617603419701, 7.079953824109737], [5.821990013328502, 7.079123021410339], [5.815583228683124, 7.07159805300779], [5.809593200665745, 7.05124521339593], [5.804257870104664, 7.048537253991128], [5.796177864416961, 7.024290562159763], [5.792581080752313, 7.021655082715938], [5.793781280881433, 7.005321026444278], [5.785642146567852, 6.96834135087272], [5.788464547400963, 6.960970402162388], [5.792204379928251, 6.955450535214084], [5.799811840444136, 6.921328545376127], [5.787907599955815, 6.894484996385529], [5.787108421016853, 6.871396542316631], [5.77422571184718, 6.853781222825205], [5.774041920997888, 6.853347535560374], [5.771480083439144, 6.847302436658197], [5.769666671579671, 6.839905738559025], [5.778134822863819, 6.81779193824741], [5.770835399933787, 6.796514034395216], [5.767152308332413, 6.791876792679886], [5.757921218989111, 6.784439087294118], [5.751592635791553, 6.781640052646367], [5.757518767876888, 6.781733990431349], [5.765668869422825, 6.785505771374289], [5.772913932831784, 6.788345813308695], [5.792798996376632, 6.808856964177608], [5.796904704588485, 6.811410706039283], [5.797325134047753, 6.81167221180317], [5.801857948285715, 6.811715126551917], [5.884612378558472, 6.793686708874588], [5.951505142148619, 6.788570874945947], [5.981476419001581, 6.780541969636261], [5.990259256559511, 6.781664105913819], [6.022935477390433, 6.771811219012591], [6.04481133417579, 6.776801319625235]]]}}, {"type": "Feature", "properties": {"name": "Esan North-East", "state": "ed"}, "geometry": {"type": "Polygon", "coordinates": [[[6.53014085721486, 6.793418537335697], [6.522347022097449, 6.841633267861084], [6.525371075214991, 6.853669167298278], [6.528224787743795, 6.856008553052334], [6.521652222072419, 6.882270814446599], [6.505257130612108, 6.905210017928027], [6.483428954982344, 6.925326824173624], [6.464454174420666, 6.903901100555402], [6.40668582888793, 6.819289206931387], [6.398548125395735, 6.811820983951293], [6.379269122172275, 6.813684940407711], [6.380487919382006, 6.787631989025101], [6.375123977789372, 6.763563156114799], [6.347035884898219, 6.755907057564684], [6.285375117967362, 6.755322934405967], [6.25185298942398, 6.745768069340954], [6.244322696135555, 6.74232990360224], [6.239801803310627, 6.738759872969808], [6.238977979350295, 6.737588018572239], [6.238653683820473, 6.736812516084797], [6.237312755978962, 6.734767974862223], [6.241961955979548, 6.718883992402368], [6.241354138382803, 6.711143711013506], [6.241090774619579, 6.707789898085366], [6.245625018779663, 6.707832812834113], [6.247449875411462, 6.704154968776834], [6.249279022708777, 6.699553013760635], [6.249326229022302, 6.684772967998128], [6.264313219579492, 6.648426056317476], [6.284758091312938, 6.663862227659706], [6.310135840696546, 6.6677980413466], [6.321023940802263, 6.666052818782589], [6.324533350833519, 6.665280197723007], [6.372702162874589, 6.672748061873619], [6.377299837117846, 6.675760385133742], [6.378839363146142, 6.680147709749065], [6.376988525100387, 6.691889127081595], [6.373497963060572, 6.704424858020843], [6.378979330931429, 6.70709384260681], [6.385172872829855, 6.710109600377791], [6.397047996867627, 6.712962151881868], [6.429689884280776, 6.714194775268709], [6.435112952700649, 6.719789027841387], [6.428662777565194, 6.752059936816693], [6.429543017796107, 6.760383129078207], [6.43042707474973, 6.767782210380744], [6.431306839239312, 6.776103973619513], [6.517399788569435, 6.793547152978761], [6.526467799349518, 6.793632984274836], [6.53014085721486, 6.793418537335697]]]}}, {"type": "Feature", "properties": {"name": "Owan East", "state": "ed"}, "geometry": {"type": "Polygon", "coordinates": [[[6.18031787956653, 7.112758159661382], [6.164381026862941, 7.162490845076491], [6.161640166660391, 7.168931961341002], [6.156181812440764, 7.174423218157017], [6.152536868281913, 7.179931163692288], [6.143447876318476, 7.186310768127498], [6.12439107938485, 7.190750122120505], [6.1144018165906, 7.195273876588203], [6.10531902365409, 7.199807166567552], [6.100776196364393, 7.202536106256332], [6.075263022570482, 7.241093159421837], [6.070720196180162, 7.243821144030619], [6.066176889551855, 7.246550082820136], [6.04081106158128, 7.238918780377446], [6.033549786093829, 7.240697860617843], [6.024481772615786, 7.240612030221087], [6.021770000085496, 7.237814903035371], [6.019067763966177, 7.232246875592864], [6.012732027561071, 7.22849178157054], [6.011809422966564, 7.229419870230856], [6.010003089670874, 7.231236935136508], [6.005465983868135, 7.232118130447418], [6.002754210438525, 7.229321003261759], [5.997323036429009, 7.226498127586581], [5.991885184953389, 7.225522993591312], [5.987468227676629, 7.226380855991749], [5.987348080049912, 7.226404190700862], [5.980072022405977, 7.232800959596659], [5.976428032427805, 7.23830890693057], [5.971877097749882, 7.243809224416225], [5.967329978895464, 7.247460842443957], [5.931923865993667, 7.260058880213194], [5.909392834211985, 7.277768134791643], [5.907061099889916, 7.274871825874129], [5.905289172857067, 7.270805836220404], [5.904650210838611, 7.265564919185692], [5.902900219169851, 7.263247967020106], [5.900001048609568, 7.260940074624784], [5.896522044656706, 7.258053779658269], [5.897339821575542, 7.23123312021238], [5.903481007642426, 7.217193126561597], [5.884325027178306, 7.199862003628596], [5.883665084875815, 7.192872047307162], [5.890465260863152, 7.189054965714149], [5.893909929599602, 7.185792922305552], [5.893875121339818, 7.182878969588842], [5.878821849848521, 7.172510147025719], [5.877064228331506, 7.169610022284758], [5.87471818759434, 7.16554784755516], [5.872960090335937, 7.162648201253546], [5.862779139745555, 7.128338813385596], [5.844311236874148, 7.120328903556128], [5.842559812585307, 7.118010997209808], [5.841958045627337, 7.115684986173221], [5.843033791276468, 7.109847068587385], [5.85323715207295, 7.099270820991649], [5.854922771169015, 7.096343040299132], [5.852578163051817, 7.093998909721961], [5.855378150980926, 7.092129229980003], [5.861740111616882, 7.087570189712551], [5.869006157108515, 7.083943844432895], [5.91436290692269, 7.078831195903035], [5.941596985612421, 7.069849967901746], [5.981563091163764, 7.04898214231207], [5.991581917371661, 7.035220146192842], [5.991760135122206, 7.033462932068687], [5.992517947944975, 7.025990963412255], [5.985292912438013, 7.016685009105913], [5.975377082886098, 6.998115062859938], [5.969085217209056, 6.98050403583261], [5.969239208122985, 6.979133462739185], [5.972817898327378, 6.947281836587536], [5.996489047431623, 6.917944907331673], [6.005677222925556, 6.880156993950152], [6.019381046398223, 6.847953795831074], [6.023906230787986, 6.850769042557317], [6.030251026064036, 6.851751803702825], [6.037498951115765, 6.853669167298278], [6.042033195275792, 6.853712082047025], [6.044764996607341, 6.850041866938682], [6.04481133417579, 6.776801319625235], [6.050435067424473, 6.778039931597618], [6.05677413941504, 6.7808718688417], [6.113788128219596, 6.817440034430092], [6.124660015347501, 6.820312977162189], [6.134628773599047, 6.822256088347842], [6.141874790289364, 6.825096130282247], [6.150035858168394, 6.825172900908683], [6.15819978769008, 6.824326992296903], [6.167360782973788, 6.823766231726268], [6.178926945821956, 6.865169047413644], [6.214962005891891, 6.940337180916231], [6.218264103305785, 7.042909144641385], [6.207296847571513, 7.069594859914901], [6.185437201965328, 7.099873066388966], [6.18031787956653, 7.112758159661382]]]}}, {"type": "Feature", "properties": {"name": "Esan Central", "state": "ed"}, "geometry": {"type": "Polygon", "coordinates": [[[6.250658035040317, 6.836287022228362], [6.230653841001981, 6.804833775958059], [6.216320037939454, 6.798087120424327], [6.209095000633795, 6.788781166117985], [6.209168933899207, 6.788338862448597], [6.210020064874129, 6.783246994553224], [6.211853981276249, 6.776796817619072], [6.219755910407002, 6.768205940351891], [6.220541131867776, 6.764137062975124], [6.205607891091347, 6.744406223268641], [6.200181961028704, 6.739736079856243], [6.193345936265985, 6.733454574369148], [6.185793633869139, 6.733289493915038], [6.170341014826022, 6.713586806585909], [6.169469197645412, 6.709525067128197], [6.168552876614001, 6.705255985375459], [6.170392990244352, 6.696959020042812], [6.172226905747152, 6.690509796390018], [6.193212985890625, 6.650062084097954], [6.194146155720546, 6.641757011377024], [6.191454886833583, 6.632493019437334], [6.164336204652159, 6.605446815418247], [6.135371208014874, 6.588543892086989], [6.136295794715181, 6.583011150444293], [6.139935017387188, 6.579349995106213], [6.142122212670017, 6.578417124750558], [6.142832687878297, 6.578114098187143], [6.153520818331174, 6.576600336836123], [6.160867404407213, 6.575916242340782], [6.16987323875901, 6.575015067691254], [6.182557106025683, 6.578829765181581], [6.194327831364376, 6.584484100560815], [6.207902907892958, 6.592926979096831], [6.208796023717582, 6.597554206861219], [6.210586071190278, 6.604960918012011], [6.21419477536864, 6.610538006124159], [6.217795848799426, 6.618885993593778], [6.224123001175599, 6.625411986973688], [6.264313219579492, 6.648426056317476], [6.249326229022302, 6.684772967998128], [6.249279022708777, 6.699553013760635], [6.247449875411462, 6.704154968776834], [6.245625018779663, 6.707832812834113], [6.241090774619579, 6.707789898085366], [6.241354138382803, 6.711143711013506], [6.241961955979548, 6.718883992402368], [6.237312755978962, 6.734767974862223], [6.238653683820473, 6.736812516084797], [6.238977979350295, 6.737588018572239], [6.239801803310627, 6.738759872969808], [6.244322696135555, 6.74232990360224], [6.25185298942398, 6.745768069340954], [6.285375117967362, 6.755322934405967], [6.347035884898219, 6.755907057564684], [6.357912063590902, 6.757856846216555], [6.366066932443005, 6.759781836962247], [6.367281867963868, 6.760289512351164], [6.375123977789372, 6.763563156114799], [6.377831935395534, 6.767282963438049], [6.380487919382006, 6.787631989025101], [6.379269122172275, 6.813684940407711], [6.303277968703355, 6.828472136679807], [6.285219192611692, 6.804282187572937], [6.271655083315466, 6.792143822079765], [6.270019317237768, 6.792960417289464], [6.266205787966783, 6.794864177739669], [6.260694980788799, 6.816983222897477], [6.250658035040317, 6.836287022228362]]]}}, {"type": "Feature", "properties": {"name": "Ikpoba-Okha", "state": "ed"}, "geometry": {"type": "Polygon", "coordinates": [[[5.473677635014894, 6.027351856403072], [5.478940964054289, 6.027095317594899], [5.484179496986258, 6.027750015051197], [5.489745140326022, 6.03004169536797], [5.490273475840297, 6.033595084945262], [5.491382122287177, 6.03855419222225], [5.494328499160929, 6.041828156144561], [5.497275351776125, 6.042482852701539], [5.500876427005551, 6.036589622313272], [5.505787372889017, 6.035934924856917], [5.512989998189937, 6.035280228299939], [5.516591549160694, 6.030369282416473], [5.518883227678884, 6.027422428002694], [5.515282154248041, 6.02185678466293], [5.519210814727387, 6.016291142222485], [5.534598350733347, 6.009743214377863], [5.532306671315894, 6.004177570138779], [5.536596774721431, 5.98990201976244], [5.546327591245415, 5.985361575676222], [5.56107997925767, 5.989411830791425], [5.57127380364318, 5.99088382672727], [5.578019141670097, 6.003423214309919], [5.583425998910798, 6.011096001579233], [5.593595028088146, 6.018115997055645], [5.605134009826713, 6.02306604366305], [5.61600780531603, 6.0245428087037], [5.626190185828477, 6.02878904407919], [5.637066841161811, 6.029572964220961], [5.657452105830089, 6.033209801890905], [5.667607307031631, 6.049861431260069], [5.668930054178702, 6.052030087018977], [5.764177322225692, 5.997814177782118], [5.761786937717034, 6.008563995432098], [5.759040832668347, 6.016851901893801], [5.756297111722404, 6.024216174936555], [5.727054119352147, 6.095070838848187], [5.730671883300829, 6.097877025804166], [5.733356953160921, 6.10898685465969], [5.74327278091414, 6.127556800905666], [5.7441568369685, 6.13495588310758], [5.744142055711336, 6.139575005282325], [5.745028019227732, 6.146049023243904], [5.747734069371859, 6.150693893008793], [5.754048823694291, 6.160914897604471], [5.753941058832822, 6.195095062786947], [5.755747795024774, 6.196959019243366], [5.768382070975861, 6.21647787075716], [5.784675120860186, 6.225871086281643], [5.793743134338229, 6.225955964296361], [5.801900863933781, 6.226956844083134], [5.816398143959248, 6.230790137754695], [5.819116116415671, 6.231739998102455], [5.823635100879244, 6.236401080845269], [5.82540512134932, 6.250275135189383], [5.827546120257296, 6.252757071581641], [5.806726932701849, 6.282730103011886], [5.763204098390474, 6.315147876673223], [5.764559115011195, 6.282276386945739], [5.75627859108414, 6.283513705692997], [5.715379379554747, 6.307982817852803], [5.689939218120458, 6.323203115931108], [5.691510289668201, 6.325039188008191], [5.705179402907163, 6.341013933646195], [5.702677265943123, 6.341540829345831], [5.705947500376908, 6.370208100923151], [5.697635012745707, 6.376827362992458], [5.685129960379413, 6.369317280168389], [5.680003206882532, 6.371104759177342], [5.674010629287181, 6.375601276777559], [5.67178540617158, 6.377270967081529], [5.650310770225929, 6.377746858630644], [5.644706769901575, 6.370216555449701], [5.648239136027371, 6.355757235807857], [5.641911982751878, 6.349229813405202], [5.641690359222764, 6.349001174264856], [5.637392997388986, 6.344567775582448], [5.629313945881961, 6.318625927344726], [5.62759113262473, 6.289971828137425], [5.632225036955958, 6.258606910580511], [5.627758980292754, 6.237318038596641], [5.624148845293007, 6.231740952283189], [5.621446133432357, 6.226171969760628], [5.61782980030506, 6.222443103566434], [5.58339023557096, 6.216574191745622], [5.578862190437803, 6.214684010158976], [5.576147078724773, 6.212810993032974], [5.5707240103049, 6.207217216201627], [5.516268768089219, 6.092578373193419], [5.512649574218528, 6.089772188036079], [5.509022749600263, 6.089738331259014], [5.506298579016232, 6.090635262007766], [5.499029672781205, 6.095186195786368], [5.493586578258032, 6.096058332226278], [5.486334838282232, 6.095066511310506], [5.480899848449269, 6.09316631397428], [5.463652646652349, 6.098546466746086], [5.442778489835462, 6.041352430969937], [5.444632051927726, 6.039225578397748], [5.452094555219617, 6.034297942895819], [5.453060150105898, 6.027536869431003], [5.453403949232893, 6.025130748585241], [5.45619106336693, 6.022396564050212], [5.458463192422414, 6.023046016660373], [5.465517997957306, 6.027750015051197], [5.473677635014894, 6.027351856403072]]]}}, {"type": "Feature", "properties": {"name": "Iguegben", "state": "ed"}, "geometry": {"type": "Polygon", "coordinates": [[[6.338625362170774, 6.667736873957608], [6.336773235396549, 6.667509402137227], [6.331105748331652, 6.666622533003533], [6.324533350833519, 6.665280197723007], [6.321023940802263, 6.666052818782589], [6.310135840696546, 6.6677980413466], [6.284758091312938, 6.663862227659706], [6.217795848799426, 6.618885993593778], [6.21419477536864, 6.610538006124159], [6.210586071190278, 6.604960918012011], [6.208796023717582, 6.597554206861219], [6.207902907892958, 6.592926979096831], [6.207019806019275, 6.585527896894973], [6.215344906642201, 6.533874988939658], [6.219636921107053, 6.528357870319496], [6.223053226125558, 6.523966422312583], [6.223113299938916, 6.497727500124086], [6.190985203304535, 6.494844913062309], [6.16286611617835, 6.497350215639983], [6.129343032554971, 6.487793921552282], [6.119379996689531, 6.484004974350114], [6.113947867600075, 6.48118305195635], [6.115452013399761, 6.47286032284569], [6.1148809412025, 6.466483367813225], [6.106042913149963, 6.462922673042954], [6.125904084406045, 6.428638935638389], [6.131688118212139, 6.404486178894103], [6.152238846445641, 6.416880130813411], [6.215703011284972, 6.421175958403808], [6.223335576375803, 6.418142090085439], [6.224782944377409, 6.417566775786099], [6.269393920593018, 6.361638069041703], [6.276096821411215, 6.357798099702563], [6.279860020123863, 6.358500004371763], [6.28161621081955, 6.360329150769758], [6.306408881964387, 6.413721084960173], [6.303674220788707, 6.418313980206051], [6.296411036939844, 6.42101621632537], [6.290960788309803, 6.423736095344566], [6.285513877963126, 6.425531864304162], [6.28096008344113, 6.431954861927409], [6.294465065010797, 6.462567805959509], [6.295351981808551, 6.469042778101766], [6.297132968611663, 6.479221820330793], [6.293497086021773, 6.481957912327857], [6.284401894132145, 6.490187167703652], [6.278028011183835, 6.498439788365602], [6.261614798384301, 6.526922225880071], [6.267941951659793, 6.533449173440658], [6.273902125782513, 6.538724656817521], [6.278789043579536, 6.544637202844683], [6.281490803058148, 6.55020523118651], [6.285089015745541, 6.559476852075136], [6.288699149845911, 6.565053940187227], [6.293218136108123, 6.569715022930041], [6.295929908638414, 6.572513103397057], [6.324923992048639, 6.580177784177465], [6.329445839054301, 6.583916186782631], [6.334867001810721, 6.590434074572954], [6.35016679815925, 6.626605988075937], [6.338625362170774, 6.667736873957608]]]}}, {"type": "Feature", "properties": {"name": "Uhunmwonde", "state": "ed"}, "geometry": {"type": "Polygon", "coordinates": [[[5.870091733246966, 6.797244866657309], [5.86325257074958, 6.782498156065117], [5.859466190212572, 6.777254535668362], [5.8531423752205, 6.769804432228796], [5.849585169819761, 6.747600509955646], [5.846885316903922, 6.741108370654842], [5.844200247943149, 6.72999758941728], [5.839681261680937, 6.725335551594469], [5.836077326607381, 6.717910244262384], [5.833383196977024, 6.709571315663709], [5.831593150403592, 6.702164603613596], [5.829041628068751, 6.691777694784832], [5.813230038335632, 6.657549858339337], [5.791487015913106, 6.596008944057587], [5.757166184172092, 6.552266764199828], [5.723683156352649, 6.530701803045815], [5.718256272109329, 6.526032137173445], [5.712829866305356, 6.521361992861728], [5.686773777188137, 6.50023221994104], [5.644300938237734, 6.453639984197935], [5.638930797618286, 6.431418895665558], [5.640752791707996, 6.428665160768617], [5.643487930423703, 6.424071788881974], [5.6450720547316, 6.418592049683411], [5.644175123982848, 6.415812089656242], [5.641586850852548, 6.414154127411109], [5.63990497743282, 6.410181045818661], [5.644706769901575, 6.370216555449701], [5.650310770225929, 6.377746858630644], [5.67178540617158, 6.377270967081529], [5.674010629287181, 6.375601276777559], [5.680003206882532, 6.371104759177342], [5.685129960379413, 6.369317280168389], [5.697635012745707, 6.376827362992458], [5.705947500376908, 6.370208100923151], [5.702677265943123, 6.341540829345831], [5.705179402907163, 6.341013933646195], [5.691510289668201, 6.325039188008191], [5.689939218120458, 6.323203115931108], [5.715379379554747, 6.307982817852803], [5.75627859108414, 6.283513705692997], [5.764559115011195, 6.282276386945739], [5.763204098390474, 6.315147876673223], [5.806726932701849, 6.282730103011886], [5.827546120257296, 6.252757071581641], [5.82540512134932, 6.250275135189383], [5.823635100879244, 6.236401080845269], [5.884695349111098, 6.222242174336941], [5.899685953144285, 6.205466972722661], [5.915478474552003, 6.204447024610545], [5.91351856133258, 6.231132014131219], [5.91323599974163, 6.240521000144099], [5.919249985698343, 6.241311979064619], [5.924100999861309, 6.241949998593611], [5.931089000157272, 6.246209999891619], [5.940202999568839, 6.253428000002259], [5.943751000408383, 6.2588980004424], [5.945708999870476, 6.265776000162305], [5.962193596357451, 6.284930892446766], [5.963349661357825, 6.289157763619926], [5.966718404830544, 6.308306411012097], [5.974628911694992, 6.315821393342674], [5.978139818198088, 6.319156753981076], [5.983660168082338, 6.324486746166428], [5.991845513159944, 6.323154248569779], [5.999269431938785, 6.329245667953273], [6.012070932327731, 6.333861823264556], [6.024348950843432, 6.342570650215407], [6.040111339566693, 6.336197840158263], [6.051437574084844, 6.342289261340397], [6.061145775357318, 6.345715683731839], [6.07370932862267, 6.351902281964783], [6.081323604201032, 6.352568533011436], [6.087129488834876, 6.360087627941709], [6.092163588778646, 6.365841779974232], [6.102649523756554, 6.374715365421821], [6.113737812050431, 6.381901337077068], [6.132234761225277, 6.376561289571896], [6.138703263644743, 6.387831671694357], [6.137085231298443, 6.389640061739499], [6.135467197153503, 6.392661977168586], [6.132397692299719, 6.398979445644954], [6.125904084406045, 6.428638935638389], [6.105617260428289, 6.463530210051204], [6.104908942693612, 6.471858978109424], [6.103988170917376, 6.476469039614528], [6.09944009788228, 6.481044768601237], [6.090298176319834, 6.504053115558861], [6.084428409243742, 6.510752322861435], [6.081573056351544, 6.513322141004039], [6.072926044301539, 6.549153805004153], [6.072848797034396, 6.57317209241819], [6.084537982641848, 6.60469198204936], [6.08631897034428, 6.614870070997029], [6.087204932961356, 6.621345043139286], [6.088494403394066, 6.671990090770123], [6.095656828100175, 6.675235415781856], [6.095049352245837, 6.681514824049941], [6.084824449988446, 6.683690833565151], [6.070615767803474, 6.705252171350651], [6.025117873890792, 6.754705905952846], [6.024201870320098, 6.757469177260759], [6.017819880882826, 6.768494129000885], [6.012048329666754, 6.773555012553857], [6.001152600612102, 6.778072091353977], [5.994798268925024, 6.779859277183959], [5.990259256559511, 6.781664105913819], [5.981476419001581, 6.780541969636261], [5.951505142148619, 6.788570874945947], [5.870091733246966, 6.797244866657309]]]}}, {"type": "Feature", "properties": {"name": "Orhionmwon", "state": "ed"}, "geometry": {"type": "Polygon", "coordinates": [[[6.28161621081955, 6.360329150769758], [6.279860020123863, 6.358500004371763], [6.276096821411215, 6.357798099702563], [6.269393920593018, 6.361638069041703], [6.224782944377409, 6.417566775786099], [6.223335576375803, 6.418142090085439], [6.215703011284972, 6.421175958403808], [6.152238846445641, 6.416880130813411], [6.132882618438146, 6.405396537420302], [6.132397692299719, 6.398979445644954], [6.135467197153503, 6.392661977168586], [6.137085231298443, 6.389640061739499], [6.138703263644743, 6.387831671694357], [6.132234761225277, 6.376561289571896], [6.113737812050431, 6.381901337077068], [6.102649523756554, 6.374715365421821], [6.092163588778646, 6.365841779974232], [6.087129488834876, 6.360087627941709], [6.081323604201032, 6.352568533011436], [6.07370932862267, 6.351902281964783], [6.061145775357318, 6.345715683731839], [6.051437574084844, 6.342289261340397], [6.040111339566693, 6.336197840158263], [6.024348950843432, 6.342570650215407], [6.012070932327731, 6.333861823264556], [5.999269431938785, 6.329245667953273], [5.991845513159944, 6.323154248569779], [5.983660168082338, 6.324486746166428], [5.978139818198088, 6.319156753981076], [5.974628911694992, 6.315821393342674], [5.966718404830544, 6.308306411012097], [5.963349661357825, 6.289157763619926], [5.962193596357451, 6.284930892446766], [5.945708999870476, 6.265776000162305], [5.943751000408383, 6.2588980004424], [5.940202999568839, 6.253428000002259], [5.931089000157272, 6.246209999891619], [5.924100999861309, 6.241949998593611], [5.919249985698343, 6.241311979064619], [5.91323599974163, 6.240521000144099], [5.91351856133258, 6.231132014131219], [5.915478474552003, 6.204447024610545], [5.899685953144285, 6.205466972722661], [5.884695349111098, 6.222242174336941], [5.823635100879244, 6.236401080845269], [5.819116116415671, 6.231739998102455], [5.816398143959248, 6.230790137754695], [5.801900863933781, 6.226956844083134], [5.793743134338229, 6.225955964296361], [5.784675120860186, 6.225871086281643], [5.768382070975861, 6.21647787075716], [5.755747795024774, 6.196959019243366], [5.753941058832822, 6.195095062786947], [5.754048823694291, 6.160914897604471], [5.747734069371859, 6.150693893008793], [5.745028019227732, 6.146049023243904], [5.744142055711336, 6.139575005282325], [5.7441568369685, 6.13495588310758], [5.74327278091414, 6.127556800905666], [5.733356953160921, 6.10898685465969], [5.730671883300829, 6.097877025804166], [5.727054119352147, 6.095070838848187], [5.738945005807409, 6.062850952009853], [5.742598057354485, 6.054572105318471], [5.747152805157896, 6.048148155313186], [5.764177322225692, 5.997814177782118], [5.785003286172753, 5.985509754271789], [5.79505681991634, 5.979569912021873], [5.812038897976834, 5.983871936840444], [5.822996139760107, 5.966627120944906], [5.830506801747561, 5.959753990154582], [5.835303782843368, 5.951471806079041], [5.83331012706077, 5.941052913760984], [5.921317100803606, 5.877292156108183], [5.910546780409618, 5.852237224668215], [5.906504154243351, 5.843882083991048], [5.906404018330818, 5.825979233255055], [5.902400970428516, 5.811059951755396], [5.897670746008146, 5.803782463290077], [5.894185114951142, 5.798591687056785], [5.902640819618171, 5.794611930696078], [5.906779765873523, 5.781470777054778], [5.906148911243292, 5.770370007070198], [5.917080879379114, 5.758672237433871], [5.924606800163758, 5.748332024103661], [5.94093704241061, 5.746387004556652], [5.958599090675534, 5.750695229301414], [5.969620228390852, 5.748805045916185], [5.981730937033149, 5.748114109378719], [6.01566219325565, 5.764347075557112], [6.03978013994157, 5.76461076667357], [6.044364452057891, 5.766866683650562], [6.048964023870667, 5.768784999628053], [6.061857223631989, 5.77513313318758], [6.073625564867996, 5.786473273922525], [6.075937270388749, 5.786094188995662], [6.080683707786932, 5.788235187903638], [6.093735217906044, 5.794122219265034], [6.100496133090132, 5.801685168735617], [6.101854800958336, 5.803205013100921], [6.107929230349725, 5.813658237038055], [6.111967087411188, 5.823400020794395], [6.1208791728356, 5.839725018195054], [6.151937007886659, 5.857713222687153], [6.201406002185308, 5.896959781568739], [6.226700493233238, 5.931828029739847], [6.245960235676364, 5.97153282198218], [6.247943878407284, 5.984033107941627], [6.250625134242625, 5.993070126285374], [6.25663995656879, 6.016697884000223], [6.240956782829301, 6.026277064934675], [6.232762814152579, 6.033836841597008], [6.243274393298634, 6.053020789178106], [6.244851975937991, 6.053682279213888], [6.244363233976117, 6.054031394233505], [6.240929196125535, 6.055820748328927], [6.233885991845113, 6.05549714078046], [6.227794571562299, 6.054126572183634], [6.220484866683307, 6.053136716286474], [6.210957504685155, 6.052936841062433], [6.202629392232723, 6.053745858584534], [6.195523070833076, 6.054463880903427], [6.169303894159441, 6.082546234321285], [6.134387016047981, 6.135653018671917], [6.115742206637549, 6.199992179795288], [6.115022182427822, 6.209001063748133], [6.114303112398773, 6.218009948600297], [6.112161160209439, 6.240878104740773], [6.103488166745535, 6.248207711616658], [6.095097064877677, 6.255299090780454], [6.084858894022773, 6.263535022723147], [6.07663202274972, 6.27872276264543], [6.086105823824767, 6.289205074254824], [6.086041926993403, 6.303767204393012], [6.08801698659471, 6.318346977431133], [6.11304283126168, 6.349068164764049], [6.117772102400636, 6.351524352666786], [6.122462280909588, 6.353960128657036], [6.126613139584776, 6.356115817990656], [6.18049001700075, 6.32119703331648], [6.188703060298053, 6.309475899293375], [6.193511008626217, 6.298419952418897], [6.197598933643917, 6.282746315090435], [6.212637901418077, 6.279160976198114], [6.253943920375661, 6.319034099943792], [6.261365890323646, 6.3322720530129], [6.270836829755922, 6.343445777800468], [6.281655788184139, 6.357406139182046], [6.290318012266482, 6.361868381820386], [6.28161621081955, 6.360329150769758]]]}}, {"type": "Feature", "properties": {"name": "Etsako Central", "state": "ed"}, "geometry": {"type": "Polygon", "coordinates": [[[6.679260254257372, 6.972002506210742], [6.664295002112681, 6.977758661932739], [6.660261630869627, 6.97931003562968], [6.655547141887155, 6.981461047589335], [6.611095905052025, 6.986581801708837], [6.602930068967567, 6.98835277725891], [6.594759941318273, 6.991045951809269], [6.591129780215226, 6.9919362068905], [6.556632996115923, 7.003619194370344], [6.532100201163416, 7.019091129052413], [6.528458117747959, 7.023674966326666], [6.527536869331129, 7.028285980213866], [6.536435126779736, 7.081949233570299], [6.535466193609977, 7.101339816579298], [6.531813144760861, 7.109619140810764], [6.505383015014161, 7.150938987744155], [6.440954207670586, 7.165110110643127], [6.431891918377403, 7.163177013408472], [6.424636841017445, 7.163107871730972], [6.414650917405936, 7.166707992779664], [6.422014236268012, 7.132597924354798], [6.420300007039714, 7.101172923991271], [6.417596816739774, 7.095604897448084], [6.413081168760982, 7.09001922620638], [6.407658100341109, 7.084424972734325], [6.361967496103091, 7.048447283115649], [6.36888002978958, 7.03789128915173], [6.36713202202526, 7.029333821698572], [6.363133593940233, 7.019886124345192], [6.36586873175662, 7.013256081203224], [6.351548113654587, 6.998271828182396], [6.353199300407425, 6.990992005976352], [6.353325954629156, 6.981828317223119], [6.354918412055099, 6.971783343226775], [6.356715031773319, 6.966259709917722], [6.359033637792209, 6.961626281327881], [6.36387983428699, 6.957764648220007], [6.364994552056999, 6.955496713602486], [6.368175029653969, 6.952873230215459], [6.367897387354617, 6.940061372334526], [6.372779170022739, 6.932807297718682], [6.381401286140488, 6.92962466084947], [6.396197218426948, 6.932431750724788], [6.402544145096272, 6.935559725900703], [6.411969960145598, 6.939104183411359], [6.420718765558604, 6.936047959745622], [6.43265379613581, 6.932796836804641], [6.445929695199311, 6.934685088446145], [6.458928148015673, 6.93422275687476], [6.464800874760613, 6.932254749756964], [6.472310269603327, 6.930224571606743], [6.477665830413798, 6.929744115998176], [6.505257130612108, 6.905210017928027], [6.521652222072419, 6.882270814446599], [6.527153968580819, 6.862924098568328], [6.528224787743795, 6.856008553052334], [6.525371075214991, 6.853669167298278], [6.522347022097449, 6.841633267861084], [6.53014085721486, 6.793418537335697], [6.584594519321683, 6.790061912227543], [6.593578814910416, 6.791497231112373], [6.60627508202947, 6.791617869768913], [6.616251944971339, 6.790788174135002], [6.623610019886542, 6.793598175115733], [6.610790253367554, 6.822104931197657], [6.646236896915298, 6.885384561448404], [6.652655602074447, 6.907848358115302], [6.661895925656495, 6.920493103973627], [6.672980309094044, 6.93566131601699], [6.679398536713165, 6.96882247917415], [6.679260254257372, 6.972002506210742]]]}}, {"type": "Feature", "properties": {"name": "Esan West", "state": "ed"}, "geometry": {"type": "Polygon", "coordinates": [[[6.167360782973788, 6.823766231726268], [6.15819978769008, 6.824326992296903], [6.150035858168394, 6.825172900908683], [6.141874790289364, 6.825096130282247], [6.134628773599047, 6.822256088347842], [6.124660015347501, 6.820312977162189], [6.113788128219596, 6.817440034430092], [6.050435067424473, 6.778039931597618], [6.022935477390433, 6.771811219012591], [6.012048329666754, 6.773555012553857], [6.017819880882826, 6.768494129000885], [6.024201870320098, 6.757469177260759], [6.025117873890792, 6.754705905952846], [6.070615767803474, 6.705252171350651], [6.084824449988446, 6.683690833565151], [6.095049352245837, 6.681514824049941], [6.095656828100175, 6.675235415781856], [6.088494403394066, 6.671990090770123], [6.087204932961356, 6.621345043139286], [6.08631897034428, 6.614870070997029], [6.084537982641848, 6.60469198204936], [6.072848797034396, 6.57317209241819], [6.072926044301539, 6.549153805004153], [6.081573056351544, 6.513322141004039], [6.084428409243742, 6.510752322861435], [6.090298176319834, 6.504053115558861], [6.09944009788228, 6.481044768601237], [6.103988170917376, 6.476469039614528], [6.106042913149963, 6.462922673042954], [6.1148809412025, 6.466483367813225], [6.115452013399761, 6.47286032284569], [6.113947867600075, 6.48118305195635], [6.119379996689531, 6.484004974350114], [6.129343032554971, 6.487793921552282], [6.16286611617835, 6.497350215639983], [6.190985203304535, 6.494844913062309], [6.223113299938916, 6.497727500124086], [6.223053226125558, 6.523966422312583], [6.219636921107053, 6.528357870319496], [6.215344906642201, 6.533874988939658], [6.207902907892958, 6.592926979096831], [6.194327831364376, 6.584484100560815], [6.182557106025683, 6.578829765181581], [6.16987323875901, 6.575015067691254], [6.160867404407213, 6.575916242340782], [6.153520818331174, 6.576600336836123], [6.142832687878297, 6.578114098187143], [6.142122212670017, 6.578417124750558], [6.139935017387188, 6.579349995106213], [6.136295794715181, 6.583011150444293], [6.135371208014874, 6.588543892086989], [6.164336204652159, 6.605446815418247], [6.191454886833583, 6.632493019437334], [6.194146155720546, 6.641757011377024], [6.193212985890625, 6.650062084097954], [6.172226905747152, 6.690509796390018], [6.170392990244352, 6.696959020042812], [6.168552876614001, 6.705255985375459], [6.169469197645412, 6.709525067128197], [6.170341014826022, 6.713586806585909], [6.185793633869139, 6.733289493915038], [6.193345936265985, 6.733454574369148], [6.200181961028704, 6.739736079856243], [6.205607891091347, 6.744406223268641], [6.220541131867776, 6.764137062975124], [6.219755910407002, 6.768205940351891], [6.211853981276249, 6.776796817619072], [6.210020064874129, 6.783246994553224], [6.209168933899207, 6.788338862448597], [6.209095000633795, 6.788781166117985], [6.216320037939454, 6.798087120424327], [6.230653841001981, 6.804833775958059], [6.250658035040317, 6.836287022228362], [6.24793481863702, 6.837184906258472], [6.241571902921009, 6.841743945626661], [6.18540382362761, 6.824584006846464], [6.17996311230786, 6.824532987407508], [6.17180204442883, 6.824454784160991], [6.167360782973788, 6.823766231726268]]]}}, {"type": "Feature", "properties": {"name": "Akoko-Edo", "state": "ed"}, "geometry": {"type": "Polygon", "coordinates": [[[6.256732941072414, 7.207706928332129], [6.26033401540252, 7.216054916701069], [6.262113093844278, 7.227158069889072], [6.263539136222221, 7.245527518580161], [6.261565003821943, 7.252906232936368], [6.258184675282564, 7.276795491918449], [6.266056383595298, 7.28482615989941], [6.270891190176314, 7.318696022103779], [6.26627206800157, 7.345441818385268], [6.266251086818272, 7.351908207397912], [6.268043995034418, 7.358391761770463], [6.270755766665332, 7.361188888956121], [6.27435586613035, 7.361834525742836], [6.276193140600981, 7.362164021152694], [6.29524183284434, 7.36049699823792], [6.340692997084204, 7.325822830059622], [6.368719102404725, 7.352879047130386], [6.381350040072334, 7.3733220096031], [6.413041114755686, 7.388401985563235], [6.432164191724098, 7.402327061145002], [6.427671908132083, 7.410523890565173], [6.428203108886407, 7.415325460901329], [6.423872950576254, 7.417540847232374], [6.379771711895046, 7.398233711416708], [6.356912778302103, 7.414877315235969], [6.295480889731323, 7.499175627852992], [6.292051954634076, 7.500369628955241], [6.288040800242811, 7.500985703227684], [6.281152887295946, 7.501041969311473], [6.267814157997066, 7.481779099026255], [6.226923943285385, 7.47103691122453], [6.219553444236112, 7.457786794824756], [6.186916827749428, 7.438720226757084], [6.186306953403232, 7.435811044044499], [6.186272144244128, 7.432896137147054], [6.182785033802304, 7.429427147145191], [6.179922104121829, 7.430033206567259], [6.175953865378631, 7.434145927692441], [6.174274921050824, 7.437656879161693], [6.173170090427391, 7.441164018404777], [6.170909881885564, 7.444097042144847], [6.159730580402027, 7.447554456972682], [6.142848015023901, 7.44957208598305], [6.118698119922328, 7.446270942749834], [6.112411976631449, 7.448655128231621], [6.108257771578963, 7.484245776621322], [6.108881949642296, 7.488321781125364], [6.108335972127463, 7.490657806112893], [6.110102176774092, 7.494141101630589], [6.150588988890775, 7.518876075870253], [6.166984081250405, 7.54524647714328], [6.165878772187625, 7.548480033626674], [6.164177895193745, 7.550241947607844], [6.133570670849849, 7.552076817291322], [6.118761062573014, 7.59141683641792], [6.098731040904852, 7.588197231117363], [6.069608927310185, 7.583516249075672], [6.048503875853214, 7.580123900197862], [6.028888225811045, 7.565337180566473], [6.023499010570902, 7.547309875350493], [6.021168232228206, 7.544414997254364], [6.017077922208387, 7.538619041135917], [6.012996197116877, 7.53340578095208], [5.99454879788874, 7.527143955329336], [5.975643158105299, 7.53021287922104], [5.965109825258253, 7.513978003781915], [5.962800026300215, 7.512831210791774], [5.959945202209383, 7.514019966148567], [5.954218864409086, 7.515233040972134], [5.948134898606725, 7.487301826717953], [5.95325803772829, 7.483763218397883], [5.963303089066358, 7.460363865100362], [5.984490870956961, 7.456110001675313], [5.986714840417619, 7.450263977600514], [5.987259866449733, 7.447926998432308], [5.987216949003027, 7.444429874039486], [5.987182139843924, 7.441515923121415], [5.975586891122191, 7.432283877798795], [5.968483924193777, 7.414854050673966], [5.979677200242634, 7.391446114246833], [5.974884985553672, 7.375164031594807], [5.975996017002615, 7.372240067625057], [5.978241920028609, 7.368141173576362], [5.981091021733334, 7.366368771701502], [5.986794949327475, 7.363408089311918], [5.987339973561006, 7.361072063425013], [5.986731051596792, 7.35816192563243], [5.986694813414942, 7.355247973814983], [5.980875968651105, 7.348884106616254], [5.97856617059233, 7.347735881905464], [5.919308186223873, 7.337144852153244], [5.916209221378494, 7.318517208102719], [5.924582004955596, 7.299211978849769], [5.909392834211985, 7.277768134791643], [5.931923865993667, 7.260058880213194], [5.967329978895464, 7.247460842443957], [5.987348080049912, 7.226404190700862], [5.987468227676629, 7.226380855991749], [5.991885184953389, 7.225522993591312], [5.997323036429009, 7.226498127586581], [6.002754210438525, 7.229321003261759], [6.005465983868135, 7.232118130447418], [6.010003089670874, 7.231236935136508], [6.011809422966564, 7.229419870230856], [6.012732027561071, 7.22849178157054], [6.019067763966177, 7.232246875592864], [6.021770000085496, 7.237814903035371], [6.024481772615786, 7.240612030221087], [6.033549786093829, 7.240697860617843], [6.04081106158128, 7.238918780377446], [6.066176889551855, 7.246550082820136], [6.070720196180162, 7.243821144030619], [6.075263022570482, 7.241093159421837], [6.100776196364393, 7.202536106256332], [6.10531902365409, 7.199807166567552], [6.1144018165906, 7.195273876588203], [6.12439107938485, 7.190750122120505], [6.148898124948573, 7.183590889108302], [6.161640166660391, 7.168931961341002], [6.18031787956653, 7.112758159661382], [6.184488773338273, 7.112796782845294], [6.198979855236189, 7.118476867613424], [6.22606706564261, 7.15568494940095], [6.229671000716166, 7.16310882591165], [6.237775803410671, 7.180737971580186], [6.256732941072414, 7.207706928332129]]]}}, {"type": "Feature", "properties": {"name": "Oredo", "state": "ed"}, "geometry": {"type": "Polygon", "coordinates": [[[5.644706769901575, 6.370216555449701], [5.641864776438354, 6.364009857369069], [5.639160155316972, 6.359364985805485], [5.637354850845725, 6.356576920188786], [5.606111280611174, 6.35560822803734], [5.60067915242098, 6.352785352362162], [5.598683883254637, 6.352042566311411], [5.596364731347307, 6.350369947814897], [5.586665153673948, 6.327459812220582], [5.569474220658833, 6.315288066591052], [5.560441017239214, 6.304117203446253], [5.558637141790712, 6.301329136030859], [5.551420211873335, 6.289250852444923], [5.528788089998386, 6.277204037036711], [5.490911007037369, 6.2110800741861], [5.488214015764243, 6.203663826624336], [5.485517979571171, 6.196248055703279], [5.480128764331084, 6.179568767684543], [5.463652646652349, 6.098546466746086], [5.480899848449269, 6.09316631397428], [5.486334838282232, 6.095066511310506], [5.493586578258032, 6.096058332226278], [5.499029672781205, 6.095186195786368], [5.506298579016232, 6.090635262007766], [5.509022749600263, 6.089738331259014], [5.512649574218528, 6.089772188036079], [5.516268768089219, 6.092578373193419], [5.5707240103049, 6.207217216201627], [5.576147078724773, 6.212810993032974], [5.578862190437803, 6.214684010158976], [5.58339023557096, 6.216574191745622], [5.606956958996534, 6.219569205754283], [5.615109921285864, 6.222416878436263], [5.61782980030506, 6.222443103566434], [5.621446133432357, 6.226171969760628], [5.624148845293007, 6.231740952283189], [5.627758980292754, 6.237318038596641], [5.632225036955958, 6.258606910580511], [5.62759113262473, 6.289971828137425], [5.629313945881961, 6.318625927344726], [5.637392997388986, 6.344567775582448], [5.641690359222764, 6.349001174264856], [5.641911982751878, 6.349229813405202], [5.648239136027371, 6.355757235807857], [5.644706769901575, 6.370216555449701]]]}}, {"type": "Feature", "properties": {"name": "Egor", "state": "ed"}, "geometry": {"type": "Polygon", "coordinates": [[[5.641586850852548, 6.414154127411109], [5.612698078053882, 6.410847187148022], [5.58008003166816, 6.40222406468888], [5.574660550643955, 6.400330240848007], [5.574645041835254, 6.400324820634012], [5.568317888559761, 6.393798828153422], [5.544860839256387, 6.355700969724012], [5.525872230718903, 6.33889293655983], [5.528788089998386, 6.277204037036711], [5.551420211873335, 6.289250852444923], [5.558637141790712, 6.301329136030859], [5.560441017239214, 6.304117203446253], [5.569474220658833, 6.315288066591052], [5.586665153673948, 6.327459812220582], [5.596364731347307, 6.350369947814897], [5.598683883254637, 6.352042566311411], [5.60067915242098, 6.352785352362162], [5.606111280611174, 6.35560822803734], [5.637354850845725, 6.356576920188786], [5.639160155316972, 6.359364985805485], [5.641864776438354, 6.364009857369069], [5.644706769901575, 6.370216555449701], [5.641586850852548, 6.414154127411109]]]}}, {"type": "Feature", "properties": {"name": "Ovia South-West", "state": "ed"}, "geometry": {"type": "Polygon", "coordinates": [[[5.270169735345064, 6.054296017047591], [5.290505885338405, 6.06535577794682], [5.291267395274133, 6.072399616249356], [5.289934635075383, 6.077730178604895], [5.281558514114181, 6.078301429767237], [5.27394342375004, 6.080776214750585], [5.269134044600548, 6.087039947835365], [5.271087644579154, 6.098481177764199], [5.277560711058015, 6.1051440245771], [5.280606269663679, 6.108380317697538], [5.282890796772904, 6.114282130316099], [5.282129287736495, 6.139030933430888], [5.28688859892975, 6.144742012433994], [5.295074939556855, 6.144361495786427], [5.306687832077841, 6.144361495786427], [5.314302920643343, 6.145693779344469], [5.320585250808733, 6.144742012433994], [5.322806383807631, 6.144081626765683], [5.327629089111213, 6.142647743198836], [5.330484389842752, 6.144742012433994], [5.332007407915569, 6.149501325425888], [5.339622498279709, 6.156545161929728], [5.344191551598897, 6.157687664254354], [5.351235389901376, 6.163589001131527], [5.36698913613975, 6.189146996236957], [5.3684167856062, 6.200093268989235], [5.35794591876919, 6.212943554001868], [5.350093365116777, 6.234360695389853], [5.351853370736535, 6.238689900418592], [5.352710724120698, 6.241261958772441], [5.374603748064544, 6.260775566339362], [5.389833926994186, 6.267914294808918], [5.401256560741729, 6.282668591182585], [5.41577243784775, 6.285048007559567], [5.434571742691844, 6.277194977266447], [5.450039864248367, 6.283144474637822], [5.454561234613323, 6.291949272740794], [5.458844662351339, 6.297184465590647], [5.463603974443913, 6.299802303033914], [5.466697692644459, 6.302657603765454], [5.468230546602513, 6.317473223110824], [5.432705000135684, 6.325159000187739], [5.416780999643493, 6.339023000111411], [5.407238000233576, 6.376512000428534], [5.407732999678217, 6.378576999429015], [5.408981999719572, 6.38454899963665], [5.41086782858747, 6.38275133940283], [5.413009343706278, 6.381894731556656], [5.44184841097541, 6.379610449962342], [5.442306041790459, 6.3816633234037], [5.442543984417398, 6.388564110145637], [5.440402030429425, 6.38951635369682], [5.43588066096379, 6.391181945790208], [5.434690951426319, 6.394751549244631], [5.435166835780876, 6.398797035255029], [5.438022614052443, 6.399510860437886], [5.440423964894137, 6.403673171979335], [5.449389934997555, 6.436090947439311], [5.469263077129369, 6.460298061006768], [5.466522216926819, 6.466738223989921], [5.466509819772398, 6.47043323430637], [5.466498853439361, 6.474127768881488], [5.478210925893563, 6.498257160339733], [5.47910022679406, 6.503808022422334], [5.479994773440069, 6.507512093408423], [5.480886935983335, 6.512138843632783], [5.483185486221259, 6.512551429205132], [5.486324786559692, 6.513114928211394], [5.489954948562058, 6.512226104850924], [5.494441986408617, 6.527049065362121], [5.496246814239157, 6.529837131878196], [5.495351182111392, 6.531641810421263], [5.493508815679377, 6.535354136284411], [5.486242771087063, 6.538980007621319], [5.480786800070803, 6.543547152579094], [5.477146148376107, 6.548131943134706], [5.472579001619692, 6.558249950175082], [5.471661090586906, 6.561936854902001], [5.467101097038039, 6.570208074443144], [5.442582130061282, 6.581060886051091], [5.438038826130992, 6.58378887155925], [5.433486938171711, 6.589289188145585], [5.409669875864154, 6.664813994570238], [5.386900902354796, 6.696006774692933], [5.384905041434536, 6.701364453406825], [5.384157181408852, 6.703372001916421], [5.381394861583658, 6.716279029653549], [5.382287979206922, 6.72090578077723], [5.386784076823744, 6.73295688595158], [5.392200947116066, 6.740398883801504], [5.394908904722229, 6.7441201201475], [5.422928810116559, 6.773023129214096], [5.443592071417015, 6.834187983888398], [5.447193146646441, 6.842535973156657], [5.454414844769303, 6.852766991703334], [5.461596012246218, 6.87541583287441], [5.459748745408319, 6.885469943982798], [5.436575843200671, 6.885825662724187], [5.272408009422122, 6.888345749256985], [5.254822253344344, 6.882708581036241], [5.208868503878421, 6.810784644795547], [5.201615809721886, 6.780433655289016], [5.197015762167723, 6.773944855170953], [5.172970293644198, 6.762731074579449], [5.166505813892229, 6.758078574966305], [5.15635299679343, 6.749711990416074], [5.150810717840386, 6.745987890628726], [5.122329711147302, 6.698738574225843], [5.115957738358986, 6.677465916119161], [5.111542702034114, 6.637736797215496], [5.111583710220089, 6.630350113067323], [5.112531184666466, 6.626662254159726], [5.114416598946946, 6.621132374159799], [5.128054143284146, 6.588160992236055], [5.140639782100322, 6.574186325338701], [5.147155763327874, 6.56960534970716], [5.154583454762701, 6.56780004523597], [5.162112236290739, 6.561973094882489], [5.161934377369676, 6.559301376357496], [5.162497215374231, 6.558132467239602], [5.164249896915237, 6.554492473848654], [5.162290572751772, 6.552176951605077], [5.160687446668362, 6.549861907800846], [5.162290572751772, 6.546477794914324], [5.161221981209508, 6.543806077288707], [5.160331250386946, 6.539175510341579], [5.157125473062194, 6.53614759373653], [5.155166148898729, 6.533119678030744], [5.154809951717937, 6.52902317078275], [5.154809951717937, 6.518871307864629], [5.153028965814144, 6.515487194078787], [5.150357246389831, 6.51174688311221], [5.153385162095617, 6.498033046587864], [5.133615494159756, 6.472563744421336], [5.128806590751594, 6.468467236273966], [5.123463631241634, 6.462768078683951], [5.117407798930799, 6.459027765918734], [5.102768742583464, 6.441383590780163], [5.102590880964442, 6.437821617173938], [5.104906403207963, 6.436396826652299], [5.107577644192986, 6.434972037029922], [5.103659474305346, 6.421257723864926], [5.107043587191868, 6.418230284799847], [5.108290040353154, 6.416270962435021], [5.109536968356451, 6.413777578572422], [5.109358630996098, 6.411639917947923], [5.106687389111755, 6.408612478882844], [5.103693484866483, 6.402212143275847], [5.098885058998349, 6.397403239867685], [5.091582297784839, 6.392238140178051], [5.086036204807044, 6.389211655293707], [5.075731277276645, 6.377276897211061], [5.071278571948596, 6.37656450284959], [5.066113472258962, 6.37656450284959], [5.052824974592966, 6.384150982182121], [5.049193381769214, 6.382441997800015], [5.043849944719227, 6.366590977291821], [5.039219378671419, 6.36409711858721], [5.032392979352551, 6.364906788117821], [5.02924537737232, 6.363563060686772], [5.027820586850623, 6.345218182373287], [5.035301207884459, 6.328475951703865], [5.030136108194881, 6.323132992193905], [5.021523476327445, 6.318678856044414], [5.019684315079132, 6.315898417577955], [5.015364647360627, 6.30897378890927], [5.012897014685507, 6.302100182377558], [5.013073444583824, 6.298575401133917], [5.015618801166795, 6.292353152875762], [5.015663061301268, 6.292300798842859], [5.021533011839097, 6.285357475067485], [5.029640197736967, 6.279189109689696], [5.035061358694804, 6.278010368283901], [5.037746906094867, 6.277426719967195], [5.041041851200532, 6.274275303062836], [5.04796886397196, 6.264913559313356], [5.048261087878927, 6.263634915818784], [5.049030304105315, 6.260269165289799], [5.049714088334554, 6.251429558027723], [5.053448200274261, 6.246833323599049], [5.057486056436403, 6.247641563207651], [5.060573100768011, 6.248004913595935], [5.063478468556525, 6.248346806160214], [5.066298007746923, 6.245526791228485], [5.069470405834636, 6.24253082303909], [5.073347569334885, 6.239534854849694], [5.073347569334885, 6.234776020297147], [5.072933674349656, 6.231186389840047], [5.073736190672719, 6.228851795673904], [5.075851440191855, 6.226736546154712], [5.078811169300081, 6.222615719439943], [5.077929973989171, 6.220148087664143], [5.07454586020333, 6.217686175576603], [5.075622559133819, 6.213434218714269], [5.081807613230808, 6.218033313886394], [5.085182667246329, 6.216088295238706], [5.087235928295513, 6.214525699801243], [5.086137772440281, 6.207841872704307], [5.088472365707162, 6.204339981005376], [5.089201927227236, 6.201057433953451], [5.092422961550483, 6.198280333770413], [5.095841407854721, 6.197087765288188], [5.098225594235828, 6.198143482136061], [5.099816798906204, 6.20217609435133], [5.103156089581944, 6.20217609435133], [5.10482549659946, 6.200029373057191], [5.109939575051385, 6.195427894681643], [5.112825870917277, 6.19547414771381], [5.113859653300381, 6.199817180718355], [5.115489959594015, 6.206108569754747], [5.117625237015147, 6.20694637277694], [5.119923592100122, 6.207008838786919], [5.122467995401735, 6.205872058848513], [5.128687382017119, 6.189658642132656], [5.13133096705053, 6.188953400079413], [5.133265017566544, 6.188217640431787], [5.135913371704817, 6.18666219730261], [5.135737419346469, 6.182256221647378], [5.132036209103831, 6.180846214181486], [5.137146950171655, 6.176264286167907], [5.137675762326637, 6.173091888080194], [5.133446216569666, 6.172210692769283], [5.134438283899726, 6.169372793020045], [5.133102417442672, 6.164677619676468], [5.138694515239763, 6.159017427012714], [5.14177535964518, 6.154955252283116], [5.143491745447761, 6.151237964860229], [5.142962932393459, 6.143306732219969], [5.145542144854176, 6.141641616767231], [5.154594897736388, 6.14418792663156], [5.157862185991121, 6.146707058084303], [5.161456108012999, 6.142713546592972], [5.164251804377329, 6.159086703588571], [5.168694495754437, 6.16357469561575], [5.181912421820869, 6.156877518083036], [5.182441234875114, 6.154410362048623], [5.180645938059627, 6.149358471716141], [5.184027194699297, 6.147360324719273], [5.189668158958398, 6.151941794977915], [5.193720817961434, 6.151766300374504], [5.195835589041224, 6.150885105063594], [5.198831557230619, 6.147007941563288], [5.20259395824462, 6.145440536551575], [5.205974674391769, 6.147819651655652], [5.206199935678512, 6.151631590025886], [5.210404636764622, 6.153056126938736], [5.217590101202234, 6.14914441598205], [5.222382314092556, 6.147946124214286], [5.222781903562066, 6.143952612722956], [5.218388802601226, 6.140757804429199], [5.217190988373488, 6.135566001170048], [5.233738898931108, 6.112362385315862], [5.234040821127053, 6.064757327688596], [5.240031325785083, 6.061562520294103], [5.24631365684985, 6.062878589975014], [5.249888026711119, 6.063346843581996], [5.257602775447765, 6.064357739118407], [5.270169735345064, 6.054296017047591]]]}}, {"type": "Feature", "properties": {"name": "Etsako East", "state": "ed"}, "geometry": {"type": "Polygon", "coordinates": [[[6.715768813679858, 7.122821331439354], [6.715768813679858, 7.135699272403542], [6.700792788556384, 7.178488255428704], [6.699958250073223, 7.185859474834956], [6.693305016113641, 7.216476058423382], [6.69015741323409, 7.219050979319263], [6.685336431930864, 7.223010159191517], [6.683232783666085, 7.229867076104711], [6.678113937008618, 7.231113051726027], [6.674722195173217, 7.232915018813117], [6.669155121012068, 7.239996051276819], [6.645201093755531, 7.281267399570879], [6.637670039640682, 7.294242953849277], [6.632309913871495, 7.292330837797977], [6.601942990176894, 7.283839002867751], [6.569521904312467, 7.275294782428318], [6.556313038016356, 7.274819851355119], [6.547352468341785, 7.274893585870359], [6.544260025379913, 7.274919033086974], [6.511441232327059, 7.26702499370856], [6.499695778837179, 7.292187215167871], [6.497326851253206, 7.33301019656335], [6.485763073407156, 7.341996192770125], [6.466869830778137, 7.36531877544121], [6.450531959582293, 7.355543136706444], [6.442511081621149, 7.35677385263125], [6.438507080437432, 7.357973098579691], [6.435657977833444, 7.359745025612483], [6.434604168447663, 7.367331981585721], [6.434676169969293, 7.373159885220559], [6.434144020430267, 7.376661776919491], [6.422241210763332, 7.388999939395717], [6.432106018178217, 7.397664070040832], [6.432164191724098, 7.402327061145002], [6.413041114755686, 7.388401985563235], [6.381350040072334, 7.3733220096031], [6.368719102404725, 7.352879047130386], [6.340692997084204, 7.325822830059622], [6.29524183284434, 7.36049699823792], [6.276193140600981, 7.362164021152694], [6.27435586613035, 7.361834525742836], [6.270755766665332, 7.361188888956121], [6.268043995034418, 7.358391761770463], [6.266251086818272, 7.351908207397912], [6.26627206800157, 7.345441818385268], [6.270891190176314, 7.318696022103779], [6.266056383595298, 7.28482615989941], [6.258184675282564, 7.276795491918449], [6.261565003821943, 7.252906232936368], [6.263539136222221, 7.245527518580161], [6.262113093844278, 7.227158069889072], [6.26033401540252, 7.216054916701069], [6.256732941072414, 7.207706928332129], [6.264008999615669, 7.201310159436332], [6.273087979426748, 7.19770097681868], [6.283073902138938, 7.194099903387894], [6.35837411907039, 7.183728218282681], [6.388321876853183, 7.17662000740745], [6.424636841017445, 7.163107871730972], [6.431891918377403, 7.163177013408472], [6.440954207670586, 7.165110110643127], [6.505383015014161, 7.150938987744155], [6.535466193609977, 7.101339816579298], [6.53646993593884, 7.070864200822257], [6.529308796363921, 7.041234970317703], [6.528458117747959, 7.023674966326666], [6.556632996115923, 7.003619194370344], [6.602930068967567, 6.98835277725891], [6.655547141887155, 6.981461047589335], [6.660261630869627, 6.97931003562968], [6.664295002112681, 6.977758661932739], [6.679260254257372, 6.972002506210742], [6.677258967727255, 7.0340757373055], [6.683835505704053, 7.051613808630407], [6.690095424764081, 7.068306922826253], [6.710595181222686, 7.103155778916118], [6.711490154147327, 7.104677200692322], [6.714948703919617, 7.117647627036433], [6.715768814579178, 7.120723248179388], [6.715768813679858, 7.122821331439354]]]}}, {"type": "Feature", "properties": {"name": "Ovia North-East", "state": "ed"}, "geometry": {"type": "Polygon", "coordinates": [[[5.442778489835462, 6.041352430969937], [5.463652646652349, 6.098546466746086], [5.480128764331084, 6.179568767684543], [5.485517979571171, 6.196248055703279], [5.488214015764243, 6.203663826624336], [5.490911007037369, 6.2110800741861], [5.528797149768707, 6.274256229341574], [5.525872230718903, 6.33889293655983], [5.544860839256387, 6.355700969724012], [5.574645041835254, 6.400324820634012], [5.612698078053882, 6.410847187148022], [5.619046210714089, 6.410906792414607], [5.624484061290445, 6.41188192371186], [5.629012108222241, 6.413773060378503], [5.632641792684637, 6.412884235219337], [5.636931968035924, 6.412047935863598], [5.641586850852548, 6.414154127411109], [5.644175123982848, 6.415812089656242], [5.638906955691482, 6.438808918097152], [5.640699863008308, 6.445291995828995], [5.642501830994775, 6.449005126585348], [5.644300938237734, 6.453639984197935], [5.647916793825004, 6.457369803673544], [5.650625228971194, 6.461091041818179], [5.654238223815014, 6.46574401897135], [5.686773777188137, 6.50023221994104], [5.712829866305356, 6.521361992861728], [5.718256272109329, 6.526032137173445], [5.723683156352649, 6.530701803045815], [5.757166184172092, 6.552266764199828], [5.765301026021575, 6.560658143958221], [5.769818104821752, 6.566242861019248], [5.795994080762284, 6.604366946377525], [5.813230038335632, 6.657549858339337], [5.829041628068751, 6.691777694784832], [5.831593150403592, 6.702164603613596], [5.833383196977024, 6.709571315663709], [5.836077326607381, 6.717910244262384], [5.839681261680937, 6.725335551594469], [5.844200247943149, 6.72999758941728], [5.846885316903922, 6.741108370654842], [5.849585169819761, 6.747600509955646], [5.8531423752205, 6.769804432228796], [5.859466190212572, 6.777254535668362], [5.86325257074958, 6.782498156065117], [5.870091733246966, 6.797244866657309], [5.797325134047753, 6.81167221180317], [5.772913932831784, 6.788345813308695], [5.726479529906442, 6.769490719021519], [5.723659514974656, 6.766651153727821], [5.719102858809947, 6.762063502428759], [5.714492798204105, 6.757421016766557], [5.711441993852986, 6.751975059701294], [5.702557562581489, 6.736117364424899], [5.671635221188581, 6.728642817412151], [5.670420600430418, 6.728349218441736], [5.667370796125397, 6.727612018979528], [5.640374659163228, 6.746853352300434], [5.636665820870974, 6.746832848657107], [5.629253387334018, 6.745868206152863], [5.620002270088719, 6.74212360542009], [5.612620830786739, 6.735619068065603], [5.607646579825825, 6.731236356072998], [5.605238913944788, 6.729115009150405], [5.582198142830066, 6.704056263685686], [5.576634883593044, 6.704025745192041], [5.573838233947413, 6.70677995762901], [5.571025847964563, 6.71230459188348], [5.564489364892324, 6.720578670369378], [5.56276303888319, 6.72619489337967], [5.561655997726177, 6.72979641017622], [5.561419962561274, 6.772269725767273], [5.543577670373224, 6.812798976891315], [5.543556690089247, 6.816492558185075], [5.54351091369773, 6.824802399111491], [5.546266555157445, 6.829434395980627], [5.546614039706242, 6.829901189088673], [5.549027442362615, 6.833143234272882], [5.553647993560105, 6.835938930637212], [5.559206009749573, 6.83689308165043], [5.563836574898062, 6.837841987817512], [5.566607952694937, 6.839704037711215], [5.571213244195917, 6.845269680151659], [5.572089194660634, 6.854508399343217], [5.570152283401228, 6.869271277947178], [5.555240153310478, 6.883038998251209], [5.547441483437751, 6.883792877439419], [5.537059784381597, 6.884796618868904], [5.459748745408319, 6.885469943982798], [5.461596012246218, 6.87541583287441], [5.454414844769303, 6.852766991703334], [5.447193146646441, 6.842535973156657], [5.443592071417015, 6.834187983888398], [5.422928810116559, 6.773023129214096], [5.394908904722229, 6.7441201201475], [5.392200947116066, 6.740398883801504], [5.386784076823744, 6.73295688595158], [5.382287979206922, 6.72090578077723], [5.381394861583658, 6.716279029653549], [5.384157181408852, 6.703372001916421], [5.384905041434536, 6.701364453406825], [5.386900902354796, 6.696006774692933], [5.409669875864154, 6.664813994570238], [5.433486938171711, 6.589289188145585], [5.438038826130992, 6.58378887155925], [5.442582130061282, 6.581060886051091], [5.467101097038039, 6.570208074443144], [5.471661090586906, 6.561936854902001], [5.472579001619692, 6.558249950175082], [5.477146148376107, 6.548131943134706], [5.480786800070803, 6.543547152579094], [5.486242771087063, 6.538980007621319], [5.493508815679377, 6.535354136284411], [5.495351182111392, 6.531641810421263], [5.496246814239157, 6.529837131878196], [5.494441986408617, 6.527049065362121], [5.489954948562058, 6.512226104850924], [5.486324786559692, 6.513114928211394], [5.483185486221259, 6.512551429205132], [5.480886935983335, 6.512138843632783], [5.479994773440069, 6.507512093408423], [5.47910022679406, 6.503808022422334], [5.478210925893563, 6.498257160339733], [5.466498853439361, 6.474127768881488], [5.466509819772398, 6.47043323430637], [5.466522216926819, 6.466738223989921], [5.469263077129369, 6.460298061006768], [5.449389934997555, 6.436090947439311], [5.440423964894137, 6.403673171979335], [5.438022614052443, 6.399510860437886], [5.435166835780876, 6.398797035255029], [5.434690951426319, 6.394751549244631], [5.43588066096379, 6.391181945790208], [5.440402030429425, 6.38951635369682], [5.442543984417398, 6.388564110145637], [5.442306041790459, 6.3816633234037], [5.44184841097541, 6.379610449962342], [5.413009343706278, 6.381894731556656], [5.41086782858747, 6.38275133940283], [5.408981999719572, 6.38454899963665], [5.407732999678217, 6.378576999429015], [5.407238000233576, 6.376512000428534], [5.416780999643493, 6.339023000111411], [5.432705000135684, 6.325159000187739], [5.468230546602513, 6.317473223110824], [5.466697692644459, 6.302657603765454], [5.463603974443913, 6.299802303033914], [5.458844662351339, 6.297184465590647], [5.454561234613323, 6.291949272740794], [5.450039864248367, 6.283144474637822], [5.434571742691844, 6.277194977266447], [5.41577243784775, 6.285048007559567], [5.401256560741729, 6.282668591182585], [5.389833926994186, 6.267914294808918], [5.374603748064544, 6.260775566339362], [5.370796204681142, 6.257205962884939], [5.366512775144486, 6.252208709964066], [5.357470036213272, 6.246021270865015], [5.352710724120698, 6.241261958772441], [5.351853370736535, 6.238689900418592], [5.350093365116777, 6.234360695389853], [5.35794591876919, 6.212943554001868], [5.368654728233196, 6.197713852612253], [5.361135005576102, 6.177105904114228], [5.356565951357595, 6.171013831822904], [5.351235389901376, 6.163589001131527], [5.344191551598897, 6.157687664254354], [5.339622498279709, 6.156545161929728], [5.332007407915569, 6.149501325425888], [5.330484389842752, 6.144742012433994], [5.327629089111213, 6.142647743198836], [5.322806383807631, 6.144081626765683], [5.320585250808733, 6.144742012433994], [5.314302920643343, 6.145693779344469], [5.306687832077841, 6.144361495786427], [5.295074939556855, 6.144361495786427], [5.28688859892975, 6.144742012433994], [5.282129287736495, 6.139030933430888], [5.282890796772904, 6.114282130316099], [5.280606269663679, 6.108380317697538], [5.277560711058015, 6.1051440245771], [5.271087644579154, 6.098481177764199], [5.269134044600548, 6.087039947835365], [5.27394342375004, 6.080776214750585], [5.281558514114181, 6.078301429767237], [5.289934635075383, 6.077730178604895], [5.291267395274133, 6.072399616249356], [5.290505885338405, 6.06535577794682], [5.26826906226745, 6.052536011427833], [5.248584974716834, 5.984231742101258], [5.249889601424002, 5.967705042953412], [5.254238832556098, 5.954657347758427], [5.256848086869752, 5.947698863211997], [5.264241924225473, 5.940739902024916], [5.269026029727513, 5.936826021903414], [5.270486105149701, 5.916543277250469], [5.272552902794303, 5.91288251761415], [5.275984516072583, 5.906816275650669], [5.292076815692553, 5.909860881874238], [5.30512403424683, 5.917254241689932], [5.315937270288828, 5.932292731924065], [5.358699322216012, 5.969638347931436], [5.345217228392414, 5.975292205770756], [5.339998245822414, 5.98268556738509], [5.336518764329583, 5.984425546002171], [5.32695054972811, 5.98268556738509], [5.326080799189583, 5.990079402942115], [5.32695054972811, 5.994428634973588], [5.323036193865278, 6.00530147628217], [5.32738542589675, 6.018349170577835], [5.334343908644541, 6.021393299261376], [5.340436443187343, 6.020022534612337], [5.344359383079109, 6.017407083070452], [5.358711704081941, 6.018712187317647], [5.367845043414093, 6.020886563664021], [5.380022511429786, 6.020451689294077], [5.390411839434876, 6.019026898772381], [5.394340023273514, 6.020416402594947], [5.401897891574492, 6.023089551941325], [5.413356766201844, 6.02145256998017], [5.4180312002797, 6.011584425181127], [5.417561039210625, 6.009370470570786], [5.428089602952866, 6.00704731937833], [5.433328135884835, 6.009993696252138], [5.433655246292631, 6.01424994467925], [5.433328135884835, 6.019160889663397], [5.429398997865519, 6.024726533902481], [5.429726584914022, 6.031929159203401], [5.435651287077292, 6.036219740148965], [5.439220889632395, 6.038804674995788], [5.442778489835462, 6.041352430969937]]]}}]}