{"type": "FeatureCollection", "features": [{"type": "Feature", "properties": {"name": "Udenu", "state": "en"}, "geometry": {"type": "Polygon", "coordinates": [[[7.688128414794562, 6.852689158977569], [7.674552917383267, 6.855517387417535], [7.661678928939466, 6.865325857702203], [7.658010006156928, 6.868121146673616], [7.646193981067427, 6.885451793865229], [7.638514216857686, 6.899038795404124], [7.635952950368392, 6.903570175223479], [7.620197773308632, 6.919325352283238], [7.599716186752687, 6.924839496845379], [7.596224149824707, 6.926086701839893], [7.577659130064831, 6.932717323245924], [7.57135725043679, 6.939806938839183], [7.564267159102144, 6.952411174735971], [7.558611366821196, 6.972521040913364], [7.557177544408205, 6.977619170788159], [7.555215137368748, 6.980562781347317], [7.548971007705916, 6.96888370142176], [7.548723585325263, 6.964669747211133], [7.546749459220223, 6.963064406996807], [7.543472756862286, 6.960661724259239], [7.539959843072324, 6.960154217942829], [7.534706855337163, 6.958897804789899], [7.53122873182059, 6.961855377323843], [7.519929377139078, 6.964865722075444], [7.522149476816935, 6.947651856348159], [7.519465275701975, 6.940422827851251], [7.519559798046316, 6.938551017615396], [7.503381121241773, 6.930326442311525], [7.502063621638854, 6.926163440090761], [7.500522162967513, 6.926549587393595], [7.494989953723461, 6.925648249067478], [7.492481605142018, 6.925084144817504], [7.47564326212688, 6.91099592682059], [7.480175133875377, 6.903102984615089], [7.481167608598298, 6.884885569013875], [7.458111522029185, 6.87646077584418], [7.454671531565964, 6.877857039870548], [7.449396398025385, 6.881173346572723], [7.441378958172436, 6.880159110954253], [7.436400787966022, 6.870178330565579], [7.432918991618237, 6.871518467003682], [7.420257185620642, 6.863298727354447], [7.42860652207338, 6.857830152339716], [7.428944018751508, 6.857048143257259], [7.427756120448635, 6.852941852284687], [7.428101743400759, 6.849608816393811], [7.45828996640887, 6.82416953809377], [7.485751900929529, 6.82016624287786], [7.492482800341008, 6.815520897371584], [7.499186258738916, 6.812528760294128], [7.507062565285196, 6.809828889391781], [7.554216910581999, 6.809053234918906], [7.569582750443601, 6.804008317929572], [7.578609768326203, 6.794196162223159], [7.60438512507352, 6.780977921394026], [7.61849469387505, 6.813385101041604], [7.62043053134397, 6.831197232666227], [7.619704977202957, 6.834143670693891], [7.61816080707564, 6.839222862645045], [7.61648922459807, 6.842335144651258], [7.618809417920374, 6.842592785129], [7.621143076791611, 6.841764237929283], [7.653495279983247, 6.816965517045048], [7.661870790304761, 6.817857277591315], [7.669702457202675, 6.816330970697777], [7.688128414794562, 6.852689158977569]]]}}, {"type": "Feature", "properties": {"name": "Enugu South", "state": "en"}, "geometry": {"type": "Polygon", "coordinates": [[[7.579084738070264, 6.393852334217911], [7.572471292815976, 6.413444988595415], [7.583593419001147, 6.425879996364813], [7.584482673136904, 6.426090113967632], [7.584767990250612, 6.425378192649532], [7.587528798315418, 6.424435641092032], [7.593676503567849, 6.437587396840968], [7.59135381642551, 6.438967268924387], [7.588241218757275, 6.439544476296589], [7.587402530802194, 6.439682525827948], [7.583857927601343, 6.445966510745905], [7.577388787562541, 6.440312631322911], [7.576136423157436, 6.440300444609875], [7.572929893100138, 6.441429433721453], [7.569676183708964, 6.440858454154409], [7.568870255358036, 6.443991238904573], [7.567830779367, 6.444876241945053], [7.565341126791623, 6.443235004391966], [7.562039017686573, 6.444817365129325], [7.558447694705421, 6.447585140242097], [7.557030312798759, 6.451577443044584], [7.552959188016189, 6.452435458329774], [7.543306961447172, 6.455372055076339], [7.539944336961639, 6.45454010484201], [7.539135557759835, 6.448466029783503], [7.539358248784197, 6.43727552184788], [7.537440377071789, 6.423001905013962], [7.535685604607011, 6.420294968138307], [7.530883083687399, 6.415053545684657], [7.515056724388387, 6.418393074680694], [7.504241665420579, 6.415022475906596], [7.497787776085033, 6.4247696250182], [7.496786128277222, 6.42644612319009], [7.497230241382567, 6.432501451880569], [7.490808713251567, 6.433849317092381], [7.484285361180525, 6.430638082681412], [7.47676419780953, 6.418135183292122], [7.469337682687978, 6.416787775835246], [7.463642092708483, 6.41143799856485], [7.459652282826653, 6.413279916235183], [7.451753684784762, 6.400153974626278], [7.460996907781123, 6.379308957642309], [7.463194224034282, 6.378441900573307], [7.469227075968831, 6.375480682187799], [7.483860071784932, 6.373982052829547], [7.491996534212717, 6.366926811123506], [7.507080717201404, 6.364815851370508], [7.516666736580703, 6.368212272378514], [7.546624156679513, 6.358563243798699], [7.556277218718719, 6.361064001202749], [7.566129142446016, 6.375359609158693], [7.566682718332856, 6.378293972888571], [7.567265658883116, 6.381858094075824], [7.568218453718714, 6.381765130256611], [7.570434145819206, 6.382700596055713], [7.572752580067572, 6.383569146898651], [7.579084738070264, 6.393852334217911]]]}}, {"type": "Feature", "properties": {"name": "Nkanu East", "state": "en"}, "geometry": {"type": "Polygon", "coordinates": [[[7.579084738070264, 6.393852334217911], [7.582353226020587, 6.392106037863414], [7.580548999836537, 6.364352999991013], [7.575877000223443, 6.360744999981819], [7.56996076337856, 6.359299596998824], [7.567956068417857, 6.355744285570381], [7.566528391072438, 6.349462507588726], [7.565766962975033, 6.340801270062627], [7.558074494042728, 6.340351442664996], [7.555165144955538, 6.340385424447845], [7.561130489280686, 6.331433981992745], [7.571042550673212, 6.331679279275363], [7.57633423803469, 6.32908410924432], [7.578644983079528, 6.327750151148621], [7.581052800946054, 6.326360156296232], [7.582123514888337, 6.326688360279661], [7.587633965035479, 6.326227148364239], [7.589088520418954, 6.32612010475907], [7.591029859940136, 6.334919616647028], [7.592763462363962, 6.337520286931749], [7.595052763973911, 6.339086419402804], [7.601135745018667, 6.336465996408663], [7.604833421824992, 6.337332260275616], [7.609571604346115, 6.34266136033358], [7.614601842601019, 6.347566341013874], [7.619006793029143, 6.350469143036548], [7.624062878698965, 6.350052060853955], [7.630269198165024, 6.344414408798002], [7.632264046448654, 6.341474793027317], [7.63919438131569, 6.332628778095682], [7.639089973623413, 6.327667627559038], [7.622633030390091, 6.290329726835466], [7.604066871189218, 6.291906089094766], [7.59328053926555, 6.277425519372287], [7.594168646765695, 6.273902143768964], [7.559723786823326, 6.266907047822031], [7.559688492030318, 6.257699011700083], [7.558990592042221, 6.245415971370051], [7.55633857226735, 6.233272510318159], [7.552011592161307, 6.225735188827969], [7.538709255727611, 6.217233643018233], [7.556865609160582, 6.208706024063815], [7.556900930033919, 6.208689222030046], [7.558682602120427, 6.207854039632252], [7.556897189753556, 6.201854164937799], [7.549987460153204, 6.173293468418876], [7.534673691038051, 6.174119154875143], [7.539226630304768, 6.150427870849626], [7.555142554885037, 6.128845879234007], [7.568126110431706, 6.135301364866166], [7.591446398932192, 6.137486459332706], [7.606924927443515, 6.133617688305719], [7.607091662650134, 6.1335760128228], [7.608484663936167, 6.138866488797476], [7.611500860576314, 6.142511060636991], [7.614705571305137, 6.143799228851378], [7.619512634700357, 6.142888086116329], [7.625207756133079, 6.140847972256154], [7.625119827617993, 6.135743149626705], [7.624013516710477, 6.130618713682736], [7.627341306855897, 6.122982943408147], [7.632520033073092, 6.118383609016405], [7.635108998681403, 6.111414007950145], [7.634304956208837, 6.109025247617126], [7.633713314717738, 6.101170558074841], [7.633765139049956, 6.100849615217612], [7.637923659949024, 6.093287616330485], [7.638011310573575, 6.093141356888168], [7.639480507819201, 6.09057407213578], [7.657992254439023, 6.075830475895771], [7.661893637581386, 6.061008690798474], [7.698079909660123, 6.073960314117244], [7.705869562030728, 6.078811233851411], [7.713829533406283, 6.083912410629296], [7.726202385431804, 6.11489963540987], [7.728725259862927, 6.199857766222976], [7.733001708861821, 6.226606369288561], [7.708934784312873, 6.277919292141689], [7.708068652646261, 6.29740293429802], [7.708026408791795, 6.29835319484414], [7.709595456864918, 6.30218974226284], [7.720968245688027, 6.331048011856296], [7.738677502065116, 6.353752612792903], [7.740666963409694, 6.35872615328941], [7.745212796233602, 6.370090481290731], [7.751392365365405, 6.385539055183301], [7.749121666231986, 6.447295665562592], [7.74637437407813, 6.461657618304514], [7.74183127339461, 6.494019999123736], [7.740042593790747, 6.501607402060017], [7.733774142862444, 6.528172457093262], [7.726122319689352, 6.560058200825381], [7.715835873227036, 6.568540525424964], [7.704551931126787, 6.578009192270429], [7.695288680228487, 6.577322717269624], [7.655484061440347, 6.566188005971753], [7.646333242884907, 6.569896646413156], [7.633762018402479, 6.567482435266243], [7.646456267442829, 6.560470709056005], [7.650161442796389, 6.553536375803162], [7.652608059214629, 6.549081548075037], [7.648977914299337, 6.537991710249287], [7.650604493802405, 6.527272330153949], [7.655988575712229, 6.526704934385236], [7.658065017686454, 6.524933883292135], [7.629931628641771, 6.488119720748557], [7.605646062715664, 6.477752848814987], [7.600586086578687, 6.464434678018051], [7.604080123598862, 6.459064445667707], [7.59591813211614, 6.425892993366972], [7.594810801377434, 6.428955271268819], [7.593714422582593, 6.429105099220976], [7.592635812592732, 6.431551995328391], [7.572471292815976, 6.413444988595415], [7.579084738070264, 6.393852334217911]]]}}, {"type": "Feature", "properties": {"name": "Igbo-Eze-South", "state": "en"}, "geometry": {"type": "Polygon", "coordinates": [[[7.484536246850382, 6.919978194438158], [7.477834222871138, 6.921225106253701], [7.473045612664919, 6.915423475413093], [7.466419985194193, 6.916550402379187], [7.460125149955729, 6.92917794060952], [7.458128719764659, 6.929658868362139], [7.452576678670823, 6.92348914770605], [7.450165559393099, 6.919430895819232], [7.447205832083512, 6.916983249677287], [7.443387450970135, 6.915889924080773], [7.440276174405994, 6.933769812426931], [7.42805458744931, 6.934407582843733], [7.427972858860414, 6.935799601170686], [7.428534774160539, 6.937552021009026], [7.4303302652296, 6.942095125289825], [7.424262898214238, 6.950882703174273], [7.423952594336811, 6.952130510714539], [7.409805310666627, 6.96137511327089], [7.406461565648783, 6.963560098020139], [7.401127015699274, 6.96378418299372], [7.385555211303995, 6.962411410158495], [7.375726492783485, 6.980287408936817], [7.381404440762367, 6.988931767986742], [7.37293017498763, 6.99925723873065], [7.375218398310494, 7.012884824874789], [7.384409468722026, 7.009856786861292], [7.388808031265683, 7.009235655700991], [7.392600530789935, 7.010018680118037], [7.395380668882808, 7.013166216447758], [7.404539578638719, 7.016350445116984], [7.405937188950134, 7.019671396817557], [7.398334345553678, 7.026802445076839], [7.395119484176917, 7.030566382132861], [7.389272890831307, 7.033592956050143], [7.385620595614057, 7.031916215061301], [7.378655733075675, 7.026701197602222], [7.371667870375973, 7.022133032813258], [7.362254912933906, 7.027601979248004], [7.352006270373124, 7.032461886806686], [7.351371635892349, 7.033356743718798], [7.327153206155572, 7.024096489361568], [7.316390393302072, 7.010501446984222], [7.317693388639043, 7.009402891830064], [7.329513607267188, 6.984867043679174], [7.329877939715175, 6.974807598691768], [7.329883514612561, 6.974650042865221], [7.32411758056196, 6.964838489704562], [7.308547403040279, 6.951699044775125], [7.300108441951068, 6.945863582338518], [7.30032057763259, 6.941223553624127], [7.306949732244391, 6.935127160090417], [7.315806978809064, 6.929217929863626], [7.350861830908798, 6.920725763982887], [7.357525726331232, 6.914929493101681], [7.364270235183255, 6.91149764060367], [7.368575389642558, 6.909773034997613], [7.361573020878268, 6.894811043794675], [7.362485902002845, 6.889005902900124], [7.380193258112399, 6.896527445785068], [7.383202760199254, 6.889077106723164], [7.403948124206636, 6.879601494413464], [7.407922550285491, 6.874403050560375], [7.409027100320486, 6.873759664776742], [7.422663472841066, 6.86354360915027], [7.423234979410836, 6.863843789359464], [7.426540516731507, 6.86674985771981], [7.432918991618237, 6.871518467003682], [7.433497000286366, 6.870999999750211], [7.433996281403324, 6.87005084087366], [7.434759546815656, 6.869449165646529], [7.438834618722751, 6.872179504680446], [7.438879592019589, 6.872940946267704], [7.438574863938868, 6.873461108743243], [7.437287533892629, 6.874610069099447], [7.441656131025695, 6.877316991585928], [7.441378958172436, 6.880159110954253], [7.449396398025385, 6.881173346572723], [7.454671531565964, 6.877857039870548], [7.458111522029185, 6.87646077584418], [7.481167608598298, 6.884885569013875], [7.480175133875377, 6.903102984615089], [7.47564326212688, 6.91099592682059], [7.484536246850382, 6.919978194438158]]]}}, {"type": "Feature", "properties": {"name": "Nsukka", "state": "en"}, "geometry": {"type": "Polygon", "coordinates": [[[7.422663472841066, 6.86354360915027], [7.409027100320486, 6.873759664776742], [7.407922550285491, 6.874403050560375], [7.403948124206636, 6.879601494413464], [7.383202760199254, 6.889077106723164], [7.380193258112399, 6.896527445785068], [7.362485902002845, 6.889005902900124], [7.361573020878268, 6.894811043794675], [7.368575389642558, 6.909773034997613], [7.364270235183255, 6.91149764060367], [7.357525726331232, 6.914929493101681], [7.350861830908798, 6.920725763982887], [7.315806978809064, 6.929217929863626], [7.306949732244391, 6.935127160090417], [7.30032057763259, 6.941223553624127], [7.300108441951068, 6.945863582338518], [7.308547403040279, 6.951699044775125], [7.32411758056196, 6.964838489704562], [7.329883514612561, 6.974650042865221], [7.329877939715175, 6.974807598691768], [7.329513607267188, 6.984867043679174], [7.317693388639043, 7.009402891830064], [7.316390393302072, 7.010501446984222], [7.312185764161711, 7.005190372038101], [7.31014394788491, 7.003999710118592], [7.29327964773762, 6.994162083813194], [7.24128818460207, 6.971317291160119], [7.238136767697711, 6.957925320197432], [7.238924502763666, 6.941382408071718], [7.235174501601989, 6.933351681634861], [7.232916608814492, 6.929730423820047], [7.228156576364938, 6.929007028951276], [7.217777169680687, 6.92533943266875], [7.215421347017582, 6.915456644208803], [7.210115060961357, 6.903500398624544], [7.202820903561872, 6.902305179840198], [7.228507141091711, 6.899959904426112], [7.26556530319624, 6.864140624090567], [7.27958431476435, 6.863328693664357], [7.292812939165856, 6.862220201900868], [7.303650980308532, 6.851070016867823], [7.305664741334795, 6.847416635269553], [7.29325168871452, 6.811417539987531], [7.295237160666488, 6.806767168170325], [7.276054917300655, 6.770686307427184], [7.275989091423469, 6.760922078391275], [7.300120521644828, 6.748686678747276], [7.301661465903976, 6.736747111090381], [7.349518033330639, 6.722815593664791], [7.352480900173475, 6.725805739643192], [7.361607705930908, 6.72825718362219], [7.380736561942854, 6.746614923140214], [7.382716961718472, 6.754080385201689], [7.383829252218277, 6.773403912960248], [7.414479716865515, 6.76900683789529], [7.416984160590573, 6.768126556295613], [7.425893384372216, 6.763129705371682], [7.436520339342223, 6.749077856857639], [7.451038051065268, 6.746718700407769], [7.461783146375126, 6.739157717754495], [7.490344282662591, 6.739206638175858], [7.506391935439524, 6.726482290625256], [7.53044005786245, 6.716024461259906], [7.546869978266955, 6.699549214125], [7.55157151970991, 6.693244366734177], [7.555386073308682, 6.681958172731527], [7.566131524750119, 6.673992362957222], [7.57574576935184, 6.673693476872529], [7.598081194991209, 6.655901726583465], [7.602802976576129, 6.661586770213319], [7.608979294658752, 6.672622072250874], [7.607887041953461, 6.675828697636348], [7.608546959974262, 6.679679824864081], [7.611418307309066, 6.682934765427149], [7.615995341212056, 6.689130049312382], [7.612694832000955, 6.690487181138565], [7.608565048937919, 6.690894626186093], [7.604492168678689, 6.692747911287142], [7.596077738396957, 6.722765367427826], [7.595041640259524, 6.743210588098236], [7.598991111050964, 6.747791463005683], [7.600626290770776, 6.750297580369079], [7.601766573568568, 6.757164772935994], [7.598405120899656, 6.769289419271331], [7.60438512507352, 6.780977921394026], [7.578609768326203, 6.794196162223159], [7.569582750443601, 6.804008317929572], [7.554216910581999, 6.809053234918906], [7.507062565285196, 6.809828889391781], [7.499186258738916, 6.812528760294128], [7.492482800341008, 6.815520897371584], [7.485751900929529, 6.82016624287786], [7.45828996640887, 6.82416953809377], [7.428101743400759, 6.849608816393811], [7.427756120448635, 6.852941852284687], [7.428944018751508, 6.857048143257259], [7.42860652207338, 6.857830152339716], [7.420257185620642, 6.863298727354447], [7.422663472841066, 6.86354360915027]]]}}, {"type": "Feature", "properties": {"name": "Nkanu West", "state": "en"}, "geometry": {"type": "Polygon", "coordinates": [[[7.460996907781123, 6.379308957642309], [7.423447224809649, 6.355742030970021], [7.421333076060648, 6.341985017994261], [7.424173000183885, 6.328811999574157], [7.441546731196752, 6.288772491357463], [7.457586015782056, 6.293984684945315], [7.463732255139519, 6.294612198594166], [7.467395728030453, 6.291653092716103], [7.470525735674187, 6.273962130348082], [7.483020297448832, 6.269726684139187], [7.503666532784337, 6.272029742678512], [7.504970152250792, 6.23717776234389], [7.522107937131636, 6.224364495225302], [7.528888250692262, 6.221841109979266], [7.538709255727611, 6.217233643018233], [7.552011592161307, 6.225735188827969], [7.55633857226735, 6.233272510318159], [7.558990592042221, 6.245415971370051], [7.559688492030318, 6.257699011700083], [7.559723786823326, 6.266907047822031], [7.594168646765695, 6.273902143768964], [7.59328053926555, 6.277425519372287], [7.604066871189218, 6.291906089094766], [7.622633030390091, 6.290329726835466], [7.639089973623413, 6.327667627559038], [7.63919438131569, 6.332628778095682], [7.632264046448654, 6.341474793027317], [7.630269198165024, 6.344414408798002], [7.624062878698965, 6.350052060853955], [7.619006793029143, 6.350469143036548], [7.614601842601019, 6.347566341013874], [7.609571604346115, 6.34266136033358], [7.604833421824992, 6.337332260275616], [7.601135745018667, 6.336465996408663], [7.595052763973911, 6.339086419402804], [7.592763462363962, 6.337520286931749], [7.591029859940136, 6.334919616647028], [7.589088520418954, 6.32612010475907], [7.587633965035479, 6.326227148364239], [7.582123514888337, 6.326688360279661], [7.581052800946054, 6.326360156296232], [7.578644983079528, 6.327750151148621], [7.57633423803469, 6.32908410924432], [7.571042550673212, 6.331679279275363], [7.561130489280686, 6.331433981992745], [7.555165144955538, 6.340385424447845], [7.558074494042728, 6.340351442664996], [7.565766962975033, 6.340801270062627], [7.566528391072438, 6.349462507588726], [7.567956068417857, 6.355744285570381], [7.56996076337856, 6.359299596998824], [7.575877000223443, 6.360744999981819], [7.580548999836537, 6.364352999991013], [7.582353226020587, 6.392106037863414], [7.579084738070264, 6.393852334217911], [7.572752580067572, 6.383569146898651], [7.570434145819206, 6.382700596055713], [7.568218453718714, 6.381765130256611], [7.567265658883116, 6.381858094075824], [7.560499111245065, 6.36596000934702], [7.549261950978291, 6.358587093819381], [7.537888580293782, 6.359419123194016], [7.536895066853901, 6.361712931306784], [7.535331033400496, 6.363789083699317], [7.516666736580703, 6.368212272378514], [7.507080717201404, 6.364815851370508], [7.491996534212717, 6.366926811123506], [7.483860071784932, 6.373982052829547], [7.460996907781123, 6.379308957642309]]]}}, {"type": "Feature", "properties": {"name": "Oji-River", "state": "en"}, "geometry": {"type": "Polygon", "coordinates": [[[7.290038024335388, 6.278287095073438], [7.263530466557825, 6.270341305107195], [7.261462792973589, 6.268810291162083], [7.257731504905053, 6.26466212685574], [7.255804404349817, 6.263306270268231], [7.243904573237501, 6.26291067468793], [7.220461317735669, 6.268433586740684], [7.206642643643136, 6.271689080386807], [7.160240612714176, 6.303374831982978], [7.150432586694592, 6.296901702551565], [7.145431561117675, 6.291900373903161], [7.142588615272416, 6.289057255388059], [7.145203114432206, 6.274676323353674], [7.149125099243975, 6.262474536770526], [7.148446915093132, 6.251020725326271], [7.142341498661267, 6.24386191679406], [7.143282454821474, 6.243106487174714], [7.143777200657325, 6.24175853562798], [7.145463520325279, 6.240359790372054], [7.143441514314475, 6.23555519471654], [7.150612371963462, 6.228644272615156], [7.189296245725188, 6.239493370023069], [7.199536799783516, 6.234766961426203], [7.204263686819729, 6.208770751868769], [7.208990097215235, 6.202468873140049], [7.218442917106984, 6.196166991713369], [7.223957539209096, 6.191440104677156], [7.221594334011343, 6.157567023799174], [7.223957539209096, 6.142599582704634], [7.229471683771237, 6.127632140710773], [7.236537534779472, 6.118392282977538], [7.239712715369592, 6.114240169748086], [7.248377800195385, 6.108726025185945], [7.249721050086464, 6.106487751108887], [7.254803181022055, 6.104719639000166], [7.259524858285602, 6.087979362557576], [7.259596824733705, 6.087724208705311], [7.261300592148643, 6.079419043354221], [7.309481081886474, 6.078960749738883], [7.297342593186158, 6.056205451320579], [7.297211831760649, 6.052591210915693], [7.29782556329917, 6.050829353591837], [7.299537386840996, 6.048146257743667], [7.301763753894193, 6.046517726711784], [7.303809242102886, 6.045017242052154], [7.376340388897859, 6.040006161155475], [7.384793282284193, 6.037316798831228], [7.386810303352888, 6.036674976069321], [7.392626058046176, 6.029022359694181], [7.395852089002744, 6.024777412147898], [7.402814295843143, 6.014720891755815], [7.402165408906569, 6.03982316620619], [7.398370663775154, 6.069008895144464], [7.416537730831635, 6.102704348227121], [7.409516759590815, 6.1323789261466], [7.41295327057702, 6.134106927592654], [7.410608109376767, 6.140630716734222], [7.405340968111261, 6.142275343832125], [7.397928209918973, 6.159757446748813], [7.397999759980962, 6.162888119890852], [7.374266306744687, 6.205081841653737], [7.366559752630508, 6.21299761764601], [7.364593167340843, 6.213712395210905], [7.356077322310625, 6.21543842264515], [7.347104237670464, 6.222981653580518], [7.322686403055116, 6.250612309010876], [7.312758354414598, 6.261846658896218], [7.305195286233527, 6.259398552301377], [7.294328480275169, 6.260498022965464], [7.294257340304057, 6.260550069430224], [7.295238712896321, 6.263636920407578], [7.296285065103746, 6.266296399159557], [7.298290573950851, 6.271702553130353], [7.296633849172849, 6.272792502671905], [7.295107918195924, 6.273751660211019], [7.290038024335388, 6.278287095073438]]]}}, {"type": "Feature", "properties": {"name": "Isi-Uzo", "state": "en"}, "geometry": {"type": "Polygon", "coordinates": [[[7.60438512507352, 6.780977921394026], [7.598405120899656, 6.769289419271331], [7.601766573568568, 6.757164772935994], [7.600626290770776, 6.750297580369079], [7.598991111050964, 6.747791463005683], [7.595041640259524, 6.743210588098236], [7.596077738396957, 6.722765367427826], [7.604492168678689, 6.692747911287142], [7.608565048937919, 6.690894626186093], [7.612694832000955, 6.690487181138565], [7.615995341212056, 6.689130049312382], [7.611418307309066, 6.682934765427149], [7.608546959974262, 6.679679824864081], [7.607887041953461, 6.675828697636348], [7.608979294658752, 6.672622072250874], [7.602802976576129, 6.661586770213319], [7.598081194991209, 6.655901726583465], [7.595518523760916, 6.643938234262123], [7.584371613159476, 6.633323240275388], [7.574461432249336, 6.615875737875058], [7.565947051315391, 6.599126137261464], [7.562248180209394, 6.599824037249562], [7.558898260446426, 6.599963617427079], [7.55589729022779, 6.600661517415119], [7.553751817192676, 6.593633187921341], [7.589194222235619, 6.562308397214792], [7.634101909975186, 6.579367780099005], [7.646333242884907, 6.569896646413156], [7.655484061440347, 6.566188005971753], [7.695288680228487, 6.577322717269624], [7.704551931126787, 6.578009192270429], [7.704382395431253, 6.578151454226258], [7.703923701617612, 6.607056141427847], [7.701669216361267, 6.6107692721842], [7.688214926877436, 6.629262079981061], [7.691221265149295, 6.638367245352129], [7.700919676402009, 6.64122535466646], [7.720029654744792, 6.646857043317937], [7.736201460728864, 6.644751195311471], [7.737992624260244, 6.644685233636665], [7.775990828813747, 6.6336756090422], [7.799255613855564, 6.632266480213957], [7.80225086168798, 6.632111550407785], [7.817716096420781, 6.637506170573374], [7.813017464284599, 6.642103989607506], [7.811020853329751, 6.645724790566703], [7.813979306299984, 6.650145169763846], [7.821488097697625, 6.654562536232106], [7.830824604671818, 6.66194412302292], [7.840501075164525, 6.677670102693128], [7.855954642992401, 6.70009679423174], [7.862674622835641, 6.714140147749674], [7.868490374830969, 6.724916363199668], [7.874870689730585, 6.741040402592546], [7.878187655635827, 6.760199071130273], [7.888428210593474, 6.766500949858994], [7.894730091120834, 6.774378777158915], [7.903395652587335, 6.781468390953535], [7.900244713223003, 6.786194801349041], [7.890003680725329, 6.785407066283142], [7.887640476426895, 6.789345740713429], [7.88645887427765, 6.794072628648962], [7.890397548707938, 6.843700885687383], [7.888034344409505, 6.853941917285681], [7.882596969574536, 6.858291625957804], [7.876217841780033, 6.86339473717743], [7.874642371648179, 6.868908881739571], [7.863614081624632, 6.879937649303145], [7.854948521057452, 6.880725384369043], [7.839559538941614, 6.880725384369043], [7.833513654931267, 6.886397394124515], [7.818617992326551, 6.891946633830116], [7.803624837816074, 6.891231445275025], [7.791776023444754, 6.889339760921303], [7.785626410730345, 6.872848033709829], [7.776034355101444, 6.875824928177963], [7.762781619875909, 6.879937649303145], [7.757404299968528, 6.879265508596404], [7.750177383079802, 6.87836217917129], [7.737623294279672, 6.870358495348341], [7.719094670082995, 6.872472403078973], [7.71375657410664, 6.871025968573633], [7.711925623668662, 6.860918930564253], [7.691748447732721, 6.851578296601133], [7.688128414794562, 6.852689158977569], [7.669702457202675, 6.816330970697777], [7.661870790304761, 6.817857277591315], [7.653495279983247, 6.816965517045048], [7.621143076791611, 6.841764237929283], [7.618809417920374, 6.842592785129], [7.61648922459807, 6.842335144651258], [7.61816080707564, 6.839222862645045], [7.619704977202957, 6.834143670693891], [7.62043053134397, 6.831197232666227], [7.61849469387505, 6.813385101041604], [7.60438512507352, 6.780977921394026]]]}}, {"type": "Feature", "properties": {"name": "Aninri", "state": "en"}, "geometry": {"type": "Polygon", "coordinates": [[[7.534673691038051, 6.174119154875143], [7.533000350385919, 6.176218553843228], [7.532575345176099, 6.176751771776878], [7.53029889937477, 6.179607836932178], [7.52324918400268, 6.180267778335349], [7.512700706572389, 6.180854879149422], [7.51255853275012, 6.176140975625572], [7.512220018938763, 6.171168510718246], [7.499811713839563, 6.137265984237843], [7.509499626406694, 6.133210936635464], [7.514571184912313, 6.127229272313116], [7.517515145307755, 6.123660835279395], [7.520057657335087, 6.119824766299985], [7.531967315339386, 6.11197420374657], [7.547668437748257, 6.094979522586925], [7.549140418395666, 6.090162133175966], [7.549051207447292, 6.085746192133115], [7.548813326873585, 6.08302123823961], [7.55207636942896, 6.082024525911208], [7.554334428591062, 6.07826390555482], [7.51749094095419, 6.035747686906291], [7.512820649153696, 6.021104436120879], [7.520060062122241, 6.020018577595351], [7.533384799768726, 6.010976791046119], [7.53016705696416, 6.005994174591535], [7.533302919194398, 6.003769879576339], [7.549334227692498, 5.992398728418607], [7.559083938972663, 5.985483170312136], [7.573160648345265, 5.969135760906681], [7.589054107860818, 5.961416244863869], [7.664433478622186, 5.930084229004024], [7.678964615424718, 5.928721906291003], [7.691889286061723, 5.924640179400797], [7.704847812576531, 5.929175854382208], [7.707358747608168, 5.933398698391272], [7.714838027752819, 5.945977210979549], [7.711205005906322, 5.970952511049575], [7.697131463945937, 5.988667398081986], [7.684454372171615, 6.001335973276582], [7.675786018310134, 6.01000451959294], [7.667158126746187, 6.03043842319471], [7.665372387026082, 6.039094289969569], [7.663694217014552, 6.047228742412585], [7.669428349238956, 6.063587189197449], [7.661893637581386, 6.061008690798474], [7.657992254439023, 6.075830475895771], [7.637923659949024, 6.093287616330485], [7.633765139049956, 6.100849615217612], [7.633713314717738, 6.101170558074841], [7.634304956208837, 6.109025247617126], [7.635108998681403, 6.111414007950145], [7.632520033073092, 6.118383609016405], [7.627341306855897, 6.122982943408147], [7.624013516710477, 6.130618713682736], [7.625119827617993, 6.135743149626705], [7.625207756133079, 6.140847972256154], [7.619512634700357, 6.142888086116329], [7.614705571305137, 6.143799228851378], [7.611500860576314, 6.142511060636991], [7.608484663936167, 6.138866488797476], [7.607091662650134, 6.1335760128228], [7.606924927443515, 6.133617688305719], [7.591446398932192, 6.137486459332706], [7.568126110431706, 6.135301364866166], [7.555142554885037, 6.128845879234007], [7.539226630304768, 6.150427870849626], [7.534673691038051, 6.174119154875143]]]}}, {"type": "Feature", "properties": {"name": "Uzo-Uwani", "state": "en"}, "geometry": {"type": "Polygon", "coordinates": [[[7.202820903561872, 6.902305179840198], [7.187720775593391, 6.901206970025669], [7.18229529519175, 6.899036864559719], [7.175904273863182, 6.896480559630163], [7.173163106092545, 6.890642854284351], [7.171997536157392, 6.887652226269267], [7.170144404840471, 6.883862673823387], [7.156210423272455, 6.883088588667476], [7.152271747942848, 6.875998973973537], [7.146757603380763, 6.864182472243328], [7.134153365685336, 6.854729652351637], [7.119973659656694, 6.848427296082889], [7.112884044962755, 6.837399006059343], [7.101067543232602, 6.828733443693523], [7.093190192573388, 6.819280623801774], [7.081373691742556, 6.800374508277002], [7.07428407704856, 6.798799038145148], [7.060104370120655, 6.794860362815541], [7.055377959725092, 6.786194801349041], [7.043778623584672, 6.783465643124998], [7.041985988762406, 6.783043861085389], [7.030169963672961, 6.785407066283142], [7.020716667140505, 6.789345740713429], [7.004961490980065, 6.785407066283142], [6.999981550008556, 6.785407066283142], [6.990782260692811, 6.785407066283142], [6.986094808928328, 6.788585116609909], [6.989994525626912, 6.833460330729736], [6.986843108722553, 6.844488620753282], [6.97817802389676, 6.850002767114063], [6.963210582802219, 6.844488620753282], [6.960817336650791, 6.840898991195559], [6.952182292778616, 6.827945710426263], [6.952399185873787, 6.808094117849294], [6.944765314967356, 6.798650740839093], [6.929928002175586, 6.786487314837757], [6.928535909204868, 6.787141381869333], [6.92543492718022, 6.792541439335992], [6.923388003653486, 6.801978111001063], [6.912057400228889, 6.800670623550502], [6.896804810193885, 6.792390822678385], [6.87828397772347, 6.760578156057079], [6.868260859950794, 6.755348681996111], [6.860965587392002, 6.753429071894175], [6.909815110678835, 6.696418646203597], [6.913103616638637, 6.695442192902931], [6.918727963224967, 6.698635678293954], [6.922922389556675, 6.699064654010613], [6.935648665253723, 6.695632849176718], [6.93760288666391, 6.698826333668421], [6.939323224986879, 6.703344310891282], [6.943870067749458, 6.706104754730688], [6.956507682883284, 6.710027217981747], [6.96870946856717, 6.711334228791657], [6.982655047792264, 6.713077545692215], [6.990934848664381, 6.713077545692215], [6.997133686670338, 6.71144626273491], [7.007494450408615, 6.708719731430506], [7.016646385022682, 6.706104754730688], [7.0506377222531, 6.682572364722887], [7.060660361586486, 6.684315680724126], [7.070247649909163, 6.685623169074063], [7.090293883655875, 6.677342891561239], [7.101624488879111, 6.675600052200707], [7.112667760708632, 6.66897415673202], [7.116877078914115, 6.666448593327971], [7.129078864597943, 6.659475803265764], [7.13256549839906, 6.652067661293586], [7.131693840398441, 6.64335155523014], [7.10946846030123, 6.593236445705429], [7.092037200556433, 6.575804710219245], [7.088551044295286, 6.568832397697065], [7.08419434879022, 6.562295437084799], [7.082997554393671, 6.561355997181579], [7.082911570212843, 6.561288440109479], [7.078092097971989, 6.557501793373092], [7.063275337386983, 6.554887295112621], [7.055431365964807, 6.545300007689264], [7.0484585759026, 6.527432441853762], [7.046279429552101, 6.512179851818757], [7.049659251773107, 6.474356650838786], [7.045408249091452, 6.471216202066103], [7.036256312678745, 6.47383070032663], [7.033205985867596, 6.466858386905074], [7.033069918442038, 6.463728882881696], [7.056774464769774, 6.464520495824274], [7.115164365043483, 6.499740236822504], [7.130592232945219, 6.502776136709372], [7.138804040574087, 6.519753059855873], [7.187877043590731, 6.502828238932125], [7.21300846596796, 6.550604826951258], [7.223443175562124, 6.566832193950631], [7.235762537710968, 6.573342129935384], [7.221506841667463, 6.676611517907247], [7.228398984125874, 6.682278621860974], [7.29760332283513, 6.67865427307629], [7.298210453349782, 6.686877242191031], [7.29715058523135, 6.697775722271786], [7.295737825840035, 6.710027655052272], [7.296949098422203, 6.723053395098134], [7.296769050551291, 6.728986499627297], [7.301661465903976, 6.736747111090381], [7.300120521644828, 6.748686678747276], [7.275989091423469, 6.760922078391275], [7.276054917300655, 6.770686307427184], [7.295237160666488, 6.806767168170325], [7.29325168871452, 6.811417539987531], [7.305664741334795, 6.847416635269553], [7.303650980308532, 6.851070016867823], [7.292812939165856, 6.862220201900868], [7.27958431476435, 6.863328693664357], [7.26556530319624, 6.864140624090567], [7.228507141091711, 6.899959904426112], [7.202820903561872, 6.902305179840198]]]}}, {"type": "Feature", "properties": {"name": "Enugu East", "state": "en"}, "geometry": {"type": "Polygon", "coordinates": [[[7.592635812592732, 6.431551995328391], [7.593714422582593, 6.429105099220976], [7.594810801377434, 6.428955271268819], [7.59591813211614, 6.425892993366972], [7.604080123598862, 6.459064445667707], [7.600586086578687, 6.464434678018051], [7.605646062715664, 6.477752848814987], [7.629931628641771, 6.488119720748557], [7.658065017686454, 6.524933883292135], [7.655988575712229, 6.526704934385236], [7.650604493802405, 6.527272330153949], [7.648977914299337, 6.537991710249287], [7.652608059214629, 6.549081548075037], [7.650161442796389, 6.553536375803162], [7.646456267442829, 6.560470709056005], [7.633762018402479, 6.567482435266243], [7.646333242884907, 6.569896646413156], [7.634101909975186, 6.579367780099005], [7.589194222235619, 6.562308397214792], [7.567014614033269, 6.581702369768607], [7.563185993239017, 6.586843995354172], [7.557809354118433, 6.59243755275088], [7.553751817192676, 6.593633187921341], [7.551151568689988, 6.595915795877318], [7.54033411842488, 6.603522906556918], [7.528679187094838, 6.607989466840479], [7.520792916060259, 6.608129047917259], [7.509626515351442, 6.61566636760881], [7.506219628033477, 6.628407143075265], [7.495356318639267, 6.639608057066255], [7.479182037720932, 6.638610357282232], [7.472634984017361, 6.628021129771355], [7.467401432430222, 6.626929742213861], [7.454435885807527, 6.623648845417904], [7.426374831933003, 6.612718406129602], [7.421554011608407, 6.605132288324512], [7.418735276411951, 6.590163583682511], [7.415018619413786, 6.578195338444175], [7.413804476195651, 6.570119362618527], [7.415371207615181, 6.508722049383096], [7.419988734392632, 6.50525791032436], [7.422856777618222, 6.504410784929803], [7.450514285905626, 6.500098776737218], [7.451857757929247, 6.492690728294519], [7.439226072025633, 6.481422178990442], [7.441725192663569, 6.478542564188047], [7.441751544598162, 6.476243064266043], [7.461679593038809, 6.465533887878678], [7.510571443817128, 6.476737455769012], [7.518207919160204, 6.473343748914942], [7.519206528158804, 6.470959827833838], [7.52068993019617, 6.469349386664931], [7.521675056558649, 6.465030306203744], [7.538003107157692, 6.461077123010853], [7.540404790748539, 6.45838064255264], [7.539944336961639, 6.45454010484201], [7.543306961447172, 6.455372055076339], [7.552959188016189, 6.452435458329774], [7.557030312798759, 6.451577443044584], [7.558447694705421, 6.447585140242097], [7.562039017686573, 6.444817365129325], [7.565341126791623, 6.443235004391966], [7.567830779367, 6.444876241945053], [7.568870255358036, 6.443991238904573], [7.569676183708964, 6.440858454154409], [7.572929893100138, 6.441429433721453], [7.576136423157436, 6.440300444609875], [7.577388787562541, 6.440312631322911], [7.583857927601343, 6.445966510745905], [7.587402530802194, 6.439682525827948], [7.588241218757275, 6.439544476296589], [7.59135381642551, 6.438967268924387], [7.593676503567849, 6.437587396840968], [7.593671200265703, 6.435471777700457], [7.593311947188681, 6.433180493085331], [7.592635812592732, 6.431551995328391]]]}}, {"type": "Feature", "properties": {"name": "Igbo-Etiti", "state": "en"}, "geometry": {"type": "Polygon", "coordinates": [[[7.301661465903976, 6.736747111090381], [7.296769050551291, 6.728986499627297], [7.29760332283513, 6.67865427307629], [7.319878231295377, 6.659769100963274], [7.341251602679392, 6.626078443965071], [7.344892797564626, 6.628911007137333], [7.355728090379102, 6.634713116417231], [7.37040758833956, 6.642573728894547], [7.387922979661823, 6.645304010371831], [7.391823500354292, 6.661209058551265], [7.411369514091859, 6.651088703380992], [7.426374831933003, 6.612718406129602], [7.454435885807527, 6.623648845417904], [7.467401432430222, 6.626929742213861], [7.472634984017361, 6.628021129771355], [7.479182037720932, 6.638610357282232], [7.495356318639267, 6.639608057066255], [7.506219628033477, 6.628407143075265], [7.509626515351442, 6.61566636760881], [7.520792916060259, 6.608129047917259], [7.528679187094838, 6.607989466840479], [7.54033411842488, 6.603522906556918], [7.551151568689988, 6.595915795877318], [7.553751817192676, 6.593633187921341], [7.55589729022779, 6.600661517415119], [7.558898260446426, 6.599963617427079], [7.562248180209394, 6.599824037249562], [7.565947051315391, 6.599126137261464], [7.574461432249336, 6.615875737875058], [7.584371613159476, 6.633323240275388], [7.595518523760916, 6.643938234262123], [7.598081194991209, 6.655901726583465], [7.57574576935184, 6.673693476872529], [7.566131524750119, 6.673992362957222], [7.555386073308682, 6.681958172731527], [7.55157151970991, 6.693244366734177], [7.546869978266955, 6.699549214125], [7.53044005786245, 6.716024461259906], [7.506391935439524, 6.726482290625256], [7.490344282662591, 6.739206638175858], [7.461783146375126, 6.739157717754495], [7.451038051065268, 6.746718700407769], [7.436520339342223, 6.749077856857639], [7.425893384372216, 6.763129705371682], [7.416984160590573, 6.768126556295613], [7.414479716865515, 6.76900683789529], [7.383829252218277, 6.773403912960248], [7.382716961718472, 6.754080385201689], [7.380736561942854, 6.746614923140214], [7.361607705930908, 6.72825718362219], [7.352480900173475, 6.725805739643192], [7.349518033330639, 6.722815593664791], [7.301661465903976, 6.736747111090381]]]}}, {"type": "Feature", "properties": {"name": "Udi", "state": "en"}, "geometry": {"type": "Polygon", "coordinates": [[[7.469337682687978, 6.416787775835246], [7.469226963553581, 6.421635808745634], [7.460179163237854, 6.427391396096084], [7.45388421198686, 6.427344445190045], [7.453130816633916, 6.433767272841408], [7.426745673673963, 6.442312363824556], [7.429178456720422, 6.455784985988373], [7.432372943956238, 6.464031162108483], [7.434689591251697, 6.467333883651861], [7.440930658722948, 6.474190661170098], [7.441751544598162, 6.476243064266043], [7.441725192663569, 6.478542564188047], [7.439226072025633, 6.481422178990442], [7.451857757929247, 6.492690728294519], [7.451510896610614, 6.498173812071798], [7.450514285905626, 6.500098776737218], [7.448859579206271, 6.501222791698524], [7.422856777618222, 6.504410784929803], [7.419988734392632, 6.50525791032436], [7.415371207615181, 6.508722049383096], [7.413804476195651, 6.570119362618527], [7.415018619413786, 6.578195338444175], [7.418735276411951, 6.590163583682511], [7.421554011608407, 6.605132288324512], [7.426374831933003, 6.612718406129602], [7.411369514091859, 6.651088703380992], [7.391823500354292, 6.661209058551265], [7.387922979661823, 6.645304010371831], [7.37040758833956, 6.642573728894547], [7.355728090379102, 6.634713116417231], [7.344892797564626, 6.628911007137333], [7.341251602679392, 6.626078443965071], [7.319878231295377, 6.659769100963274], [7.29760332283513, 6.67865427307629], [7.228398984125874, 6.682278621860974], [7.221506841667463, 6.676611517907247], [7.235762537710968, 6.573342129935384], [7.246530265359524, 6.55574391105273], [7.262952481272066, 6.548536745074784], [7.268257127864217, 6.525795321397027], [7.274685987268526, 6.480844971618183], [7.278583030282675, 6.48111360271065], [7.283569760236276, 6.478409106595052], [7.288897903415545, 6.473972336354279], [7.288687802000538, 6.470424601714058], [7.289746843641979, 6.468397680008991], [7.294394569653718, 6.470615471127132], [7.32308810593139, 6.492147502705109], [7.32672556413354, 6.470125446732027], [7.328245450766985, 6.46095229890949], [7.339156138245244, 6.449770854341523], [7.339909460753063, 6.447795208382217], [7.348150704991099, 6.418272649163498], [7.354816953039972, 6.418741285881708], [7.372508389350742, 6.421749092746495], [7.376146474380334, 6.419267464821701], [7.387258763780949, 6.380691301962088], [7.38645422668128, 6.372605769041058], [7.386103384963292, 6.369053780607544], [7.375062732858908, 6.362825191229661], [7.365841544151976, 6.361593487849234], [7.36101659683851, 6.36066528587429], [7.343791285439522, 6.30545197992501], [7.322177792371292, 6.312285179017863], [7.290038024335388, 6.278287095073438], [7.295107918195924, 6.273751660211019], [7.296633849172849, 6.272792502671905], [7.298290573950851, 6.271702553130353], [7.296285065103746, 6.266296399159557], [7.295238712896321, 6.263636920407578], [7.294257340304057, 6.260550069430224], [7.294328480275169, 6.260498022965464], [7.305195286233527, 6.259398552301377], [7.312758354414598, 6.261846658896218], [7.322686403055116, 6.250612309010876], [7.347104237670464, 6.222981653580518], [7.356077322310625, 6.21543842264515], [7.364593167340843, 6.213712395210905], [7.403002285627053, 6.255657724224648], [7.403995239688584, 6.26124689023186], [7.408696103942077, 6.265789954043214], [7.423607356294497, 6.285491526213036], [7.432145998239264, 6.311527062224172], [7.425365000294562, 6.325737999908824], [7.424173000183885, 6.328811999574157], [7.421333076060648, 6.341985017994261], [7.423447224809649, 6.355742030970021], [7.460996907781123, 6.379308957642309], [7.451753684784762, 6.400153974626278], [7.459652282826653, 6.413279916235183], [7.463642092708483, 6.41143799856485], [7.469337682687978, 6.416787775835246]]]}}, {"type": "Feature", "properties": {"name": "Enugu North", "state": "en"}, "geometry": {"type": "Polygon", "coordinates": [[[7.539944336961639, 6.45454010484201], [7.540404790748539, 6.45838064255264], [7.538003107157692, 6.461077123010853], [7.521675056558649, 6.465030306203744], [7.52068993019617, 6.469349386664931], [7.519206528158804, 6.470959827833838], [7.518207919160204, 6.473343748914942], [7.510571443817128, 6.476737455769012], [7.461679593038809, 6.465533887878678], [7.441751544598162, 6.476243064266043], [7.440930658722948, 6.474190661170098], [7.434689591251697, 6.467333883651861], [7.432372943956238, 6.464031162108483], [7.429178456720422, 6.455784985988373], [7.426745673673963, 6.442312363824556], [7.453130816633916, 6.433767272841408], [7.45388421198686, 6.427344445190045], [7.460179163237854, 6.427391396096084], [7.469226963553581, 6.421635808745634], [7.468023102284405, 6.417144689775682], [7.46831487922833, 6.417083198630735], [7.468804459358353, 6.416815671905795], [7.47676419780953, 6.418135183292122], [7.484285361180525, 6.430638082681412], [7.490808713251567, 6.433849317092381], [7.497230241382567, 6.432501451880569], [7.496786128277222, 6.42644612319009], [7.497787776085033, 6.4247696250182], [7.504241665420579, 6.415022475906596], [7.515056724388387, 6.418393074680694], [7.530883083687399, 6.415053545684657], [7.535685604607011, 6.420294968138307], [7.537440377071789, 6.423001905013962], [7.539358248784197, 6.43727552184788], [7.539135557759835, 6.448466029783503], [7.539944336961639, 6.45454010484201]]]}}, {"type": "Feature", "properties": {"name": "Awgu", "state": "en"}, "geometry": {"type": "Polygon", "coordinates": [[[7.538709255727611, 6.217233643018233], [7.528888250692262, 6.221841109979266], [7.522107937131636, 6.224364495225302], [7.504970152250792, 6.23717776234389], [7.503666532784337, 6.272029742678512], [7.483020297448832, 6.269726684139187], [7.470525735674187, 6.273962130348082], [7.467395728030453, 6.291653092716103], [7.463732255139519, 6.294612198594166], [7.457586015782056, 6.293984684945315], [7.441546731196752, 6.288772491357463], [7.432750552196296, 6.310506469298161], [7.432145998239264, 6.311527062224172], [7.423607356294497, 6.285491526213036], [7.408696103942077, 6.265789954043214], [7.403995239688584, 6.26124689023186], [7.403002285627053, 6.255657724224648], [7.364448424155512, 6.215304795080272], [7.364593167340843, 6.213712395210905], [7.366559752630508, 6.21299761764601], [7.374266306744687, 6.205081841653737], [7.397999759980962, 6.162888119890852], [7.397928209918973, 6.159757446748813], [7.405340968111261, 6.142275343832125], [7.410608109376767, 6.140630716734222], [7.41295327057702, 6.134106927592654], [7.409516759590815, 6.1323789261466], [7.416537730831635, 6.102704348227121], [7.416390109815779, 6.100527875561056], [7.398370663775154, 6.069008895144464], [7.402165408906569, 6.03982316620619], [7.402814295843143, 6.014720891755815], [7.404417992096683, 6.012404442311208], [7.415839671663548, 6.006217957392892], [7.43059205967586, 6.006217957392892], [7.451531410146515, 6.013832091777658], [7.46152544024693, 6.01478385868819], [7.475801944803948, 6.012404442311208], [7.493885993643744, 6.016687393408517], [7.510541916376383, 6.021446228860441], [7.512820649153696, 6.021104436120879], [7.51749094095419, 6.035747686906291], [7.554334428591062, 6.07826390555482], [7.55207636942896, 6.082024525911208], [7.548813326873585, 6.08302123823961], [7.549051207447292, 6.085746192133115], [7.549140418395666, 6.090162133175966], [7.547668437748257, 6.094979522586925], [7.531967315339386, 6.11197420374657], [7.520057657335087, 6.119824766299985], [7.517515145307755, 6.123660835279395], [7.514571184912313, 6.127229272313116], [7.509499626406694, 6.133210936635464], [7.499811713839563, 6.137265984237843], [7.512220018938763, 6.171168510718246], [7.51255853275012, 6.176140975625572], [7.512700706572389, 6.180854879149422], [7.52324918400268, 6.180267778335349], [7.53029889937477, 6.179607836932178], [7.532575345176099, 6.176751771776878], [7.533000350385919, 6.176218553843228], [7.534673691038051, 6.174119154875143], [7.549987460153204, 6.173293468418876], [7.556897189753556, 6.201854164937799], [7.558682602120427, 6.207854039632252], [7.556900930033919, 6.208689222030046], [7.556865609160582, 6.208706024063815], [7.538709255727611, 6.217233643018233]]]}}, {"type": "Feature", "properties": {"name": "Igbo-Eze North", "state": "en"}, "geometry": {"type": "Polygon", "coordinates": [[[7.555215137368748, 6.980562781347317], [7.530513762700025, 7.032278060883868], [7.502034664368296, 7.068998814443773], [7.470174015318605, 7.086845855951537], [7.470391429121207, 7.093908550339393], [7.464718951718282, 7.089233786210286], [7.461025000803204, 7.092657023203117], [7.460406832909086, 7.093152731313523], [7.45741783266692, 7.095913224615686], [7.450195548186059, 7.096775329118202], [7.44240098911439, 7.095924712555473], [7.431851734669863, 7.101550166207232], [7.394412447976151, 7.092895961379554], [7.386762054725068, 7.086116196405385], [7.3893856999901, 7.065060139114166], [7.385903452182617, 7.05519341794195], [7.384659289594595, 7.05166816815148], [7.379182339193619, 7.047325591103174], [7.370479583565952, 7.041427134754485], [7.351371635892349, 7.033356743718798], [7.352006270373124, 7.032461886806686], [7.362254912933906, 7.027601979248004], [7.371667870375973, 7.022133032813258], [7.378655733075675, 7.026701197602222], [7.385620595614057, 7.031916215061301], [7.389272890831307, 7.033592956050143], [7.395119484176917, 7.030566382132861], [7.398334345553678, 7.026802445076839], [7.405937188950134, 7.019671396817557], [7.404539578638719, 7.016350445116984], [7.395380668882808, 7.013166216447758], [7.392600530789935, 7.010018680118037], [7.388808031265683, 7.009235655700991], [7.384409468722026, 7.009856786861292], [7.375218398310494, 7.012884824874789], [7.37293017498763, 6.99925723873065], [7.381404440762367, 6.988931767986742], [7.375726492783485, 6.980287408936817], [7.385555211303995, 6.962411410158495], [7.401127015699274, 6.96378418299372], [7.406461565648783, 6.963560098020139], [7.409805310666627, 6.96137511327089], [7.423952594336811, 6.952130510714539], [7.424262898214238, 6.950882703174273], [7.4303302652296, 6.942095125289825], [7.428534774160539, 6.937552021009026], [7.427972858860414, 6.935799601170686], [7.42805458744931, 6.934407582843733], [7.440276174405994, 6.933769812426931], [7.443387450970135, 6.915889924080773], [7.447205832083512, 6.916983249677287], [7.450165559393099, 6.919430895819232], [7.452576678670823, 6.92348914770605], [7.458128719764659, 6.929658868362139], [7.460125149955729, 6.92917794060952], [7.466419985194193, 6.916550402379187], [7.473045612664919, 6.915423475413093], [7.477834222871138, 6.921225106253701], [7.484536246850382, 6.919978194438158], [7.487565841590367, 6.919414537151226], [7.492481605142018, 6.925084144817504], [7.494989953723461, 6.925648249067478], [7.500522162967513, 6.926549587393595], [7.502063621638854, 6.926163440090761], [7.503381121241773, 6.930326442311525], [7.519559798046316, 6.938551017615396], [7.519465275701975, 6.940422827851251], [7.522149476816935, 6.947651856348159], [7.519929377139078, 6.964865722075444], [7.53122873182059, 6.961855377323843], [7.534706855337163, 6.958897804789899], [7.539959843072324, 6.960154217942829], [7.543472756862286, 6.960661724259239], [7.546749459220223, 6.963064406996807], [7.548723585325263, 6.964669747211133], [7.548971007705916, 6.96888370142176], [7.555215137368748, 6.980562781347317]]]}}, {"type": "Feature", "properties": {"name": "Ezeagu", "state": "en"}, "geometry": {"type": "Polygon", "coordinates": [[[7.290038024335388, 6.278287095073438], [7.322177792371292, 6.312285179017863], [7.343791285439522, 6.30545197992501], [7.36101659683851, 6.36066528587429], [7.365841544151976, 6.361593487849234], [7.375062732858908, 6.362825191229661], [7.386103384963292, 6.369053780607544], [7.38645422668128, 6.372605769041058], [7.387258763780949, 6.380691301962088], [7.376146474380334, 6.419267464821701], [7.372508389350742, 6.421749092746495], [7.354816953039972, 6.418741285881708], [7.348150704991099, 6.418272649163498], [7.339909460753063, 6.447795208382217], [7.339156138245244, 6.449770854341523], [7.328245450766985, 6.46095229890949], [7.32672556413354, 6.470125446732027], [7.32308810593139, 6.492147502705109], [7.294394569653718, 6.470615471127132], [7.289746843641979, 6.468397680008991], [7.288687802000538, 6.470424601714058], [7.288897903415545, 6.473972336354279], [7.283569760236276, 6.478409106595052], [7.278583030282675, 6.48111360271065], [7.274685987268526, 6.480844971618183], [7.268257127864217, 6.525795321397027], [7.262952481272066, 6.548536745074784], [7.246530265359524, 6.55574391105273], [7.235762537710968, 6.573342129935384], [7.223443175562124, 6.566832193950631], [7.21300846596796, 6.550604826951258], [7.187877043590731, 6.502828238932125], [7.138804040574087, 6.519753059855873], [7.130592232945219, 6.502776136709372], [7.115164365043483, 6.499740236822504], [7.056774464769774, 6.464520495824274], [7.033069918442038, 6.463728882881696], [7.03224207271353, 6.442438967684268], [7.064800738663223, 6.437224864835684], [7.063673844972016, 6.434746699300774], [7.063885474335223, 6.431197290122896], [7.063539685907813, 6.427917762994412], [7.089444361568098, 6.426258469752611], [7.099976105313033, 6.418653822316116], [7.113865431044871, 6.403149294404443], [7.115351676738555, 6.401490210704708], [7.130693286166263, 6.399374732757735], [7.137090661205093, 6.395135254888146], [7.143867590616878, 6.388251376300047], [7.141812381636157, 6.379890936817333], [7.142255437138772, 6.371430902813984], [7.141934871996796, 6.359654902951434], [7.152319655727581, 6.328936895621268], [7.158941497951844, 6.322989087176666], [7.161759235800162, 6.315592934966048], [7.16105273559532, 6.311966893657257], [7.160220785360991, 6.303683860621732], [7.160240612714176, 6.303374831982978], [7.206642643643136, 6.271689080386807], [7.220461317735669, 6.268433586740684], [7.243904573237501, 6.26291067468793], [7.255804404349817, 6.263306270268231], [7.257731504905053, 6.26466212685574], [7.261462792973589, 6.268810291162083], [7.263530466557825, 6.270341305107195], [7.290038024335388, 6.278287095073438]]]}}]}