{"type": "FeatureCollection", "features": [{"type": "Feature", "properties": {"name": "Guyuk", "state": "go"}, "geometry": {"type": "Polygon", "coordinates": [[[11.900791653112378, 9.670933262660014], [11.905485152817619, 9.669536591240728], [11.920520782308301, 9.664948463301016], [11.933237076429975, 9.658076286691312], [11.942482947929761, 9.652351378813137], [11.947584151687295, 9.648615836951365], [11.97702615143578, 9.652280802716916], [11.985501145661374, 9.647225931131857], [11.994634277250157, 9.646388658709668], [12.001233163379823, 9.64716190659675], [12.009200008273808, 9.641989621324], [12.010746002226256, 9.641987801096207], [12.007486315041433, 9.660292881711143], [11.995906168634804, 9.664736708032706], [11.981277343874353, 9.681593964689739], [11.985563830206672, 9.692698286996404], [12.002886080428311, 9.720982013009518], [12.010935782560352, 9.724273682784258], [11.969866476856453, 9.737465306378851], [11.961513135722669, 9.739274556175872], [11.96470100664618, 9.749192377726104], [11.967144181358947, 9.7592596926807], [11.990698654219557, 9.762608371379258], [12.005302429263736, 9.790565490604934], [11.998585701369052, 9.888858794797613], [11.993979453888755, 9.899149895251526], [11.987053871039393, 9.907157897618902], [11.978973388710983, 9.916309357390958], [11.977653059840861, 9.922239842194983], [11.976682662574888, 9.926598548584195], [11.976697922271342, 9.933455467296028], [11.980186461735855, 9.940308571083733], [11.981425285048942, 9.975735664269564], [11.992921311569319, 10.000569268956667], [11.99886894194816, 10.011143683734076], [12.003088951294103, 10.022182465248648], [11.991216874159477, 10.035313536590479], [11.989193783566293, 10.037551040847916], [11.970552573242685, 10.034942254181715], [11.970532595702764, 10.034939458189513], [11.960543367082778, 10.035828272556785], [11.92073480027085, 10.024698729662703], [11.882953419564728, 10.025732307899716], [11.835776250373726, 10.033885796292509], [11.83545814757548, 10.028526198425368], [11.829628468678948, 10.016390947284435], [11.825345439340595, 9.994856824782687], [11.824801507783434, 9.981774922075033], [11.822669510189769, 9.969896652208774], [11.823729734439723, 9.955767856801174], [11.83323548572912, 9.949044579144072], [11.83318426933863, 9.949041902761678], [11.833586162871143, 9.943074187823584], [11.834728303668328, 9.92965402761132], [11.829303134432166, 9.9153772622509], [11.819309396611402, 9.902813708086228], [11.816454043719204, 9.891392294718685], [11.809033528874295, 9.876375788411963], [11.801160789039216, 9.840684685749693], [11.803437936311752, 9.832339961919729], [11.826354379750853, 9.822881267656442], [11.8444089074452, 9.81928284182976], [11.85180331676969, 9.814048709280542], [11.854544455762095, 9.793490165938465], [11.85319328284379, 9.789809227314038], [11.850863456883076, 9.78638172123948], [11.847374915619923, 9.782958030988368], [11.840398788173559, 9.77610874212479], [11.835753440868643, 9.772686958436452], [11.824734733121488, 9.75383467902725], [11.817163230198958, 9.740880339755904], [11.796159464887467, 9.730939122342647], [11.776087387323116, 9.707141013247224], [11.824527739763425, 9.695915222209806], [11.81982336006007, 9.675069150321065], [11.8230404607487, 9.66783679073535], [11.82494101061917, 9.667859504012938], [11.83177425737614, 9.662932078053018], [11.834065462850901, 9.658728877935403], [11.833876094406264, 9.656035040584698], [11.831792712363836, 9.64628663781815], [11.831588840552627, 9.642493577116966], [11.835301321099166, 9.636288885423767], [11.852717029767177, 9.647810045297376], [11.861899917247456, 9.665831103822427], [11.87110550361615, 9.676379102813371], [11.88235568966337, 9.677562714048065], [11.892401711369928, 9.673579932368057], [11.89391899086877, 9.672978401032424], [11.900791653112378, 9.670933262660014]]]}}, {"type": "Feature", "properties": {"name": "Dukku", "state": "go"}, "geometry": {"type": "Polygon", "coordinates": [[[10.494281108386474, 10.688327978253653], [10.497225708199949, 10.687015254950097], [10.525303348270938, 10.662744752668232], [10.528571757080954, 10.64967111562953], [10.5379503945951, 10.649398368340087], [10.56257781621332, 10.642259985210217], [10.569478253118916, 10.627864245838339], [10.566147007778227, 10.618108456040488], [10.558191220948117, 10.600614668232424], [10.56997303942427, 10.586753707117964], [10.59335593332969, 10.571373450224598], [10.612391621376275, 10.556620792415686], [10.66189296159098, 10.491392697315177], [10.68943011540756, 10.493052909664073], [10.701444012930892, 10.487406448748686], [10.705447212818683, 10.480382837997638], [10.721561734686361, 10.490090312617895], [10.730184902111603, 10.487406280575442], [10.74249149568601, 10.473596098781002], [10.79073923133052, 10.435145830215959], [10.792604824553052, 10.44065625967869], [10.800434011120785, 10.450663347935233], [10.810256426293108, 10.447773729973733], [10.813511527834805, 10.437734308391668], [10.804135832902432, 10.424469619377476], [10.835403442015263, 10.39955139208314], [10.83507251668334, 10.395102500779842], [10.837447165754156, 10.39559078228882], [10.8626542768734, 10.384366310556857], [10.872872411732487, 10.384474377590493], [10.923059091104221, 10.423811453235999], [10.912546352732022, 10.475005188938383], [10.911634359238349, 10.50459934498383], [10.921735746807315, 10.530304865776998], [10.930541038638069, 10.548562051197734], [10.92395591663228, 10.586112021952317], [10.923133849947249, 10.597693442698244], [10.926406859688882, 10.607630730074163], [10.931358337117615, 10.620506286935665], [10.970848018721142, 10.614879061619433], [10.991311384113146, 10.638673672352127], [10.997022089897598, 10.64819151592576], [10.996145248204698, 10.656811713789637], [11.039483070387462, 10.66477775738764], [11.092273711562598, 10.662887573103092], [11.136774063072608, 10.67225647095944], [11.146666527338425, 10.67074489675963], [11.172103149041163, 10.660447060383603], [11.245492780567417, 10.800977135086782], [11.237446162210688, 10.801667981692049], [11.230412524918165, 10.802271855761603], [11.21650557517222, 10.803465843374], [11.205297041225549, 10.812486648739878], [11.205348793611961, 10.812671344307148], [11.217765848215379, 10.85698530143054], [11.190016738581676, 10.878284606449483], [11.10202929271776, 10.93334758532285], [11.106811015915696, 10.954339842909462], [11.112269847675407, 10.970707738871113], [11.120651691922092, 10.985983678903722], [11.12118132605741, 11.00028629617566], [11.121262878379184, 11.000303507400986], [11.121374834081394, 11.005511768253541], [11.097903961298812, 11.031174587437306], [11.086911272737098, 11.054210888921432], [11.074610799049196, 11.06299057885218], [11.06403460001684, 11.070539325329662], [11.055441975366932, 11.089604051585752], [11.028676033372278, 11.098979950664216], [11.015727043268498, 11.1079597469448], [11.035930394871855, 11.134337919259622], [11.020701843715187, 11.157180744196012], [10.937380604031716, 11.09615282479308], [10.92926723619405, 11.094479967076893], [10.929565693302152, 11.090735142412939], [10.92191267313143, 11.092061664913956], [10.910300902964366, 11.088254528024095], [10.88212808494319, 11.085970244631142], [10.86423453769379, 11.088444884823616], [10.853384195624187, 11.085018460633478], [10.820452454916904, 11.084066675736551], [10.799132485276004, 11.084257034334712], [10.789043570404488, 11.072835620067849], [10.787106314704715, 11.064079227974048], [10.786754018782972, 11.063819371566808], [10.772404477584644, 11.060340694967124], [10.766922708616164, 11.068142103275477], [10.738369176995946, 11.100978664233992], [10.707912077380513, 11.08479832907966], [10.68987190196674, 11.047219002654913], [10.679012263605102, 11.045775497241436], [10.669450651826196, 11.039820317054023], [10.664671416152999, 11.028261013335168], [10.662455337344, 11.01069623124613], [10.664739619837633, 10.994401682191949], [10.659695163301194, 10.984883836819677], [10.642670943908968, 10.977034646631694], [10.641088659614013, 10.960816241376506], [10.657112088252347, 10.95170167359339], [10.662703821823982, 10.94634788624603], [10.67460112674064, 10.93861463935417], [10.677222530895108, 10.930871482832742], [10.663499452937458, 10.913358009764409], [10.646659357143676, 10.893216985675394], [10.652005119840453, 10.881438007258282], [10.64265986965728, 10.875992687812357], [10.636462332071005, 10.867516094592133], [10.624713744443795, 10.858741832069938], [10.619954821757688, 10.851306017059073], [10.609812052784036, 10.848795637808507], [10.595535287423616, 10.826923631920124], [10.586874048998197, 10.818167214645314], [10.576499599377087, 10.807126515776133], [10.568740360279435, 10.810789363638264], [10.520271457062165, 10.726949107215603], [10.518560163221025, 10.725477888293938], [10.516492349342514, 10.725267713134485], [10.514281928168487, 10.725547946380686], [10.505368938026095, 10.714478542950474], [10.502628689362552, 10.713246638121916], [10.499664624622767, 10.712026404694882], [10.500103341795864, 10.706824304198335], [10.499954791780283, 10.697628452990784], [10.49683524594991, 10.69091384569748], [10.494281108386474, 10.688327978253653]]]}}, {"type": "Feature", "properties": {"name": "Shomgom", "state": "go"}, "geometry": {"type": "Polygon", "coordinates": [[[10.969134278724027, 9.615353467688408], [10.978140830734787, 9.574613571059501], [10.979952811772876, 9.571175575292614], [10.984711647224799, 9.565485001731474], [10.99238205039137, 9.559283257116647], [11.008193015994948, 9.55210876620663], [11.020428657556522, 9.549492836225454], [11.076408086064362, 9.551371838339719], [11.083577508395365, 9.546691365314302], [11.09451077605155, 9.533096588237015], [11.11423819293833, 9.525595789114448], [11.150912285173888, 9.550780295774075], [11.182134627810854, 9.555564879715462], [11.222452164136087, 9.5692615508799], [11.227089881592804, 9.569368361560691], [11.227822402781726, 9.569080125247638], [11.244061469960911, 9.56222152660223], [11.254666327688938, 9.554347037585785], [11.269281387426133, 9.548886299263359], [11.373851776038691, 9.546802520619906], [11.376186371104211, 9.568187713592181], [11.412031174199399, 9.657654178197788], [11.37860965730988, 9.674860345728405], [11.350573539837058, 9.711443901414953], [11.33435058581091, 9.738798395729418], [11.292412758042417, 9.77494832530499], [11.3024835758564, 9.777737001561434], [11.300975212236324, 9.780116306422428], [11.299490427940952, 9.781926601231703], [11.299185856342262, 9.784378396845568], [11.298991691813171, 9.787070043447784], [11.300280645135729, 9.788766406744344], [11.288277070030801, 9.79374849799484], [11.295139312729134, 9.83834743498619], [11.279725074952296, 9.88207340186608], [11.273624420430735, 9.896432876975723], [11.265809059140793, 9.909592627697634], [11.26274840991124, 9.918722983079249], [11.256360767335593, 9.926917331269863], [11.247502017104466, 9.929790229035916], [11.240375766728278, 9.929543517119669], [11.238831887081972, 9.918137664721485], [11.242812156955551, 9.899778365779014], [11.24459919889398, 9.886681308595541], [11.244676799594686, 9.8765254356004], [11.239796638404187, 9.821982383580178], [11.231717110256454, 9.792212485617767], [11.213192185870753, 9.787478306878427], [11.164881808848463, 9.75118680512702], [11.142239268327614, 9.724747905191748], [11.13778362581371, 9.699579582731587], [11.126036679449271, 9.692806479935143], [11.112113642630561, 9.689607793764708], [11.101294837087096, 9.680440435777541], [11.08283346958899, 9.690030278174845], [11.056917764643174, 9.689794119802855], [11.019483208383406, 9.69857983788927], [10.9600655062182, 9.679245557836282], [10.95691314502568, 9.668597445415799], [10.96405152815555, 9.662500077017], [10.985020529274038, 9.64182850867877], [10.989894507625479, 9.640553670215752], [10.988169966770613, 9.630225100408097], [10.969134278724027, 9.615353467688408]]]}}, {"type": "Feature", "properties": {"name": "Akko", "state": "go"}, "geometry": {"type": "Polygon", "coordinates": [[[10.97760075187324, 9.810182376315652], [10.98237069125446, 9.80748499203878], [10.996343612567728, 9.814013481037364], [11.005631447333485, 9.813649178266985], [11.013168335350429, 9.813823699803947], [11.02007770522198, 9.81630420717346], [11.027492522861678, 9.822277068931612], [11.033194542094463, 9.827049254819315], [11.044015883726104, 9.836581230339561], [11.050114631684949, 9.850064278343837], [11.057395935074396, 9.890255927569058], [11.061828613399825, 9.900219916715855], [11.07326610214892, 9.910991545623403], [11.076121455041175, 9.920747336320574], [11.075778008448367, 9.926645279156332], [11.080924290723488, 9.933033919080174], [11.081484853443271, 9.933729804586847], [11.084824562303766, 9.937875747567773], [11.090744952217847, 9.940861940126467], [11.096878051580859, 9.94395542090598], [11.106673240677537, 9.947083473423618], [11.165097236947986, 9.954819679084949], [11.17344229982234, 9.96657211401191], [11.177276304857628, 9.977291002178049], [11.182656934270142, 9.983766808891176], [11.186289020821675, 9.985980618710641], [11.18928967717693, 9.986655542819108], [11.206174667127243, 9.99270010932264], [11.226937490572766, 9.990762891394354], [11.244098711786194, 10.004579762346225], [11.250414396007614, 10.00734143196155], [11.253713710019724, 10.002241240840647], [11.256594125218726, 10.005917198120244], [11.262860115601882, 10.009799126228756], [11.272867929611323, 10.002300069992259], [11.282877589029567, 10.00515935831777], [11.298348651369224, 10.019950186052313], [11.303758674223502, 10.027910506364833], [11.32110033721085, 10.027891489300828], [11.333300183956396, 10.026450541559313], [11.358628862731905, 10.021724871305821], [11.38552836574155, 10.012227390181977], [11.390798159107817, 10.010902837196227], [11.418472112398092, 10.003770048748777], [11.428482942733694, 9.993795813625923], [11.44909558479344, 9.988868643972808], [11.463835133184887, 9.987284133855724], [11.472600360218507, 9.991502188075572], [11.479870406793907, 10.001216816802696], [11.48656113978484, 10.019735179734823], [11.533511161810736, 10.006290435655103], [11.53851127637438, 10.01684665714754], [11.539426804203686, 10.021604539318105], [11.530756950273087, 10.027108192389221], [11.520151138364383, 10.034982681405666], [11.512529373232042, 10.038866043033522], [11.492720603672979, 10.043046950756207], [11.4718370444441, 10.043142319362573], [11.458224289919087, 10.04820152208265], [11.432237561014688, 10.062324742592864], [11.417178586922319, 10.070508968014508], [11.387732756961213, 10.074078159579472], [11.363385916626783, 10.071966556811219], [11.330722808810606, 10.078731536930945], [11.304016113253056, 10.10769367192546], [11.285762842581164, 10.195067594893658], [11.278899878626532, 10.210474800871395], [11.2657625866741, 10.225022310731106], [11.218103870097593, 10.212676459051409], [11.199983800711891, 10.20798250788647], [11.197088127615018, 10.21453678134742], [11.192908174073011, 10.22023975386162], [11.190480118762537, 10.22540389937052], [11.190335159739902, 10.232360953095565], [11.190793877835233, 10.238172644651854], [11.193003540880738, 10.243443601740864], [11.196892624894758, 10.251654737576132], [11.200274353678537, 10.256373519022759], [11.204815751046112, 10.261119002240207], [11.209948425679329, 10.265298956681534], [11.210674769425111, 10.26937118942891], [11.211506729551957, 10.274035567287626], [11.211491561586342, 10.274760831846947], [11.20820797132086, 10.293100469810895], [11.198706626709509, 10.289704323096089], [11.19311806684533, 10.281664759920773], [11.197170189852443, 10.277832952828533], [11.189963576058233, 10.269908683638903], [11.177083654786884, 10.263675387209389], [11.168844288333275, 10.263614509402146], [11.157830392858386, 10.26992639578657], [11.154139047279273, 10.276058716336763], [11.124304762354939, 10.27965365639119], [11.120174133029877, 10.286007633745328], [11.121348350845778, 10.31095073538819], [11.091884818629524, 10.316731035209159], [11.078435573443016, 10.309976428769232], [11.072614840102858, 10.312319853378597], [11.064427353739404, 10.315616131279512], [11.03225681989636, 10.331031393384137], [11.005092189552954, 10.334621139853766], [10.994830014893296, 10.353308416150526], [10.992133482274426, 10.367436163847913], [10.97112533186862, 10.37195022092601], [10.931242936112653, 10.355582214347749], [10.883112791322333, 10.37428631066473], [10.872872411732487, 10.384474377590493], [10.8626542768734, 10.384366310556857], [10.837447165754156, 10.39559078228882], [10.83507251668334, 10.395102500779842], [10.833864211863954, 10.36500835405235], [10.82825811432059, 10.350982801714963], [10.822190488300464, 10.343011607699566], [10.823439705078385, 10.331114302782908], [10.822249974856504, 10.320763647424428], [10.819189562148608, 10.312951689169154], [10.8628708318235, 10.26827002714009], [10.855280967442752, 10.24082478223795], [10.856949158576867, 10.236257708326605], [10.857159615224134, 10.235681534275443], [10.851166724664665, 10.224235535241803], [10.839326859447056, 10.215169906765823], [10.835687490185592, 10.204267755652438], [10.835629463229168, 10.204093933788045], [10.830290795284043, 10.196922301822838], [10.823796271880497, 10.188199042551844], [10.819883346839049, 10.181147575300429], [10.818007637142784, 10.172914240599766], [10.81722640957122, 10.169485092363175], [10.81864070860189, 10.157336235379034], [10.80744270481705, 10.137963781803137], [10.800304321687122, 10.134751508675208], [10.78674139499941, 10.134751508675208], [10.774606143858477, 10.137606861567463], [10.74921463574691, 10.119912961114323], [10.73838875523694, 10.120955921078917], [10.721197887872279, 10.095147495360663], [10.715902847838208, 10.094543903678243], [10.713404414282365, 10.088833197893791], [10.712772814114146, 10.078620642428746], [10.711544209797466, 10.07621049981475], [10.7156077434027, 10.064856165979336], [10.715729159972796, 10.064650759025369], [10.716940152865789, 10.063492013145947], [10.717475890699859, 10.049853324871094], [10.78844547268045, 10.006125449629849], [10.794776916621458, 10.000296592713653], [10.80289936221584, 9.990977287072212], [10.812171936385823, 9.979338646061706], [10.824990272982745, 9.969960212693707], [10.865881920314393, 9.949856757783209], [10.890620001711738, 9.930725049121747], [10.89446373471361, 9.926484215973858], [10.905368795133825, 9.91445254424957], [10.918455831171741, 9.899699884642018], [10.943923904864391, 9.881777140003067], [10.945419806578855, 9.880443018230778], [10.944883780062469, 9.870444843155042], [10.959089161735449, 9.852170583205918], [10.957732868976791, 9.83446739275604], [10.959231929110274, 9.828114231986262], [10.961230676854314, 9.82340289872485], [10.965727858154196, 9.81405161858737], [10.970240181339364, 9.811711093392319], [10.97731729006091, 9.812673403954477], [10.97760075187324, 9.810182376315652]]]}}, {"type": "Feature", "properties": {"name": "Funakaye", "state": "go"}, "geometry": {"type": "Polygon", "coordinates": [[[11.47341557676748, 11.017535932437397], [11.44856166808654, 11.046656608915441], [11.443259239222584, 11.050594330064314], [11.434853553948415, 11.05590820280139], [11.412119865339548, 11.080209731693799], [11.394354820418698, 11.091974258005678], [11.3806066513759, 11.07872295360147], [11.382763115025796, 11.067332026352005], [11.382763115025796, 11.061792062253915], [11.38008880555401, 11.047968863672168], [11.378472035855793, 11.039523856440894], [11.330968564747536, 11.008839415406726], [11.328463785575309, 11.00389096779395], [11.326512045394622, 11.000035102937716], [11.327370351160823, 10.986714192805778], [11.327476847978176, 10.985691956818414], [11.322092640163248, 10.964982316580688], [11.325503104984364, 10.958668332977254], [11.326810344222054, 10.951551208021897], [11.343329085269147, 10.92914865068974], [11.344160496809536, 10.9209569779822], [11.33945936815536, 10.921049311376692], [11.346933810846735, 10.899586593246738], [11.345223100665635, 10.871978136681719], [11.363843342396365, 10.839676819829435], [11.36313226823961, 10.830213628955846], [11.350772923131956, 10.819007998920085], [11.34340485135283, 10.807101558690022], [11.340121269181282, 10.795302391392283], [11.326871872239167, 10.790934563179576], [11.317038535699908, 10.789546966819103], [11.316780922201872, 10.789577693056117], [11.30889892564494, 10.790517806551577], [11.245492780567417, 10.800977135086782], [11.172103149041163, 10.660447060383603], [11.181871939438508, 10.65649223323004], [11.180916110290298, 10.643799146113736], [11.179737091893344, 10.628141454664444], [11.192481714659436, 10.57894384518238], [11.21301225401237, 10.565938517948268], [11.23321503094894, 10.55542409874323], [11.251647558987713, 10.531518205900511], [11.265622703425095, 10.528941541219183], [11.277242270714282, 10.528050536103422], [11.31425480031885, 10.52831860242162], [11.314995642035285, 10.529371908187045], [11.322226087863726, 10.539651797692386], [11.328762281354273, 10.554255808358903], [11.330544878843114, 10.564186140378126], [11.345399862413785, 10.61616910312165], [11.376298226082326, 10.648872954723117], [11.415474742165657, 10.665789953343733], [11.522719382693424, 10.661479949739942], [11.518092318605682, 10.678102977970127], [11.516460418713393, 10.683965683569511], [11.515070914890885, 10.694953917789121], [11.515468596898302, 10.703663825725016], [11.516857147439453, 10.720517158640007], [11.516614914146999, 10.732112884901767], [11.518564224359523, 10.739901544420775], [11.519826888699981, 10.744948386858596], [11.526517868105202, 10.757863997725337], [11.528738975923034, 10.790397643636368], [11.536177636388857, 10.823053359924643], [11.53643989578461, 10.828774451979427], [11.53441047666223, 10.833539963098872], [11.539074897688408, 10.850962638814792], [11.53648853291952, 10.863663673239955], [11.53139018990538, 10.871069907750098], [11.528674125810312, 10.876823425760563], [11.53036212900912, 10.934866905383444], [11.514992517390795, 10.965919843625954], [11.482541083903925, 11.002781868088789], [11.479356261682199, 11.008087237735879], [11.47341557676748, 11.017535932437397]]]}}, {"type": "Feature", "properties": {"name": "Balanga", "state": "go"}, "geometry": {"type": "Polygon", "coordinates": [[[11.776087387323116, 9.707141013247224], [11.796159464887467, 9.730939122342647], [11.817163230198958, 9.740880339755904], [11.824734733121488, 9.75383467902725], [11.835753440868643, 9.772686958436452], [11.840398788173559, 9.77610874212479], [11.847374915619923, 9.782958030988368], [11.850863456883076, 9.78638172123948], [11.85319328284379, 9.789809227314038], [11.854544455762095, 9.793490165938465], [11.85180331676969, 9.814048709280542], [11.8444089074452, 9.81928284182976], [11.826354379750853, 9.822881267656442], [11.803437936311752, 9.832339961919729], [11.801160789039216, 9.840684685749693], [11.809033528874295, 9.876375788411963], [11.816454043719204, 9.891392294718685], [11.819309396611402, 9.902813708086228], [11.829303134432166, 9.9153772622509], [11.834728303668328, 9.92965402761132], [11.833586162871143, 9.943074187823584], [11.83318426933863, 9.949041902761678], [11.83323548572912, 9.949044579144072], [11.823729734439723, 9.955767856801174], [11.822669510189769, 9.969896652208774], [11.824801507783434, 9.981774922075033], [11.825345439340595, 9.994856824782687], [11.829628468678948, 10.016390947284435], [11.83545814757548, 10.028526198425368], [11.835776250373726, 10.033885796292509], [11.801762403112491, 10.035845017033978], [11.789934078894646, 10.039304656784509], [11.78025878021856, 10.059522629565777], [11.772819091827671, 10.069066985153313], [11.76673007363405, 10.076878568391294], [11.7646043083422, 10.076871997944409], [11.760650000097485, 10.078957441233001], [11.756234433172608, 10.083410047635653], [11.755415391806935, 10.08824164903291], [11.754647547946036, 10.091636331651443], [11.751042862837892, 10.090736998813497], [11.749750207905834, 10.089610580863678], [11.748318723730165, 10.089214639044428], [11.747422274118719, 10.089640542676932], [11.74568621924368, 10.091308069212062], [11.744211841003732, 10.09432301759324], [11.735533010939776, 10.095933522614018], [11.719917798067968, 10.08091317530284], [11.714266578839613, 10.082697771085293], [11.705194882637784, 10.078831146740072], [11.689053534892764, 10.08530521416435], [11.673900969254362, 10.07186107173112], [11.667626224870446, 10.07466926327595], [11.659925401236308, 10.07719661273353], [11.651281856972162, 10.077846193946755], [11.64650010769384, 10.076511482219189], [11.635054972908733, 10.071766776915297], [11.625416964621252, 10.067466826832629], [11.624362808097146, 10.071025409994718], [11.621566135069145, 10.071307318677839], [11.616134906201012, 10.069219163933326], [11.609817759681903, 10.06578033359557], [11.60566566983482, 10.067346361745251], [11.597635437125746, 10.067195972616105], [11.591233295680127, 10.064981196025428], [11.579986292333558, 10.052458911749454], [11.579294167791659, 10.049818094829277], [11.580796241553344, 10.047410964944106], [11.581976145782562, 10.044877154756932], [11.577535718898332, 10.037999547141453], [11.568605852977782, 10.035847940729923], [11.558945215948995, 10.03554335564138], [11.552041811280617, 10.033631977034133], [11.550440230232482, 10.030276087571451], [11.549186801929409, 10.025538613716094], [11.545915604321749, 10.023399353197647], [11.539426804203686, 10.021604539318105], [11.52318572973769, 9.972988130198075], [11.522800445784014, 9.963698387070963], [11.522510528638009, 9.949770927386453], [11.523296356241872, 9.939928055335542], [11.523356438149165, 9.937029838955937], [11.525495263395726, 9.933340595991751], [11.527162360954264, 9.931107171958445], [11.531112223850073, 9.93085208735397], [11.535927974696335, 9.930519261754569], [11.544068960714014, 9.934028761718025], [11.55194878900545, 9.933343134777886], [11.554792380563981, 9.929160548020945], [11.536735618953685, 9.916956730768561], [11.534826494946856, 9.910164725122002], [11.5373533371868, 9.905553186030772], [11.538483097916696, 9.897289922791742], [11.545580631141263, 9.888936989050876], [11.555343628106016, 9.87744712918169], [11.565912246752816, 9.871312141242356], [11.574211121346195, 9.862804412593619], [11.565134770253508, 9.797930771787719], [11.568462286105671, 9.787156801045569], [11.567986926055823, 9.776850937320944], [11.569891930268398, 9.764096261033671], [11.566921233927872, 9.739665031016443], [11.559517706377108, 9.729471655392615], [11.556208611338377, 9.724915503747525], [11.548213005226046, 9.718930243935631], [11.520082474226854, 9.704936027575684], [11.504538536224516, 9.699355126338048], [11.49643325778868, 9.69858741827477], [11.488328934432843, 9.697818756930133], [11.45389691590998, 9.699706216268908], [11.446573257150135, 9.697430611333687], [11.436270713722536, 9.690811156809502], [11.418734549859664, 9.669522284825632], [11.406463623397542, 9.646504786366847], [11.400522231615753, 9.625016211828779], [11.376186371104211, 9.568187713592181], [11.373851776038691, 9.546802520619906], [11.381297112172035, 9.545684814402705], [11.393471717645696, 9.545967101700455], [11.405684470561937, 9.544509887921038], [11.42015361799514, 9.546006203323657], [11.427641868877174, 9.548500061128948], [11.429598808038634, 9.549625397194347], [11.433946609248665, 9.552126884847894], [11.441893578226086, 9.560431480028853], [11.442859649753075, 9.569734573591745], [11.444465636579935, 9.576152802110187], [11.447883606243465, 9.579132079781687], [11.452939033609539, 9.584775924569328], [11.46107769038315, 9.59276580829544], [11.468048096342613, 9.598470688271675], [11.473844528202449, 9.600746155610636], [11.48427867931764, 9.604154587064613], [11.527322769430327, 9.60823726723612], [11.5629872143885, 9.605118869839998], [11.567052198600152, 9.610790616993427], [11.576359083704801, 9.615286613886155], [11.581724696237814, 9.619760312088772], [11.586153993112362, 9.633819265246927], [11.598302549722916, 9.649285995552304], [11.613612785401756, 9.656329749318502], [11.634469729194677, 9.627462758099853], [11.636013984757653, 9.628978729085134], [11.645288467288992, 9.632390022181823], [11.654569626387172, 9.636945724165912], [11.660382271224876, 9.64265346488554], [11.663881302180414, 9.648365973810712], [11.672015189849162, 9.65521240283016], [11.726576804775789, 9.690556527261947], [11.746321678402808, 9.705385208360724], [11.756587981849918, 9.718674660207455], [11.765813034943676, 9.712196990099073], [11.776087387323116, 9.707141013247224]]]}}, {"type": "Feature", "properties": {"name": "Gombe", "state": "go"}, "geometry": {"type": "MultiPolygon", "coordinates": [[[[11.198706626709509, 10.289704323096089], [11.195606144707881, 10.301648286639193], [11.189428543292706, 10.304428427430025], [11.189764732356537, 10.309732597381526], [11.184469811033011, 10.313857978263115], [11.175771113146425, 10.310882421986207], [11.160098492051816, 10.316978950418275], [11.157642839245682, 10.311576938724784], [11.157150286856279, 10.311385857971004], [11.15513845397652, 10.3118619662568], [11.152321458068911, 10.313091885382278], [11.146053282333185, 10.31536990319853], [11.144416766220843, 10.311756614276362], [11.12742065693783, 10.33209434797584], [11.123608028787544, 10.329316831406686], [11.12204389640874, 10.32724009895145], [11.119943352603684, 10.289994353556608], [11.124304762354939, 10.27965365639119], [11.149714040170863, 10.277581832435658], [11.165729249904984, 10.264719901202511], [11.176701534648146, 10.263587518049576], [11.194533544887236, 10.274435164851013], [11.197179880047486, 10.278438873755078], [11.195884400344823, 10.278441604096827], [11.195743705907375, 10.27860553072071], [11.19311806684533, 10.281664759920773], [11.198706626709509, 10.289704323096089]]], [[[11.223861748920626, 10.34083583290743], [11.230982161797385, 10.316092860097456], [11.238748722275773, 10.315738796108576], [11.24329611002753, 10.30935184691026], [11.241243824742753, 10.302970132665564], [11.244670248932891, 10.30211352661803], [11.247026999696345, 10.293846999739287], [11.253339210736044, 10.293358247884896], [11.259593757246137, 10.292621745397298], [11.261505464105937, 10.315795163815778], [11.273933959884403, 10.340328334684955], [11.248383389581818, 10.33974378524755], [11.223861748920626, 10.34083583290743]]]]}}, {"type": "Feature", "properties": {"name": "Billiri", "state": "go"}, "geometry": {"type": "Polygon", "coordinates": [[[10.9600655062182, 9.679245557836282], [11.019483208383406, 9.69857983788927], [11.056917764643174, 9.689794119802855], [11.08283346958899, 9.690030278174845], [11.101294837087096, 9.680440435777541], [11.112113642630561, 9.689607793764708], [11.126036679449271, 9.692806479935143], [11.13778362581371, 9.699579582731587], [11.142239268327614, 9.724747905191748], [11.164881808848463, 9.75118680512702], [11.213192185870753, 9.787478306878427], [11.231717110256454, 9.792212485617767], [11.239796638404187, 9.821982383580178], [11.244676799594686, 9.8765254356004], [11.24459919889398, 9.886681308595541], [11.242812156955551, 9.899778365779014], [11.238831887081972, 9.918137664721485], [11.240375766728278, 9.929543517119669], [11.247502017104466, 9.929790229035916], [11.256881714019926, 9.948247910212956], [11.29114341713506, 9.968338012889035], [11.28729720380295, 9.979961542591184], [11.279595419692896, 9.98636275863447], [11.279263721843336, 9.987148546668152], [11.272867929611323, 10.002300069992259], [11.262860115601882, 10.009799126228756], [11.256594125218726, 10.005917198120244], [11.253713710019724, 10.002241240840647], [11.250414396007614, 10.00734143196155], [11.244098711786194, 10.004579762346225], [11.226937490572766, 9.990762891394354], [11.226660415745641, 9.99067154905282], [11.224110603021984, 9.989830970722778], [11.220781498967028, 9.99036351416487], [11.217166924913727, 9.990941723381866], [11.206174667127243, 9.99270010932264], [11.18928967717693, 9.986655542819108], [11.186289020821675, 9.985980618710641], [11.182656934270142, 9.983766808891176], [11.177276304857628, 9.977291002178049], [11.17344229982234, 9.96657211401191], [11.165097236947986, 9.954819679084949], [11.106673240677537, 9.947083473423618], [11.096878051580859, 9.94395542090598], [11.090744952217847, 9.940861940126467], [11.084824562303766, 9.937875747567773], [11.081484853443271, 9.933729804586847], [11.080924290723488, 9.933033919080174], [11.075778008448367, 9.926645279156332], [11.076121455041175, 9.920747336320574], [11.07326610214892, 9.910991545623403], [11.061828613399825, 9.900219916715855], [11.057395935074396, 9.890255927569058], [11.050114631684949, 9.850064278343837], [11.044015883726104, 9.836581230339561], [11.033194542094463, 9.827049254819315], [11.027492522861678, 9.822277068931612], [11.02007770522198, 9.81630420717346], [11.013168335350429, 9.813823699803947], [11.005631447333485, 9.813649178266985], [10.996343612567728, 9.814013481037364], [10.98237069125446, 9.80748499203878], [10.97760075187324, 9.810182376315652], [10.981629401675605, 9.774779088184403], [10.965532098227811, 9.752344575241978], [10.964675492180277, 9.745491725962438], [10.9662459360012, 9.738210576357062], [10.966388704275346, 9.731072193227192], [10.964389957430626, 9.723791041823176], [10.961820139288022, 9.716795426068131], [10.95670450410961, 9.711389004099317], [10.957805017987255, 9.703278113893873], [10.96077934399159, 9.695782812326968], [10.960303452442417, 9.68471831829578], [10.9600655062182, 9.679245557836282]]]}}, {"type": "Feature", "properties": {"name": "Kwami", "state": "go"}, "geometry": {"type": "Polygon", "coordinates": [[[11.522719382693424, 10.661479949739942], [11.415474742165657, 10.665789953343733], [11.376298226082326, 10.648872954723117], [11.345399862413785, 10.61616910312165], [11.330544878843114, 10.564186140378126], [11.328762281354273, 10.554255808358903], [11.322226087863726, 10.539651797692386], [11.314995642035285, 10.529371908187045], [11.31425480031885, 10.52831860242162], [11.313782436810072, 10.528322860711512], [11.289745240250681, 10.527945249773495], [11.286425630338613, 10.527672765985415], [11.251647558987713, 10.531518205900511], [11.23321503094894, 10.55542409874323], [11.21301225401237, 10.565938517948268], [11.192481714659436, 10.57894384518238], [11.179737091893344, 10.628141454664444], [11.180916110290298, 10.643799146113736], [11.181871939438508, 10.65649223323004], [11.172103149041163, 10.660447060383603], [11.146666527338425, 10.67074489675963], [11.136774063072608, 10.67225647095944], [11.092273711562598, 10.662887573103092], [11.039483070387462, 10.66477775738764], [10.996145248204698, 10.656811713789637], [10.997022089897598, 10.64819151592576], [10.991311384113146, 10.638673672352127], [10.970848018721142, 10.614879061619433], [10.931358337117615, 10.620506286935665], [10.926406859688882, 10.607630730074163], [10.923133849947249, 10.597693442698244], [10.92395591663228, 10.586112021952317], [10.930541038638069, 10.548562051197734], [10.921735746807315, 10.530304865776998], [10.911634359238349, 10.50459934498383], [10.912546352732022, 10.475005188938383], [10.923059091104221, 10.423811453235999], [10.872872411732487, 10.384474377590493], [10.883112791322333, 10.37428631066473], [10.931242936112653, 10.355582214347749], [10.97112533186862, 10.37195022092601], [10.992133482274426, 10.367436163847913], [10.994830014893296, 10.353308416150526], [11.005092189552954, 10.334621139853766], [11.03225681989636, 10.331031393384137], [11.064427353739404, 10.315616131279512], [11.072614840102858, 10.312319853378597], [11.078435573443016, 10.309976428769232], [11.091884818629524, 10.316731035209159], [11.121348350845778, 10.31095073538819], [11.121388887786964, 10.312207669248608], [11.120905244981145, 10.321334674655532], [11.121105059950594, 10.325015034116575], [11.12204389640874, 10.32724009895145], [11.123608028787544, 10.329316831406686], [11.12742065693783, 10.33209434797584], [11.144416766220843, 10.311756614276362], [11.146053282333185, 10.31536990319853], [11.152321458068911, 10.313091885382278], [11.15513845397652, 10.3118619662568], [11.157150286856279, 10.311385857971004], [11.157642839245682, 10.311576938724784], [11.160098492051816, 10.316978950418275], [11.17776901912498, 10.310711101136462], [11.190821841354932, 10.315884560923791], [11.194166752793478, 10.318787263121749], [11.214626056847067, 10.34091735465222], [11.223861748920626, 10.34083583290743], [11.248383389581818, 10.33974378524755], [11.273933959884403, 10.340328334684955], [11.283313751228661, 10.34909153015002], [11.289875953112812, 10.356244892387906], [11.293949268643871, 10.360311710317205], [11.315924644406891, 10.370729446107077], [11.322153072806088, 10.377680647943578], [11.322412173782823, 10.377996289297357], [11.325313946081792, 10.381531268852996], [11.326098794323968, 10.381452784118721], [11.326120991390667, 10.381450563692624], [11.33007286786858, 10.38105537730388], [11.35169837408074, 10.395093305211901], [11.391645421199257, 10.390890460326546], [11.399471999733066, 10.390067023074721], [11.40470338305471, 10.400865896044309], [11.406293869166802, 10.404149054635184], [11.41431426958792, 10.408974647661921], [11.455656051885342, 10.456917763144304], [11.43362599284535, 10.4560496745529], [11.407166581172817, 10.465309917218974], [11.414578878012833, 10.49651539037302], [11.414603219962657, 10.496617867220834], [11.425013361877177, 10.512976661144023], [11.425651200642449, 10.512635988959744], [11.454732771000636, 10.497103384213858], [11.480042457893148, 10.483585357977915], [11.490923882331344, 10.490218162937936], [11.50945091202999, 10.519650459001525], [11.510939001333895, 10.5358723626195], [11.513221144340378, 10.537665268137687], [11.516591429251093, 10.542963873084318], [11.518197416077953, 10.549382089911546], [11.518591028653077, 10.55183850624212], [11.521849964004673, 10.569004900355935], [11.516513824053789, 10.57027816770335], [11.512721061927493, 10.585270883344663], [11.513373375281105, 10.594977378603176], [11.512397766443826, 10.59983730324899], [11.513420104953923, 10.607329369954527], [11.517029437758367, 10.621436897295041], [11.521450995966745, 10.63941764820595], [11.522660910572597, 10.648528515278826], [11.524185181401037, 10.660006522982712], [11.522719382693424, 10.661479949739942]]]}}, {"type": "Feature", "properties": {"name": "Kaltungo", "state": "go"}, "geometry": {"type": "Polygon", "coordinates": [[[11.412031174199399, 9.657654178197788], [11.436270713722536, 9.690811156809502], [11.446573257150135, 9.697430611333687], [11.45389691590998, 9.699706216268908], [11.504538536224516, 9.699355126338048], [11.548213005226046, 9.718930243935631], [11.556208611338377, 9.724915503747525], [11.559517706377108, 9.729471655392615], [11.566921233927872, 9.739665031016443], [11.569891930268398, 9.764096261033671], [11.567986926055823, 9.776850937320944], [11.568462286105671, 9.787156801045569], [11.565134770253508, 9.797930771787719], [11.574211121346195, 9.862804412593619], [11.565912246752816, 9.871312141242356], [11.555343628106016, 9.87744712918169], [11.545580631141263, 9.888936989050876], [11.538483097916696, 9.897289922791742], [11.5373533371868, 9.905553186030772], [11.534826494946856, 9.910164725122002], [11.536735618953685, 9.916956730768561], [11.53942079313515, 9.920519022734766], [11.54456516165294, 9.92048599693129], [11.550845728247793, 9.924116472797039], [11.554792380563981, 9.929160548020945], [11.55194878900545, 9.933343134777886], [11.527162360954264, 9.931107171958445], [11.525495263395726, 9.933340595991751], [11.523356438149165, 9.937029838955937], [11.52318572973769, 9.972988130198075], [11.526373863263245, 9.986983298940117], [11.533511161810736, 10.006290435655103], [11.48656113978484, 10.019735179734823], [11.479870406793907, 10.001216816802696], [11.472600360218507, 9.991502188075572], [11.463835133184887, 9.987284133855724], [11.44909558479344, 9.988868643972808], [11.428482942733694, 9.993795813625923], [11.418472112398092, 10.003770048748777], [11.390798159107817, 10.010902837196227], [11.38552836574155, 10.012227390181977], [11.358628862731905, 10.021724871305821], [11.333300183956396, 10.026450541559313], [11.32110033721085, 10.027891489300828], [11.303758674223502, 10.027910506364833], [11.298348651369224, 10.019950186052313], [11.282877589029567, 10.00515935831777], [11.272867929611323, 10.002300069992259], [11.279263721843336, 9.987148546668152], [11.279595419692896, 9.98636275863447], [11.28729720380295, 9.979961542591184], [11.29114341713506, 9.968338012889035], [11.256881714019926, 9.948247910212956], [11.247502017104466, 9.929790229035916], [11.256360767335593, 9.926917331269863], [11.26274840991124, 9.918722983079249], [11.265809059140793, 9.909592627697634], [11.273624420430735, 9.896432876975723], [11.279725074952296, 9.88207340186608], [11.295139312729134, 9.83834743498619], [11.288277070030801, 9.79374849799484], [11.300280645135729, 9.788766406744344], [11.298991691813171, 9.787070043447784], [11.299185856342262, 9.784378396845568], [11.299490427940952, 9.781926601231703], [11.300975212236324, 9.780116306422428], [11.3024835758564, 9.777737001561434], [11.292412758042417, 9.77494832530499], [11.33435058581091, 9.738798395729418], [11.350573539837058, 9.711443901414953], [11.37860965730988, 9.674860345728405], [11.412031174199399, 9.657654178197788]]]}}, {"type": "Feature", "properties": {"name": "Yamaltu/Deba", "state": "go"}, "geometry": {"type": "Polygon", "coordinates": [[[11.521849964004673, 10.569004900355935], [11.518591028653077, 10.55183850624212], [11.518197416077953, 10.549382089911546], [11.516591429251093, 10.542963873084318], [11.513221144340378, 10.537665268137687], [11.510939001333895, 10.5358723626195], [11.50945091202999, 10.519650459001525], [11.490923882331344, 10.490218162937936], [11.480042457893148, 10.483585357977915], [11.454732771000636, 10.497103384213858], [11.425651200642449, 10.512635988959744], [11.425013361877177, 10.512976661144023], [11.414603219962657, 10.496617867220834], [11.414578878012833, 10.49651539037302], [11.407166581172817, 10.465309917218974], [11.43362599284535, 10.4560496745529], [11.455656051885342, 10.456917763144304], [11.41431426958792, 10.408974647661921], [11.406293869166802, 10.404149054635184], [11.40470338305471, 10.400865896044309], [11.399471999733066, 10.390067023074721], [11.391645421199257, 10.390890460326546], [11.35169837408074, 10.395093305211901], [11.33007286786858, 10.38105537730388], [11.326120991390667, 10.381450563692624], [11.326098794323968, 10.381452784118721], [11.325313946081792, 10.381531268852996], [11.322412173782823, 10.377996289297357], [11.322153072806088, 10.377680647943578], [11.315924644406891, 10.370729446107077], [11.293949268643871, 10.360311710317205], [11.289875953112812, 10.356244892387906], [11.283313751228661, 10.34909153015002], [11.273933959884403, 10.340328334684955], [11.261505464105937, 10.315795163815778], [11.259593757246137, 10.292621745397298], [11.253339210736044, 10.293358247884896], [11.247026999696345, 10.293846999739287], [11.244670248932891, 10.30211352661803], [11.241243824742753, 10.302970132665564], [11.24329611002753, 10.30935184691026], [11.238748722275773, 10.315738796108576], [11.230982161797385, 10.316092860097456], [11.223861748920626, 10.34083583290743], [11.214626056847067, 10.34091735465222], [11.1853011326412, 10.312973289086074], [11.189764732356537, 10.309732597381526], [11.189428543292706, 10.304428427430025], [11.195606144707881, 10.301648286639193], [11.198706626709509, 10.289704323096089], [11.20820797132086, 10.293100469810895], [11.210193684291141, 10.286152590969323], [11.209948425679329, 10.265298956681534], [11.204815751046112, 10.261119002240207], [11.200274353678537, 10.256373519022759], [11.196892624894758, 10.251654737576132], [11.193003540880738, 10.243443601740864], [11.190793877835233, 10.238172644651854], [11.190335159739902, 10.232360953095565], [11.190480118762537, 10.22540389937052], [11.192908174073011, 10.22023975386162], [11.197088127615018, 10.21453678134742], [11.199983800711891, 10.20798250788647], [11.218103870097593, 10.212676459051409], [11.2657625866741, 10.225022310731106], [11.278899878626532, 10.210474800871395], [11.285762842581164, 10.195067594893658], [11.304016113253056, 10.10769367192546], [11.330722808810606, 10.078731536930945], [11.363385916626783, 10.071966556811219], [11.387732756961213, 10.074078159579472], [11.417178586922319, 10.070508968014508], [11.432237561014688, 10.062324742592864], [11.458224289919087, 10.04820152208265], [11.4718370444441, 10.043142319362573], [11.492720603672979, 10.043046950756207], [11.512529373232042, 10.038866043033522], [11.520151138364383, 10.034982681405666], [11.530756950273087, 10.027108192389221], [11.539426804203686, 10.021604539318105], [11.545915604321749, 10.023399353197647], [11.549186801929409, 10.025538613716094], [11.550440230232482, 10.030276087571451], [11.552041811280617, 10.033631977034133], [11.558945215948995, 10.03554335564138], [11.568605852977782, 10.035847940729923], [11.577535718898332, 10.037999547141453], [11.581976145782562, 10.044877154756932], [11.580796241553344, 10.047410964944106], [11.579294167791659, 10.049818094829277], [11.579986292333558, 10.052458911749454], [11.591233295680127, 10.064981196025428], [11.597635437125746, 10.067195972616105], [11.60566566983482, 10.067346361745251], [11.609817759681903, 10.06578033359557], [11.616134906201012, 10.069219163933326], [11.621566135069145, 10.071307318677839], [11.624362808097146, 10.071025409994718], [11.625416964621252, 10.067466826832629], [11.635054972908733, 10.071766776915297], [11.64650010769384, 10.076511482219189], [11.651281856972162, 10.077846193946755], [11.659925401236308, 10.07719661273353], [11.667626224870446, 10.07466926327595], [11.673900969254362, 10.07186107173112], [11.689053534892764, 10.08530521416435], [11.705194882637784, 10.078831146740072], [11.714266578839613, 10.082697771085293], [11.719917798067968, 10.08091317530284], [11.735533010939776, 10.095933522614018], [11.744211841003732, 10.09432301759324], [11.74568621924368, 10.091308069212062], [11.747422274118719, 10.089640542676932], [11.748318723730165, 10.089214639044428], [11.749750207905834, 10.089610580863678], [11.751042862837892, 10.090736998813497], [11.754647547946036, 10.091636331651443], [11.75010720997983, 10.10411292137428], [11.736041026272403, 10.11780433780001], [11.731401076698376, 10.143145598090939], [11.727527730820157, 10.146161858582957], [11.72579072356308, 10.15015935407098], [11.71089200686066, 10.173268616653388], [11.695692597335551, 10.187806602692604], [11.623104179914037, 10.209670941860509], [11.609953836100715, 10.224145349428397], [11.611770659987997, 10.227976699665021], [11.614020061376777, 10.228487543365475], [11.61670203936768, 10.228572683082916], [11.617913255292535, 10.230020068171655], [11.61237626795048, 10.249090868448889], [11.597209991248121, 10.257035413753385], [11.589769665237895, 10.282574223621566], [11.575148559358581, 10.292108183945572], [11.57186097340525, 10.289980093006932], [11.56995763383776, 10.288618106640342], [11.56788126380934, 10.29329990886373], [11.56424761603472, 10.296704812277312], [11.561219576222527, 10.297385787923815], [11.55654774298398, 10.29627920092446], [11.551475928171612, 10.290110673668721], [11.549626510155349, 10.296449445285702], [11.546476328020162, 10.30077668439651], [11.544776835082928, 10.318124880059202], [11.529335622141275, 10.313622265954848], [11.535725962683102, 10.327103508120445], [11.54632358626452, 10.327405940231984], [11.54348391485081, 10.342071631800422], [11.552433174651355, 10.368514793622865], [11.560880261115187, 10.370537337428232], [11.568701886183135, 10.3846487552359], [11.597003859440633, 10.395011619790466], [11.598154118417881, 10.417620191119], [11.600748081558777, 10.422211428015032], [11.602510642152481, 10.427255061671815], [11.619695048787548, 10.4422439174229], [11.636431780102612, 10.449359065668375], [11.649484524091577, 10.45435022568239], [11.65520817112025, 10.45644259375075], [11.661083404275757, 10.48629213477426], [11.656840291346441, 10.489711089195453], [11.659505287439117, 10.493375457811169], [11.662122694107097, 10.495850097104324], [11.662756957167915, 10.49681982257681], [11.655155549988706, 10.503429740690024], [11.63767768917404, 10.518627881271755], [11.632366466739086, 10.520814855321362], [11.599836275124062, 10.534209644759358], [11.572779010343083, 10.572588160914961], [11.57564227636999, 10.579808284324884], [11.583307265617862, 10.593869208797003], [11.572895049866702, 10.592467307820073], [11.561311721658683, 10.591618537565523], [11.551528930615689, 10.587911605835984], [11.527589797930887, 10.567634583569202], [11.521873474081588, 10.568999286787687], [11.521849964004673, 10.569004900355935]]]}}, {"type": "Feature", "properties": {"name": "Nafada", "state": "go"}, "geometry": {"type": "Polygon", "coordinates": [[[10.98171599739544, 11.178820010934828], [11.008531705174107, 11.149093151827572], [11.020701843715187, 11.157180744196012], [11.035930394871855, 11.134337919259622], [11.015727043268498, 11.1079597469448], [11.028676033372278, 11.098979950664216], [11.055441975366932, 11.089604051585752], [11.06403460001684, 11.070539325329662], [11.074610799049196, 11.06299057885218], [11.086911272737098, 11.054210888921432], [11.097903961298812, 11.031174587437306], [11.121374834081394, 11.005511768253541], [11.121262878379184, 11.000303507400986], [11.12118132605741, 11.00028629617566], [11.120651691922092, 10.985983678903722], [11.112269847675407, 10.970707738871113], [11.106811015915696, 10.954339842909462], [11.10202929271776, 10.93334758532285], [11.190016738581676, 10.878284606449483], [11.217765848215379, 10.85698530143054], [11.205348793611961, 10.812671344307148], [11.205297041225549, 10.812486648739878], [11.21650557517222, 10.803465843374], [11.30889892564494, 10.790517806551577], [11.316780922201872, 10.789577693056117], [11.317038535699908, 10.789546966819103], [11.326871872239167, 10.790934563179576], [11.340121269181282, 10.795302391392283], [11.34340485135283, 10.807101558690022], [11.350772923131956, 10.819007998920085], [11.36313226823961, 10.830213628955846], [11.363843342396365, 10.839676819829435], [11.345223100665635, 10.871978136681719], [11.346933810846735, 10.899586593246738], [11.33945936815536, 10.921049311376692], [11.344160496809536, 10.9209569779822], [11.343329085269147, 10.92914865068974], [11.326810344222054, 10.951551208021897], [11.325503104984364, 10.958668332977254], [11.322092640163248, 10.964982316580688], [11.327476847978176, 10.985691956818414], [11.327370351160823, 10.986714192805778], [11.326512045394622, 11.000035102937716], [11.328463785575309, 11.00389096779395], [11.330968564747536, 11.008839415406726], [11.378472035855793, 11.039523856440894], [11.38008880555401, 11.047968863672168], [11.382763115025796, 11.061792062253915], [11.382763115025796, 11.067332026352005], [11.3806066513759, 11.07872295360147], [11.391140170382585, 11.090164394870953], [11.371196303766453, 11.098431671784283], [11.374953288163795, 11.110141168580128], [11.359996502236811, 11.12745495258406], [11.357135218315705, 11.134842997406452], [11.354876310193617, 11.14415166586673], [11.347948991652686, 11.152721287657357], [11.341557157336979, 11.1637590970048], [11.31938185418926, 11.186231233084982], [11.311445166261478, 11.168915585685795], [11.30974571019641, 11.169076382668948], [11.275450232142532, 11.172321311079713], [11.248563215320189, 11.183573933390335], [11.223755760220229, 11.16483054029726], [11.200875763605666, 11.175090381216194], [11.198166002858784, 11.179928142070139], [11.181895937847287, 11.199021082756815], [11.165127709576211, 11.201153360039598], [11.133786313787425, 11.207773784032952], [11.091866404111329, 11.226097376292955], [11.077443462945496, 11.286717677079196], [10.98171599739544, 11.178820010934828]]]}}]}