{"type": "FeatureCollection", "features": [{"type": "Feature", "geometry": {"type": "Polygon", "coordinates": [[[11.17045, 10.28568], [11.17052, 10.28684], [11.17716, 10.28787], [11.18444, 10.28659], [11.1849, 10.2797], [11.17765, 10.28097], [11.17703, 10.27309], [11.1732, 10.27503], [11.16731, 10.27507], [11.16545, 10.28338], [11.16628, 10.28448], [11.1706, 10.28433], [11.17069, 10.28537], [11.17045, 10.28568]]]}, "properties": {"name": "Bolari West", "lga": "Gombe", "state": "go"}}, {"type": "Feature", "geometry": {"type": "Polygon", "coordinates": [[[11.17716, 10.28787], [11.17052, 10.28684], [11.17045, 10.28568], [11.16833, 10.28655], [11.16631, 10.28723], [11.16764, 10.29136], [11.17746, 10.28989], [11.17716, 10.28787]]]}, "properties": {"name": "Herwa Gana", "lga": "Gombe", "state": "go"}}, {"type": "Feature", "geometry": {"type": "Polygon", "coordinates": [[[11.15528, 10.27413], [11.16039, 10.2753], [11.16132, 10.27664], [11.16984, 10.27461], [11.1732, 10.27503], [11.17703, 10.27309], [11.17765, 10.28097], [11.18652, 10.27932], [11.18637, 10.27823], [11.18606, 10.277], [11.18918, 10.27686], [11.19095, 10.27132], [11.19029, 10.27084], [11.18996, 10.26991], [11.1839, 10.26848], [11.18269, 10.26701], [11.18265, 10.26641], [11.18205, 10.26606], [11.18144, 10.26598], [11.18085, 10.26654], [11.18004, 10.26667], [11.17708, 10.26368], [11.17182, 10.26453], [11.16996, 10.26349], [11.16573, 10.26472], [11.16158, 10.26887], [11.16026, 10.26851], [11.15949, 10.27039], [11.15783, 10.26993], [11.15702, 10.2714], [11.15586, 10.2732], [11.15528, 10.27413]]]}, "properties": {"name": "Pantami", "lga": "Gombe", "state": "go"}}, {"type": "Feature", "geometry": {"type": "Polygon", "coordinates": [[[11.16746, 10.29106], [11.16681, 10.28919], [11.16648, 10.28787], [11.16631, 10.28723], [11.1632, 10.288], [11.16257, 10.28235], [11.16124, 10.28167], [11.16097, 10.28109], [11.16006, 10.27984], [11.16186, 10.27887], [11.1626, 10.27834], [11.16295, 10.27825], [11.16536, 10.27819], [11.16605, 10.27838], [11.1668, 10.27696], [11.16709, 10.27603], [11.16731, 10.27507], [11.16113, 10.27663], [11.16039, 10.2753], [11.15528, 10.27413], [11.15431, 10.27559], [11.15414, 10.27606], [11.15012, 10.27622], [11.14968, 10.27623], [11.14971, 10.27758], [11.14076, 10.27903], [11.14157, 10.28595], [11.14789, 10.28466], [11.15047, 10.28402], [11.15101, 10.29153], [11.15322, 10.29172], [11.1549, 10.29228], [11.15617, 10.29207], [11.15626, 10.2941], [11.15645, 10.29423], [11.15968, 10.29477], [11.1662, 10.29262], [11.16701, 10.29167], [11.16732, 10.2913], [11.16746, 10.29106]]]}, "properties": {"name": "Jekadafari", "lga": "Gombe", "state": "go"}}, {"type": "Feature", "geometry": {"type": "Polygon", "coordinates": [[[11.16631, 10.28723], [11.16833, 10.28655], [11.17045, 10.28568], [11.17069, 10.28537], [11.1706, 10.28433], [11.16628, 10.28448], [11.16545, 10.28338], [11.16605, 10.27838], [11.16536, 10.27819], [11.16295, 10.27825], [11.1626, 10.27834], [11.16186, 10.27887], [11.16006, 10.27984], [11.16097, 10.28109], [11.16124, 10.28167], [11.16257, 10.28235], [11.1632, 10.288], [11.16631, 10.28723]]]}, "properties": {"name": "Kumbiya Kumbiya", "lga": "Gombe", "state": "go"}}, {"type": "Feature", "geometry": {"type": "Polygon", "coordinates": [[[11.34778, 10.867], [11.37146, 10.87897], [11.41797, 10.88638], [11.42158, 10.87665], [11.42809, 10.86046], [11.43396, 10.84651], [11.43028, 10.84362], [11.43166, 10.83081], [11.41681, 10.82818], [11.41676, 10.82815], [11.4071, 10.84119], [11.37549, 10.84212], [11.36384, 10.83968], [11.34778, 10.867]]]}, "properties": {"name": "Bajoga West", "lga": "Funakaye", "state": "go"}}, {"type": "Feature", "geometry": {"type": "Polygon", "coordinates": [[[11.30634, 10.29104], [11.32593, 10.29138], [11.34039, 10.28796], [11.34439, 10.29671], [11.34991, 10.29538], [11.35334, 10.30052], [11.36114, 10.29843], [11.36228, 10.31023], [11.36799, 10.31556], [11.38265, 10.30737], [11.39826, 10.29766], [11.40518, 10.28802], [11.40987, 10.28148], [11.40492, 10.26721], [11.38398, 10.25655], [11.35638, 10.24722], [11.34858, 10.2318], [11.32307, 10.21619], [11.31536, 10.24443], [11.30399, 10.26759], [11.30634, 10.29104]]]}, "properties": {"name": "Kanawa / Wajari", "lga": "Yamaltu/Deba", "state": "go"}}, {"type": "Feature", "geometry": {"type": "Polygon", "coordinates": [[[11.51653, 9.60758], [11.4821, 9.69802], [11.48833, 9.69782], [11.49643, 9.69859], [11.50454, 9.69936], [11.52008, 9.70494], [11.52756, 9.70801], [11.53051, 9.70938], [11.53675, 9.71228], [11.54821, 9.71893], [11.55621, 9.72492], [11.55952, 9.72947], [11.57144, 9.7147], [11.61316, 9.65695], [11.61361, 9.65633], [11.5983, 9.64929], [11.58615, 9.63382], [11.58172, 9.61976], [11.57636, 9.61529], [11.56705, 9.61079], [11.56299, 9.60512], [11.56278, 9.60512], [11.54563, 9.60516], [11.52734, 9.60823], [11.52732, 9.60824], [11.51653, 9.60758]]]}, "properties": {"name": "Bambam", "lga": "Balanga", "state": "go"}}, {"type": "Feature", "geometry": {"type": "Polygon", "coordinates": [[[11.1711, 9.84732], [11.17269, 9.8478], [11.1794, 9.84762], [11.18601, 9.8379], [11.22202, 9.83416], [11.2323, 9.82177], [11.20109, 9.8159], [11.18559, 9.81131], [11.17694, 9.82589], [11.13227, 9.82424], [11.10173, 9.8538], [11.12158, 9.86368], [11.13316, 9.85548], [11.14575, 9.85307], [11.15681, 9.85116], [11.1711, 9.84732]]]}, "properties": {"name": "Tanglang", "lga": "Billiri", "state": "go"}}, {"type": "Feature", "geometry": {"type": "Polygon", "coordinates": [[[10.6635, 10.91336], [10.67722, 10.93087], [10.69673, 10.93515], [10.72876, 10.97492], [10.76683, 10.99205], [10.78396, 10.99966], [10.82146, 11.01215], [10.82567, 10.99812], [10.84328, 10.94625], [10.8574, 10.93212], [10.84652, 10.92467], [10.8364, 10.92258], [10.82956, 10.91723], [10.82153, 10.91723], [10.79714, 10.91901], [10.77959, 10.91901], [10.77275, 10.91396], [10.7329, 10.91574], [10.71208, 10.91009], [10.70254, 10.89137], [10.68781, 10.89386], [10.68113, 10.89499], [10.6635, 10.91336]]]}, "properties": {"name": "Wuro Tale", "lga": "Dukku", "state": "go"}}, {"type": "Feature", "geometry": {"type": "Polygon", "coordinates": [[[11.08283, 9.69003], [11.05692, 9.68979], [11.01948, 9.69858], [10.96007, 9.67925], [10.9603, 9.68472], [10.96078, 9.69578], [10.95781, 9.70328], [10.9567, 9.71139], [10.96182, 9.7168], [10.96439, 9.72379], [10.96639, 9.73107], [10.96625, 9.73821], [10.96468, 9.74549], [10.96553, 9.75234], [10.97167, 9.76088], [10.97262, 9.76282], [10.97468, 9.76693], [10.97852, 9.76975], [10.97867, 9.77219], [10.98163, 9.77478], [10.9776, 9.81018], [10.98237, 9.80748], [10.99634, 9.81401], [11.00563, 9.81365], [11.01317, 9.81382], [11.02008, 9.8163], [11.03224, 9.79651], [11.04992, 9.79476], [11.05163, 9.79336], [11.06053, 9.76181], [11.06657, 9.75054], [11.06832, 9.74341], [11.08556, 9.74107], [11.09702, 9.74563], [11.12081, 9.74255], [11.12367, 9.73524], [11.1184, 9.73068], [11.10474, 9.73647], [11.09527, 9.73529], [11.0934, 9.7214], [11.08256, 9.69998], [11.08283, 9.69003]]]}, "properties": {"name": "Tudu Kwaya", "lga": "Billiri", "state": "go"}}, {"type": "Feature", "geometry": {"type": "Polygon", "coordinates": [[[11.32215, 10.37768], [11.32241, 10.378], [11.32531, 10.38153], [11.3261, 10.38145], [11.32612, 10.38145], [11.33007, 10.38106], [11.3517, 10.39509], [11.39165, 10.39089], [11.39947, 10.39007], [11.4047, 10.40087], [11.40629, 10.40415], [11.41431, 10.40897], [11.42465, 10.42129], [11.43918, 10.44029], [11.44299, 10.42256], [11.45353, 10.40542], [11.45596, 10.39233], [11.46279, 10.3624], [11.46867, 10.35083], [11.4606, 10.34388], [11.45881, 10.33698], [11.4556, 10.32687], [11.44775, 10.3202], [11.44144, 10.32116], [11.43585, 10.33903], [11.42847, 10.34379], [11.41491, 10.3514], [11.40254, 10.35402], [11.39469, 10.35331], [11.39326, 10.34331], [11.37684, 10.34498], [11.35852, 10.3445], [11.34377, 10.35307], [11.32215, 10.37768]]]}, "properties": {"name": "Lubo / Difa / Kinafa", "lga": "Yamaltu/Deba", "state": "go"}}, {"type": "Feature", "geometry": {"type": "Polygon", "coordinates": [[[11.06443, 10.31562], [11.07261, 10.31232], [11.07374, 10.30859], [11.0778, 10.28126], [11.05656, 10.25722], [11.04755, 10.263], [11.01001, 10.25042], [11.00195, 10.24692], [10.98719, 10.23299], [10.97874, 10.22601], [10.96916, 10.21971], [10.95675, 10.20967], [10.94744, 10.202], [10.92932, 10.1927], [10.92789, 10.19253], [10.87974, 10.23452], [10.85695, 10.23626], [10.85528, 10.24082], [10.86287, 10.26827], [10.85588, 10.27655], [10.84731, 10.2864], [10.83012, 10.30342], [10.82209, 10.30978], [10.81919, 10.31295], [10.82225, 10.32076], [10.82344, 10.33111], [10.82219, 10.34301], [10.82826, 10.35098], [10.83386, 10.36501], [10.83507, 10.3951], [10.83745, 10.39559], [10.86265, 10.38437], [10.87287, 10.38447], [10.88311, 10.37429], [10.93124, 10.35558], [10.97113, 10.37195], [10.99213, 10.36744], [10.99483, 10.35331], [11.00509, 10.33462], [11.03226, 10.33103], [11.06443, 10.31562]]]}, "properties": {"name": "Akko", "lga": "Akko", "state": "go"}}, {"type": "Feature", "geometry": {"type": "Polygon", "coordinates": [[[11.78168, 9.84897], [11.75148, 9.80098], [11.7232, 9.78412], [11.70685, 9.76314], [11.69757, 9.77083], [11.67683, 9.77171], [11.66352, 9.76497], [11.65169, 9.75845], [11.63679, 9.76598], [11.57594, 9.76129], [11.56987, 9.76385], [11.56989, 9.7641], [11.56799, 9.77685], [11.56846, 9.78716], [11.56513, 9.79793], [11.56989, 9.82322], [11.56989, 9.84196], [11.57414, 9.86248], [11.58138, 9.86476], [11.64259, 9.87588], [11.67913, 9.88817], [11.71432, 9.91442], [11.7147, 9.9142], [11.73877, 9.89576], [11.74144, 9.86795], [11.77234, 9.85039], [11.78168, 9.84897]]]}, "properties": {"name": "Degri", "lga": "Balanga", "state": "go"}}, {"type": "Feature", "geometry": {"type": "Polygon", "coordinates": [[[10.97591, 10.453], [10.94039, 10.47276], [10.91255, 10.47501], [10.91163, 10.5046], [10.92174, 10.5303], [10.93054, 10.54856], [10.92396, 10.58611], [10.92313, 10.59769], [10.92641, 10.60763], [10.93136, 10.62051], [10.97085, 10.61488], [10.99131, 10.63867], [10.99702, 10.64819], [10.99615, 10.65681], [11.03948, 10.66478], [11.05759, 10.66518], [11.07777, 10.66451], [11.08536, 10.66236], [11.09227, 10.66289], [11.07294, 10.57687], [11.01551, 10.50255], [10.97591, 10.453]]]}, "properties": {"name": "Bojude", "lga": "Kwami", "state": "go"}}, {"type": "Feature", "geometry": {"type": "Polygon", "coordinates": [[[11.24838, 10.33974], [11.27393, 10.34033], [11.26151, 10.3158], [11.25655, 10.31625], [11.25491, 10.31574], [11.25148, 10.31517], [11.25022, 10.30999], [11.24604, 10.30982], [11.2433, 10.30935], [11.23875, 10.31574], [11.23098, 10.31609], [11.22386, 10.34084], [11.24838, 10.33974]]]}, "properties": {"name": "Dawaki", "lga": "Gombe", "state": "go"}}, {"type": "Feature", "geometry": {"type": "Polygon", "coordinates": [[[11.25989, 10.30571], [11.25659, 10.30311], [11.25334, 10.29336], [11.24703, 10.29385], [11.24467, 10.30211], [11.24124, 10.30297], [11.24173, 10.30878], [11.2433, 10.30935], [11.24604, 10.30982], [11.25022, 10.30999], [11.25148, 10.31517], [11.25491, 10.31574], [11.25655, 10.31625], [11.26151, 10.3158], [11.26233, 10.30556], [11.25989, 10.30571]]]}, "properties": {"name": "Bolari East", "lga": "Gombe", "state": "go"}}, {"type": "Feature", "geometry": {"type": "Polygon", "coordinates": [[[11.25959, 10.29262], [11.25334, 10.29336], [11.25331, 10.2939], [11.25659, 10.30311], [11.25989, 10.30571], [11.26233, 10.30556], [11.26067, 10.30056], [11.25994, 10.29321], [11.25959, 10.29262]]]}, "properties": {"name": "Nasarawo", "lga": "Gombe", "state": "go"}}, {"type": "Feature", "geometry": {"type": "Polygon", "coordinates": [[[11.08092, 9.93303], [11.07578, 9.92665], [11.07612, 9.92075], [11.07327, 9.91099], [11.06183, 9.90022], [11.0574, 9.89026], [11.05011, 9.85006], [11.04402, 9.83658], [11.03319, 9.82705], [11.02749, 9.82228], [11.02008, 9.8163], [11.01317, 9.81382], [11.00563, 9.81365], [10.99634, 9.81401], [10.98237, 9.80748], [10.9776, 9.81018], [10.97732, 9.81267], [10.97024, 9.81171], [10.96573, 9.81405], [10.96123, 9.8234], [10.95923, 9.82811], [10.95773, 9.83447], [10.95909, 9.85217], [10.94488, 9.87044], [10.94525, 9.87914], [10.96208, 9.88786], [10.98372, 9.90028], [10.99501, 9.92488], [11.00414, 9.93464], [11.00956, 9.95695], [11.02132, 9.96036], [11.03724, 9.95957], [11.04727, 9.96267], [11.0561, 9.9602], [11.06259, 9.95705], [11.07014, 9.95008], [11.07189, 9.94425], [11.08092, 9.93303]]]}, "properties": {"name": "Kashere", "lga": "Akko", "state": "go"}}, {"type": "Feature", "geometry": {"type": "Polygon", "coordinates": [[[11.21298, 11.15176], [11.21333, 11.15235], [11.22376, 11.16483], [11.24856, 11.18357], [11.27545, 11.17232], [11.30673, 11.14775], [11.31766, 11.12303], [11.27506, 11.09636], [11.27512, 11.09773], [11.27512, 11.09773], [11.27155, 11.11522], [11.2826, 11.1481], [11.26656, 11.15755], [11.25102, 11.13129], [11.242, 11.11062], [11.23194, 11.11645], [11.2222, 11.13068], [11.21673, 11.14863], [11.21298, 11.15176]]]}, "properties": {"name": "Nafada West", "lga": "Nafada", "state": "go"}}, {"type": "Feature", "geometry": {"type": "Polygon", "coordinates": [[[11.20071, 10.08854], [11.17221, 10.08629], [11.16686, 10.08791], [11.1641, 10.08311], [11.15076, 10.06707], [11.13094, 10.06505], [11.12916, 10.07156], [11.12696, 10.07582], [11.11327, 10.08712], [11.1061, 10.0953], [11.09644, 10.09652], [11.0799, 10.12279], [11.10327, 10.14827], [11.12489, 10.16703], [11.13972, 10.17068], [11.16242, 10.15753], [11.18641, 10.16666], [11.18901, 10.16295], [11.19553, 10.14995], [11.20841, 10.14212], [11.21225, 10.13747], [11.2148, 10.13376], [11.21707, 10.12434], [11.21626, 10.11618], [11.21362, 10.11], [11.20645, 10.10365], [11.20073, 10.09104], [11.20071, 10.08854]]]}, "properties": {"name": "Kumo North", "lga": "Akko", "state": "go"}}, {"type": "Feature", "geometry": {"type": "Polygon", "coordinates": [[[11.48504, 9.90414], [11.47363, 9.89205], [11.46986, 9.8745], [11.43662, 9.83477], [11.43272, 9.82702], [11.42279, 9.81518], [11.40779, 9.82241], [11.40317, 9.82679], [11.38547, 9.84534], [11.38548, 9.84549], [11.4138, 9.86263], [11.41576, 9.86524], [11.43009, 9.87712], [11.4334, 9.87608], [11.44344, 9.91783], [11.47024, 9.90982], [11.48504, 9.90414]]]}, "properties": {"name": "Bule / Kaltin", "lga": "Kaltungo", "state": "go"}}, {"type": "Feature", "geometry": {"type": "Polygon", "coordinates": [[[11.07508, 10.43593], [11.15244, 10.45363], [11.18621, 10.40929], [11.20332, 10.37628], [11.23792, 10.36742], [11.26249, 10.37295], [11.31666, 10.39912], [11.32525, 10.39995], [11.33015, 10.39409], [11.32612, 10.38145], [11.31592, 10.37073], [11.31557, 10.37069], [11.31515, 10.37103], [11.30425, 10.36693], [11.29395, 10.36031], [11.28988, 10.35624], [11.28331, 10.34909], [11.27393, 10.34033], [11.24838, 10.33974], [11.22386, 10.34084], [11.21463, 10.34092], [11.19417, 10.31879], [11.19082, 10.31588], [11.18624, 10.31393], [11.1853, 10.31297], [11.18247, 10.31422], [11.18226, 10.31406], [11.1826, 10.31332], [11.18254, 10.31299], [11.18067, 10.3131], [11.17777, 10.31071], [11.1601, 10.31698], [11.15764, 10.31158], [11.15715, 10.31139], [11.15514, 10.31186], [11.15232, 10.31309], [11.14605, 10.31537], [11.14442, 10.31176], [11.14113, 10.31449], [11.13904, 10.31626], [11.13768, 10.3176], [11.12926, 10.32845], [11.12742, 10.33209], [11.12361, 10.32932], [11.12204, 10.32724], [11.12111, 10.32502], [11.12091, 10.32133], [11.12139, 10.31221], [11.12135, 10.31095], [11.09188, 10.31673], [11.07844, 10.30998], [11.07261, 10.31232], [11.06443, 10.31562], [11.07313, 10.33305], [11.07813, 10.37827], [11.0747, 10.41036], [11.07508, 10.43593]]]}, "properties": {"name": "Kwami", "lga": "Kwami", "state": "go"}}, {"type": "Feature", "geometry": {"type": "Polygon", "coordinates": [[[10.98172, 11.17882], [11.07744, 11.28672], [11.09187, 11.2261], [11.13379, 11.20777], [11.16513, 11.20115], [11.1819, 11.19902], [11.19817, 11.17993], [11.20088, 11.17509], [11.22376, 11.16483], [11.21333, 11.15235], [11.21298, 11.15176], [11.19343, 11.11912], [11.18244, 11.11883], [11.17076, 11.10761], [11.14689, 11.12466], [11.13121, 11.11137], [11.11801, 11.09563], [11.09484, 11.08653], [11.07461, 11.06299], [11.06403, 11.07054], [11.05544, 11.0896], [11.02868, 11.09898], [11.01573, 11.10796], [11.03593, 11.13434], [11.0207, 11.15718], [11.00853, 11.14909], [10.98172, 11.17882]]]}, "properties": {"name": "Jigawa", "lga": "Nafada", "state": "go"}}, {"type": "Feature", "geometry": {"type": "Polygon", "coordinates": [[[10.6635, 10.91336], [10.68113, 10.89499], [10.68781, 10.89386], [10.68947, 10.87839], [10.66642, 10.85087], [10.64762, 10.84738], [10.62471, 10.83489], [10.60981, 10.8488], [10.61995, 10.85131], [10.62471, 10.85874], [10.63646, 10.86752], [10.64266, 10.87599], [10.65201, 10.88144], [10.64666, 10.89322], [10.6635, 10.91336]]]}, "properties": {"name": "Hashidu", "lga": "Dukku", "state": "go"}}, {"type": "Feature", "geometry": {"type": "Polygon", "coordinates": [[[11.34276, 9.86819], [11.31625, 9.85723], [11.3093, 9.8603], [11.28689, 9.86046], [11.28679, 9.8607], [11.28349, 9.86824], [11.27973, 9.88207], [11.27362, 9.89643], [11.26581, 9.90959], [11.26275, 9.91872], [11.25636, 9.92692], [11.2475, 9.92979], [11.24903, 9.93531], [11.25236, 9.94234], [11.2563, 9.94748], [11.28109, 9.93156], [11.294, 9.93559], [11.29401, 9.93559], [11.29757, 9.9396], [11.33404, 9.94222], [11.34384, 9.93686], [11.33658, 9.91747], [11.33972, 9.9069], [11.34047, 9.89123], [11.34397, 9.86929], [11.34276, 9.86819]]]}, "properties": {"name": "Tungo", "lga": "Kaltungo", "state": "go"}}, {"type": "Feature", "geometry": {"type": "Polygon", "coordinates": [[[11.3712, 11.09843], [11.37501, 11.09677], [11.3781, 11.09437], [11.39114, 11.09016], [11.38061, 11.07872], [11.38276, 11.06733], [11.38276, 11.06179], [11.38009, 11.04797], [11.37847, 11.03952], [11.36888, 11.03263], [11.36132, 11.02752], [11.35329, 11.02328], [11.35021, 11.02983], [11.3478, 11.03876], [11.34499, 11.0455], [11.33568, 11.05458], [11.33174, 11.06831], [11.33434, 11.08326], [11.33518, 11.08977], [11.33494, 11.09252], [11.33499, 11.09677], [11.3407, 11.10171], [11.36858, 11.1009], [11.3712, 11.09843]]]}, "properties": {"name": "Nafada East", "lga": "Nafada", "state": "go"}}, {"type": "Feature", "geometry": {"type": "Polygon", "coordinates": [[[11.28689, 9.86046], [11.3093, 9.8603], [11.31625, 9.85723], [11.34276, 9.86819], [11.36177, 9.83113], [11.35546, 9.82565], [11.35565, 9.81101], [11.35407, 9.80555], [11.34596, 9.79178], [11.33463, 9.8047], [11.3278, 9.81236], [11.31788, 9.81484], [11.31011, 9.81115], [11.29472, 9.79216], [11.29451, 9.79229], [11.29062, 9.79256], [11.28828, 9.79375], [11.2885, 9.79527], [11.29172, 9.80753], [11.2926, 9.82089], [11.29514, 9.83835], [11.29068, 9.8505], [11.28776, 9.85848], [11.28689, 9.86046]]]}, "properties": {"name": "Kaltungo West", "lga": "Kaltungo", "state": "go"}}, {"type": "Feature", "geometry": {"type": "Polygon", "coordinates": [[[11.12158, 9.86368], [11.10173, 9.8538], [11.09726, 9.85554], [11.08474, 9.86417], [11.08085, 9.86576], [11.05324, 9.86859], [11.05373, 9.87161], [11.05581, 9.88268], [11.0574, 9.89026], [11.06183, 9.90022], [11.07327, 9.91099], [11.07612, 9.92075], [11.07578, 9.92665], [11.08092, 9.93303], [11.08148, 9.93373], [11.08482, 9.93788], [11.09074, 9.94086], [11.10868, 9.9226], [11.11257, 9.92004], [11.11375, 9.90973], [11.1326, 9.88322], [11.12158, 9.86368]]]}, "properties": {"name": "Banganje North", "lga": "Billiri", "state": "go"}}, {"type": "Feature", "geometry": {"type": "Polygon", "coordinates": [[[11.54558, 9.88894], [11.55534, 9.87745], [11.56591, 9.87131], [11.57421, 9.8628], [11.57414, 9.86248], [11.56989, 9.84196], [11.56989, 9.82322], [11.56513, 9.79793], [11.56846, 9.78716], [11.56799, 9.77685], [11.56989, 9.7641], [11.56987, 9.76385], [11.56848, 9.7484], [11.5682, 9.74685], [11.54328, 9.77481], [11.52268, 9.797], [11.51105, 9.80771], [11.50383, 9.81348], [11.48231, 9.82389], [11.47575, 9.81957], [11.46776, 9.81409], [11.46152, 9.79057], [11.458, 9.78715], [11.45247, 9.759], [11.43929, 9.74497], [11.408, 9.75488], [11.40055, 9.76501], [11.42279, 9.81518], [11.43272, 9.82702], [11.43662, 9.83477], [11.46986, 9.8745], [11.47474, 9.86427], [11.48928, 9.84791], [11.50105, 9.84732], [11.51983, 9.86032], [11.52198, 9.85828], [11.54558, 9.88894]]]}, "properties": {"name": "Wange", "lga": "Kaltungo", "state": "go"}}, {"type": "Feature", "geometry": {"type": "Polygon", "coordinates": [[[11.55534, 9.87745], [11.54558, 9.88894], [11.53848, 9.89729], [11.53735, 9.90555], [11.53483, 9.91016], [11.53674, 9.91696], [11.53942, 9.92052], [11.54457, 9.92049], [11.55085, 9.92412], [11.55479, 9.92916], [11.55195, 9.93334], [11.54407, 9.93403], [11.53593, 9.93052], [11.53111, 9.93085], [11.52716, 9.93111], [11.5255, 9.93334], [11.52336, 9.93703], [11.5233, 9.93993], [11.52251, 9.94977], [11.5228, 9.9637], [11.52319, 9.97299], [11.52637, 9.98698], [11.53351, 10.00629], [11.53851, 10.01685], [11.53943, 10.0216], [11.54592, 10.0234], [11.54919, 10.02554], [11.55044, 10.03028], [11.55204, 10.03363], [11.55895, 10.03554], [11.56861, 10.03585], [11.57754, 10.038], [11.58198, 10.04488], [11.5808, 10.04741], [11.57929, 10.04982], [11.57999, 10.05246], [11.58535, 10.05629], [11.58602, 10.0604], [11.60337, 10.03649], [11.61496, 10.00577], [11.63903, 9.99103], [11.6528, 9.98438], [11.6731, 9.97687], [11.67667, 9.97156], [11.67428, 9.96728], [11.62683, 9.94343], [11.61804, 9.92868], [11.61934, 9.91538], [11.61668, 9.90331], [11.60775, 9.89997], [11.58747, 9.89549], [11.56557, 9.88893], [11.55534, 9.87745]]]}, "properties": {"name": "Gelengu", "lga": "Balanga", "state": "go"}}, {"type": "Feature", "geometry": {"type": "Polygon", "coordinates": [[[11.5682, 9.74685], [11.56692, 9.73967], [11.55952, 9.72947], [11.55621, 9.72492], [11.54821, 9.71893], [11.53675, 9.71228], [11.53051, 9.70938], [11.47509, 9.74282], [11.45247, 9.759], [11.458, 9.78715], [11.46152, 9.79057], [11.46776, 9.81409], [11.47575, 9.81957], [11.48231, 9.82389], [11.50383, 9.81348], [11.51105, 9.80771], [11.52268, 9.797], [11.54328, 9.77481], [11.5682, 9.74685]]]}, "properties": {"name": "Yiri", "lga": "Kaltungo", "state": "go"}}, {"type": "Feature", "geometry": {"type": "Polygon", "coordinates": [[[11.4821, 9.69802], [11.51653, 9.60758], [11.50166, 9.60755], [11.49122, 9.60414], [11.48433, 9.60415], [11.48428, 9.60415], [11.47384, 9.60075], [11.46805, 9.59847], [11.44447, 9.57615], [11.44286, 9.56973], [11.44189, 9.56043], [11.43395, 9.55213], [11.4296, 9.54963], [11.42764, 9.5485], [11.42015, 9.54601], [11.40568, 9.54451], [11.39347, 9.54597], [11.3813, 9.54568], [11.37385, 9.5468], [11.37619, 9.56819], [11.38002, 9.5793], [11.38221, 9.58515], [11.38838, 9.59515], [11.39113, 9.60276], [11.39177, 9.605], [11.39383, 9.6121], [11.40052, 9.62502], [11.40028, 9.62502], [11.40052, 9.62548], [11.40155, 9.63189], [11.40373, 9.63832], [11.40646, 9.6465], [11.41873, 9.66952], [11.43627, 9.69081], [11.44657, 9.69743], [11.4539, 9.69971], [11.45939, 9.69938], [11.46743, 9.69849], [11.4821, 9.69802]]]}, "properties": {"name": "Dadiya", "lga": "Balanga", "state": "go"}}, {"type": "Feature", "geometry": {"type": "Polygon", "coordinates": [[[10.78675, 11.06382], [10.78711, 11.06408], [10.78904, 11.07284], [10.79913, 11.08426], [10.82045, 11.08407], [10.85338, 11.08502], [10.86423, 11.08844], [10.88213, 11.08597], [10.9103, 11.08825], [10.92191, 11.09206], [10.92957, 11.09074], [10.93084, 11.07474], [10.898, 11.0538], [10.85851, 11.03048], [10.81567, 11.03143], [10.79949, 11.0438], [10.78697, 11.06348], [10.78675, 11.06382]]]}, "properties": {"name": "Zaune", "lga": "Dukku", "state": "go"}}, {"type": "Feature", "geometry": {"type": "Polygon", "coordinates": [[[11.5682, 9.74685], [11.56848, 9.7484], [11.56987, 9.76385], [11.57594, 9.76129], [11.63679, 9.76598], [11.65169, 9.75845], [11.67387, 9.74724], [11.67159, 9.73993], [11.6655, 9.727], [11.66417, 9.68595], [11.68363, 9.66319], [11.67782, 9.65863], [11.67202, 9.65521], [11.66388, 9.64837], [11.66038, 9.64265], [11.65457, 9.63695], [11.64529, 9.63239], [11.63601, 9.62898], [11.63447, 9.62746], [11.61361, 9.65633], [11.61316, 9.65695], [11.57144, 9.7147], [11.55952, 9.72947], [11.56692, 9.73967], [11.5682, 9.74685]]]}, "properties": {"name": "Mona", "lga": "Balanga", "state": "go"}}, {"type": "Feature", "geometry": {"type": "Polygon", "coordinates": [[[11.41746, 10.15423], [11.42746, 10.13686], [11.44459, 10.12139], [11.45672, 10.10617], [11.44721, 10.08071], [11.43224, 10.06232], [11.41718, 10.07051], [11.38773, 10.07408], [11.36339, 10.07197], [11.33072, 10.07873], [11.32626, 10.083], [11.3248, 10.08439], [11.32066, 10.08836], [11.30402, 10.10769], [11.29839, 10.12988], [11.29289, 10.15984], [11.28822, 10.17399], [11.28576, 10.19507], [11.31224, 10.19601], [11.30824, 10.20979], [11.32307, 10.21619], [11.34073, 10.15976], [11.34007, 10.14017], [11.3565, 10.13604], [11.38408, 10.13698], [11.3973, 10.1492], [11.40826, 10.15349], [11.41746, 10.15423]]]}, "properties": {"name": "Nono / Kunuwal / Wuro Birdeka", "lga": "Yamaltu/Deba", "state": "go"}}, {"type": "Feature", "geometry": {"type": "Polygon", "coordinates": [[[11.23605, 9.65493], [11.25119, 9.63825], [11.25126, 9.63827], [11.2503, 9.63268], [11.22865, 9.62331], [11.22754, 9.61322], [11.22509, 9.60654], [11.22782, 9.56908], [11.22709, 9.56937], [11.22245, 9.56926], [11.21035, 9.5655], [11.19884, 9.56117], [11.19194, 9.55811], [11.18213, 9.55556], [11.17117, 9.55299], [11.16194, 9.55114], [11.16194, 9.55161], [11.16315, 9.59065], [11.16316, 9.59105], [11.16134, 9.59983], [11.16004, 9.60573], [11.15997, 9.60607], [11.16208, 9.60967], [11.16573, 9.60956], [11.16761, 9.61327], [11.17692, 9.62263], [11.17662, 9.66463], [11.17663, 9.6648], [11.18642, 9.66666], [11.20544, 9.65084], [11.23605, 9.65493]]]}, "properties": {"name": "Kushi", "lga": "Shomgom", "state": "go"}}, {"type": "Feature", "geometry": {"type": "Polygon", "coordinates": [[[11.53943, 10.0216], [11.53851, 10.01685], [11.53351, 10.00629], [11.48656, 10.01974], [11.47987, 10.00122], [11.4726, 9.9915], [11.46384, 9.98728], [11.4491, 9.98887], [11.42848, 9.9938], [11.41847, 10.00377], [11.3908, 10.0109], [11.38553, 10.01223], [11.35863, 10.02172], [11.3333, 10.02645], [11.3211, 10.02789], [11.30376, 10.02791], [11.29835, 10.01995], [11.28288, 10.00516], [11.27287, 10.0023], [11.26286, 10.0098], [11.25659, 10.00592], [11.25371, 10.00224], [11.25041, 10.00734], [11.2441, 10.00458], [11.24079, 10.00726], [11.24733, 10.0404], [11.24981, 10.04901], [11.24339, 10.07623], [11.25398, 10.08055], [11.26139, 10.0806], [11.26638, 10.07863], [11.2808, 10.0685], [11.28179, 10.06743], [11.28732, 10.07174], [11.31589, 10.09463], [11.33072, 10.07873], [11.36339, 10.07197], [11.38773, 10.07408], [11.41718, 10.07051], [11.43224, 10.06232], [11.45822, 10.0482], [11.47184, 10.04314], [11.49272, 10.04305], [11.51253, 10.03887], [11.52015, 10.03498], [11.53076, 10.02711], [11.53943, 10.0216]]]}, "properties": {"name": "Kumo East", "lga": "Akko", "state": "go"}}, {"type": "Feature", "geometry": {"type": "Polygon", "coordinates": [[[11.27333, 10.98194], [11.28031, 10.98284], [11.30346, 10.97337], [11.28325, 10.93837], [11.28249, 10.91017], [11.28001, 10.90959], [11.22881, 10.8976], [11.19904, 10.8715], [11.19002, 10.87828], [11.15986, 10.89605], [11.14842, 10.90279], [11.10203, 10.93335], [11.10681, 10.95434], [11.11227, 10.97071], [11.12065, 10.98598], [11.12118, 11.00029], [11.16439, 11.0094], [11.1935, 11.01174], [11.19796, 10.9922], [11.21103, 10.95895], [11.23147, 10.96099], [11.24136, 10.97011], [11.25108, 10.97907], [11.27333, 10.98194]]]}, "properties": {"name": "Birin Fulani West", "lga": "Nafada", "state": "go"}}, {"type": "Feature", "geometry": {"type": "Polygon", "coordinates": [[[11.43166, 10.83081], [11.43028, 10.84362], [11.43396, 10.84651], [11.41736, 10.88802], [11.41925, 10.89088], [11.43111, 10.88433], [11.45108, 10.88645], [11.45803, 10.89827], [11.46608, 10.90776], [11.49148, 10.88974], [11.48554, 10.86056], [11.47741, 10.83433], [11.46174, 10.84218], [11.43654, 10.83168], [11.43166, 10.83081]]]}, "properties": {"name": "Bajoga East", "lga": "Funakaye", "state": "go"}}, {"type": "Feature", "geometry": {"type": "Polygon", "coordinates": [[[11.08283, 9.69003], [11.10129, 9.68044], [11.11019, 9.66358], [11.10437, 9.65332], [11.09817, 9.63664], [11.08915, 9.61841], [11.08033, 9.59563], [11.0918, 9.58449], [11.0918, 9.58179], [11.09317, 9.5791], [11.09721, 9.5774], [11.10024, 9.57464], [11.11305, 9.55507], [11.12482, 9.53334], [11.1239, 9.53266], [11.11424, 9.5256], [11.09451, 9.5331], [11.08358, 9.54669], [11.07641, 9.55137], [11.07086, 9.55124], [11.06214, 9.5522], [11.04798, 9.55033], [11.04536, 9.56138], [11.04054, 9.58514], [11.03407, 9.59464], [11.02594, 9.60192], [11.01352, 9.60084], [10.99943, 9.6135], [10.97801, 9.62241], [10.98222, 9.62576], [10.98817, 9.63023], [10.98989, 9.64055], [10.98502, 9.64183], [10.96405, 9.6625], [10.95691, 9.6686], [10.95649, 9.67093], [10.95632, 9.67187], [10.96054, 9.67544], [10.96007, 9.67925], [11.01948, 9.69858], [11.05692, 9.68979], [11.08283, 9.69003]]]}, "properties": {"name": "Gwandum", "lga": "Shomgom", "state": "go"}}, {"type": "Feature", "geometry": {"type": "Polygon", "coordinates": [[[11.58602, 10.0604], [11.58535, 10.05629], [11.57999, 10.05246], [11.53721, 10.0731], [11.55897, 10.08807], [11.56328, 10.09132], [11.5641, 10.09938], [11.57542, 10.1148], [11.58437, 10.1267], [11.59113, 10.13165], [11.59665, 10.13107], [11.60193, 10.13199], [11.60133, 10.14194], [11.59665, 10.14254], [11.595, 10.14531], [11.61369, 10.16747], [11.61746, 10.18029], [11.61882, 10.18376], [11.62289, 10.18707], [11.62666, 10.19944], [11.62304, 10.20532], [11.61098, 10.2112], [11.60495, 10.2112], [11.60407, 10.21635], [11.58224, 10.22085], [11.58452, 10.24217], [11.58224, 10.24769], [11.57869, 10.25279], [11.57371, 10.25701], [11.57477, 10.2745], [11.56996, 10.28862], [11.57186, 10.28998], [11.57515, 10.29211], [11.57852, 10.28972], [11.58146, 10.28666], [11.58666, 10.28589], [11.58977, 10.28257], [11.59262, 10.27534], [11.59453, 10.27049], [11.59505, 10.26393], [11.59548, 10.26044], [11.59721, 10.25704], [11.59946, 10.25491], [11.60396, 10.25252], [11.60854, 10.25091], [11.61238, 10.24909], [11.61411, 10.24483], [11.61315, 10.241], [11.61393, 10.23709], [11.61575, 10.23419], [11.61791, 10.23164], [11.61791, 10.23002], [11.6167, 10.22857], [11.61402, 10.22849], [11.61177, 10.22798], [11.60995, 10.22415], [11.61194, 10.21997], [11.61644, 10.21674], [11.6212, 10.21274], [11.6231, 10.20967], [11.62855, 10.20848], [11.6308, 10.20805], [11.63375, 10.20814], [11.6366, 10.20627], [11.63842, 10.20414], [11.63954, 10.20311], [11.64231, 10.2038], [11.64629, 10.20337], [11.64811, 10.20116], [11.65087, 10.20064], [11.65468, 10.20022], [11.6565, 10.2009], [11.67105, 10.1973], [11.68683, 10.18992], [11.69569, 10.18781], [11.71089, 10.17327], [11.72579, 10.15016], [11.72753, 10.14616], [11.7314, 10.14315], [11.73604, 10.1178], [11.75011, 10.10411], [11.75377, 10.09675], [11.75373, 10.0956], [11.75436, 10.09325], [11.75465, 10.09164], [11.75104, 10.09074], [11.74975, 10.08961], [11.74832, 10.08921], [11.74742, 10.08964], [11.74569, 10.09131], [11.74421, 10.09432], [11.73553, 10.09593], [11.71992, 10.08091], [11.71427, 10.0827], [11.70519, 10.07883], [11.68905, 10.08531], [11.68602, 10.08299], [11.68174, 10.07972], [11.67903, 10.07495], [11.6739, 10.07186], [11.66763, 10.07467], [11.65993, 10.0772], [11.65128, 10.07785], [11.6465, 10.07651], [11.63505, 10.07177], [11.62542, 10.06747], [11.62436, 10.07103], [11.62157, 10.07131], [11.61613, 10.06922], [11.60982, 10.06578], [11.60567, 10.06735], [11.59764, 10.0672], [11.59123, 10.06498], [11.58604, 10.06055], [11.58602, 10.0604]]]}, "properties": {"name": "Jagali North", "lga": "Yamaltu/Deba", "state": "go"}}, {"type": "Feature", "geometry": {"type": "MultiPolygon", "coordinates": [[[[11.12158, 9.86368], [11.1326, 9.88322], [11.15346, 9.88971], [11.15366, 9.88963], [11.15903, 9.88527], [11.16122, 9.86791], [11.1711, 9.84732], [11.15681, 9.85116], [11.14575, 9.85307], [11.13316, 9.85548], [11.12158, 9.86368]]], [[[11.23891, 9.81977], [11.2323, 9.82177], [11.22202, 9.83416], [11.20607, 9.85644], [11.20405, 9.85743], [11.1911, 9.88117], [11.19783, 9.89201], [11.19831, 9.89838], [11.19857, 9.89946], [11.19708, 9.90167], [11.18151, 9.91029], [11.18138, 9.91026], [11.17029, 9.91945], [11.16728, 9.92582], [11.15547, 9.93655], [11.16104, 9.95018], [11.19089, 9.94284], [11.19401, 9.94378], [11.20766, 9.93615], [11.22066, 9.9422], [11.2244, 9.93695], [11.21547, 9.92861], [11.21286, 9.92662], [11.20894, 9.92251], [11.21165, 9.91255], [11.21244, 9.90949], [11.21893, 9.90055], [11.21998, 9.89296], [11.22252, 9.88821], [11.2248, 9.88251], [11.23068, 9.87049], [11.23297, 9.86907], [11.23499, 9.86583], [11.23667, 9.8648], [11.2389, 9.86525], [11.24089, 9.86654], [11.24258, 9.86669], [11.24161, 9.84639], [11.24129, 9.83362], [11.2398, 9.82198], [11.23891, 9.81977]]], [[[11.21717, 9.99094], [11.22078, 9.99036], [11.22411, 9.98983], [11.22666, 9.99067], [11.22694, 9.99076], [11.2441, 10.00458], [11.25041, 10.00734], [11.25371, 10.00224], [11.25659, 10.00592], [11.26286, 10.0098], [11.27287, 10.0023], [11.27926, 9.98715], [11.2796, 9.98636], [11.2873, 9.97996], [11.29114, 9.96834], [11.25761, 9.9487], [11.25001, 9.96038], [11.23193, 9.95838], [11.22872, 9.9585], [11.22615, 9.95911], [11.2228, 9.96215], [11.21717, 9.99094]]]]}, "properties": {"name": "Billiri South", "lga": "Billiri", "state": "go"}}, {"type": "Feature", "geometry": {"type": "Polygon", "coordinates": [[[11.65516, 10.50343], [11.66276, 10.49682], [11.66212, 10.49585], [11.65951, 10.49338], [11.65684, 10.48971], [11.66108, 10.48629], [11.65693, 10.47321], [11.65668, 10.46819], [11.65647, 10.46061], [11.65521, 10.45644], [11.64948, 10.45435], [11.63643, 10.44936], [11.6197, 10.44224], [11.60251, 10.42726], [11.60075, 10.42221], [11.59815, 10.41762], [11.59907, 10.41277], [11.59893, 10.40638], [11.59773, 10.40116], [11.597, 10.39501], [11.59246, 10.39143], [11.57406, 10.38531], [11.56994, 10.38514], [11.5687, 10.38465], [11.56856, 10.38352], [11.56745, 10.38207], [11.56572, 10.38122], [11.5629, 10.37565], [11.56088, 10.37054], [11.55243, 10.36851], [11.54348, 10.34207], [11.54426, 10.33858], [11.54392, 10.33433], [11.54617, 10.32871], [11.52656, 10.34089], [11.51666, 10.34413], [11.506, 10.3407], [11.48963, 10.34127], [11.47383, 10.3407], [11.46867, 10.35083], [11.46279, 10.3624], [11.45596, 10.39233], [11.45353, 10.40542], [11.44299, 10.42256], [11.43918, 10.44029], [11.44883, 10.45038], [11.45566, 10.45692], [11.43363, 10.45605], [11.40717, 10.46531], [11.41458, 10.49652], [11.4146, 10.49662], [11.42501, 10.51298], [11.42565, 10.51264], [11.45473, 10.4971], [11.48004, 10.48359], [11.49092, 10.49022], [11.50945, 10.51965], [11.51094, 10.53587], [11.51322, 10.53767], [11.51659, 10.54296], [11.5182, 10.54938], [11.51859, 10.55184], [11.52185, 10.569], [11.52187, 10.569], [11.52759, 10.56763], [11.55153, 10.58791], [11.56131, 10.59162], [11.5729, 10.59247], [11.58331, 10.59387], [11.57564, 10.57981], [11.57278, 10.57259], [11.59984, 10.53421], [11.63237, 10.52081], [11.63768, 10.51863], [11.65516, 10.50343]]]}, "properties": {"name": "Gwani / Shinga / Wade", "lga": "Yamaltu/Deba", "state": "go"}}, {"type": "Feature", "geometry": {"type": "Polygon", "coordinates": [[[11.13778, 9.69958], [11.15315, 9.68454], [11.17662, 9.66463], [11.17692, 9.62263], [11.16761, 9.61327], [11.16573, 9.60956], [11.16208, 9.60967], [11.15997, 9.60607], [11.16004, 9.60573], [11.16134, 9.59983], [11.16316, 9.59105], [11.16315, 9.59065], [11.16194, 9.55161], [11.16194, 9.55114], [11.16186, 9.55113], [11.16135, 9.55102], [11.15091, 9.55078], [11.12482, 9.53334], [11.11305, 9.55507], [11.10024, 9.57464], [11.09721, 9.5774], [11.09317, 9.5791], [11.0918, 9.58179], [11.0918, 9.58449], [11.08033, 9.59563], [11.08915, 9.61841], [11.09817, 9.63664], [11.10437, 9.65332], [11.11019, 9.66358], [11.10129, 9.68044], [11.11211, 9.68961], [11.12604, 9.69281], [11.13778, 9.69958]]]}, "properties": {"name": "Filiya", "lga": "Shomgom", "state": "go"}}, {"type": "Feature", "geometry": {"type": "Polygon", "coordinates": [[[11.17076, 11.10761], [11.18244, 11.11883], [11.19343, 11.11912], [11.21298, 11.15176], [11.21673, 11.14863], [11.2222, 11.13068], [11.23194, 11.11645], [11.242, 11.11062], [11.24686, 11.10781], [11.25167, 11.10502], [11.24383, 11.07004], [11.23903, 11.06568], [11.23099, 11.05837], [11.23646, 11.03738], [11.23931, 11.02665], [11.2241, 11.02012], [11.21079, 11.04088], [11.20009, 11.04811], [11.19349, 11.04777], [11.18216, 11.0472], [11.18245, 11.04858], [11.1892, 11.08058], [11.17601, 11.10402], [11.17076, 11.10761]]]}, "properties": {"name": "Barwo Nasarawo", "lga": "Nafada", "state": "go"}}, {"type": "Feature", "geometry": {"type": "Polygon", "coordinates": [[[11.05324, 9.86859], [11.08085, 9.86576], [11.08474, 9.86417], [11.09726, 9.85554], [11.10173, 9.8538], [11.13227, 9.82424], [11.17694, 9.82589], [11.18559, 9.81131], [11.13519, 9.78028], [11.12608, 9.76936], [11.12441, 9.75941], [11.12779, 9.75012], [11.12502, 9.74435], [11.12081, 9.74255], [11.09702, 9.74563], [11.08556, 9.74107], [11.06832, 9.74341], [11.06657, 9.75054], [11.06053, 9.76181], [11.05163, 9.79336], [11.04992, 9.79476], [11.03224, 9.79651], [11.02008, 9.8163], [11.02749, 9.82228], [11.03319, 9.82705], [11.04402, 9.83658], [11.05011, 9.85006], [11.05167, 9.8588], [11.05324, 9.86859]]]}, "properties": {"name": "Tal", "lga": "Billiri", "state": "go"}}, {"type": "Feature", "geometry": {"type": "Polygon", "coordinates": [[[11.19999, 9.72521], [11.18867, 9.71579], [11.17753, 9.72311], [11.16488, 9.75119], [11.21319, 9.78748], [11.23172, 9.79221], [11.23384, 9.80154], [11.23649, 9.81378], [11.23656, 9.81397], [11.24112, 9.81275], [11.25634, 9.80769], [11.26451, 9.80011], [11.27155, 9.79233], [11.28207, 9.79295], [11.27453, 9.77216], [11.25671, 9.75181], [11.23234, 9.748], [11.21927, 9.74127], [11.19999, 9.72521]]]}, "properties": {"name": "Boh", "lga": "Shomgom", "state": "go"}}, {"type": "Feature", "geometry": {"type": "Polygon", "coordinates": [[[10.91255, 10.47501], [10.94039, 10.47276], [10.97591, 10.453], [10.98797, 10.43315], [11.07508, 10.43593], [11.0747, 10.41036], [11.07813, 10.37827], [11.07313, 10.33305], [11.06443, 10.31562], [11.03226, 10.33103], [11.00509, 10.33462], [10.99483, 10.35331], [10.99213, 10.36744], [10.97113, 10.37195], [10.93124, 10.35558], [10.88311, 10.37429], [10.87287, 10.38447], [10.92306, 10.42381], [10.91255, 10.47501]]]}, "properties": {"name": "Komfulata", "lga": "Kwami", "state": "go"}}, {"type": "Feature", "geometry": {"type": "Polygon", "coordinates": [[[11.13094, 10.06505], [11.15076, 10.06707], [11.15482, 10.04976], [11.15797, 10.03633], [11.16921, 10.03255], [11.17057, 10.03107], [11.17555, 10.02942], [11.17937, 10.03038], [11.19337, 10.03026], [11.19763, 10.04079], [11.20219, 10.04607], [11.2048, 10.05439], [11.20792, 10.05577], [11.21062, 10.05496], [11.21153, 10.05304], [11.2087, 10.04929], [11.21511, 10.04769], [11.21933, 10.04784], [11.22207, 10.04247], [11.2255, 10.03663], [11.21801, 10.01872], [11.21788, 10.00598], [11.22078, 9.99036], [11.21717, 9.99094], [11.20617, 9.9927], [11.18929, 9.98666], [11.18629, 9.98598], [11.18266, 9.98377], [11.17728, 9.97729], [11.17344, 9.96657], [11.1651, 9.95482], [11.12118, 9.94974], [11.1161, 9.95677], [11.10531, 9.96712], [11.10062, 9.97553], [11.09856, 9.98139], [11.10011, 9.99144], [11.09812, 9.99693], [11.09525, 10.00407], [11.09183, 10.01541], [11.08757, 10.01931], [11.08064, 10.02531], [11.08004, 10.03368], [11.0839, 10.04164], [11.09347, 10.05038], [11.10018, 10.05218], [11.10972, 10.05528], [11.12765, 10.06003], [11.13094, 10.06505]]]}, "properties": {"name": "Kumo West", "lga": "Akko", "state": "go"}}, {"type": "Feature", "geometry": {"type": "Polygon", "coordinates": [[[11.34706, 10.8936], [11.34522, 10.87198], [11.36384, 10.83968], [11.36313, 10.83021], [11.35077, 10.81901], [11.3434, 10.8071], [11.34012, 10.7953], [11.34002, 10.79527], [11.33967, 10.79496], [11.33223, 10.7927], [11.32687, 10.79093], [11.31704, 10.78955], [11.31678, 10.78958], [11.3089, 10.79052], [11.27061, 10.79602], [11.25651, 10.79906], [11.25604, 10.79916], [11.24549, 10.80098], [11.23745, 10.80167], [11.23041, 10.80227], [11.21651, 10.80347], [11.2053, 10.81249], [11.20535, 10.81267], [11.21777, 10.85699], [11.19002, 10.87828], [11.19904, 10.8715], [11.22881, 10.8976], [11.28001, 10.90959], [11.28934, 10.8971], [11.30496, 10.8845], [11.32086, 10.88176], [11.33469, 10.8873], [11.34706, 10.8936]]]}, "properties": {"name": "Birin Bolawa", "lga": "Nafada", "state": "go"}}, {"type": "Feature", "geometry": {"type": "Polygon", "coordinates": [[[11.41797, 10.88638], [11.37146, 10.87897], [11.34778, 10.867], [11.34522, 10.87198], [11.34591, 10.87717], [11.3472, 10.88683], [11.34693, 10.89959], [11.33946, 10.92105], [11.34416, 10.92096], [11.34333, 10.92915], [11.32681, 10.95155], [11.3255, 10.95867], [11.32209, 10.96498], [11.3244, 10.97044], [11.32435, 10.97461], [11.32433, 10.97595], [11.32748, 10.98569], [11.32737, 10.98671], [11.32651, 11.00004], [11.32846, 11.00389], [11.33097, 11.00884], [11.37847, 11.03952], [11.38009, 11.04797], [11.38276, 11.06179], [11.38276, 11.06733], [11.38061, 11.07872], [11.39081, 11.08998], [11.39435, 11.09197], [11.40014, 11.08909], [11.40246, 11.08793], [11.40719, 11.0834], [11.41212, 11.08021], [11.43485, 11.05591], [11.44326, 11.05059], [11.44856, 11.04666], [11.45218, 11.0422], [11.4569, 11.03641], [11.47055, 11.02165], [11.47342, 11.01754], [11.47936, 11.00809], [11.48254, 11.00278], [11.48848, 10.99596], [11.49497, 10.99089], [11.51499, 10.96592], [11.53036, 10.93487], [11.51023, 10.92879], [11.47974, 10.92599], [11.46982, 10.92109], [11.47016, 10.91481], [11.46608, 10.90776], [11.45803, 10.89827], [11.45108, 10.88645], [11.43111, 10.88433], [11.41925, 10.89088], [11.41736, 10.88802], [11.41797, 10.88638]]]}, "properties": {"name": "Bage", "lga": "Funakaye", "state": "go"}}, {"type": "Feature", "geometry": {"type": "Polygon", "coordinates": [[[11.15244, 10.45363], [11.07508, 10.43593], [10.98797, 10.43315], [10.97591, 10.453], [11.01551, 10.50255], [11.07294, 10.57687], [11.09227, 10.66289], [11.13677, 10.67226], [11.14667, 10.67074], [11.1721, 10.66045], [11.18187, 10.65649], [11.18092, 10.6438], [11.17974, 10.62814], [11.19248, 10.57894], [11.21301, 10.56594], [11.23322, 10.55542], [11.25165, 10.53152], [11.26562, 10.52894], [11.28975, 10.52795], [11.26011, 10.48691], [11.24766, 10.48228], [11.18049, 10.46236], [11.15244, 10.45363]]]}, "properties": {"name": "Gadam", "lga": "Kwami", "state": "go"}}, {"type": "Feature", "geometry": {"type": "Polygon", "coordinates": [[[10.92789, 10.19253], [10.92932, 10.1927], [10.94744, 10.202], [10.95675, 10.20967], [10.96916, 10.21971], [10.97874, 10.22601], [10.98719, 10.23299], [11.00195, 10.24692], [11.01001, 10.25042], [11.04755, 10.263], [11.05656, 10.25722], [11.0739, 10.23823], [11.0791, 10.23096], [11.08422, 10.20974], [11.0697, 10.18914], [11.07607, 10.18125], [11.09065, 10.16991], [11.10474, 10.16885], [11.12489, 10.16703], [11.10327, 10.14827], [11.0799, 10.12279], [11.07228, 10.12149], [11.06844, 10.11736], [11.06616, 10.11431], [11.0609, 10.10045], [11.05561, 10.09641], [11.03516, 10.09138], [11.031, 10.08759], [11.02893, 10.08406], [11.03289, 10.07728], [11.03417, 10.07407], [11.03461, 10.06911], [11.03347, 10.0643], [11.0272, 10.05487], [11.02144, 10.04894], [11.00985, 10.04434], [11.00803, 10.04437], [11.00632, 10.04563], [11.00455, 10.06283], [11.00164, 10.06815], [10.99509, 10.07542], [10.99227, 10.07902], [10.98424, 10.07663], [10.97746, 10.06967], [10.96736, 10.06477], [10.95515, 10.06251], [10.94119, 10.06688], [10.92854, 10.07187], [10.92611, 10.07626], [10.92569, 10.08485], [10.92842, 10.08929], [10.93197, 10.09856], [10.92547, 10.1319], [10.92316, 10.18642], [10.92789, 10.19253]]]}, "properties": {"name": "Tukulma", "lga": "Akko", "state": "go"}}, {"type": "Feature", "geometry": {"type": "Polygon", "coordinates": [[[11.36112, 10.7569], [11.36024, 10.76528], [11.36086, 10.76938], [11.356, 10.77932], [11.35196, 10.78352], [11.33967, 10.79496], [11.34002, 10.79527], [11.34012, 10.7953], [11.3434, 10.8071], [11.35077, 10.81901], [11.36313, 10.83021], [11.36384, 10.83968], [11.37549, 10.84212], [11.4071, 10.84119], [11.41676, 10.82815], [11.40543, 10.82297], [11.3953, 10.80768], [11.3825, 10.79544], [11.37593, 10.78055], [11.37698, 10.75072], [11.36384, 10.75473], [11.36112, 10.7569]]]}, "properties": {"name": "Wawa / Wakkaltu", "lga": "Funakaye", "state": "go"}}, {"type": "Feature", "geometry": {"type": "MultiPolygon", "coordinates": [[[[11.24468, 9.87653], [11.24258, 9.86669], [11.24089, 9.86654], [11.2389, 9.86525], [11.23667, 9.8648], [11.23499, 9.86583], [11.23297, 9.86907], [11.23068, 9.87049], [11.2248, 9.88251], [11.22252, 9.88821], [11.21998, 9.89296], [11.21893, 9.90055], [11.21244, 9.90949], [11.21165, 9.91255], [11.22205, 9.91772], [11.22567, 9.91895], [11.22989, 9.9124], [11.23282, 9.90354], [11.23402, 9.89133], [11.24146, 9.877], [11.24468, 9.87653]]], [[[11.25761, 9.9487], [11.25688, 9.94825], [11.2563, 9.94748], [11.25236, 9.94234], [11.24903, 9.93531], [11.2475, 9.92979], [11.24424, 9.93051], [11.24247, 9.93061], [11.23468, 9.93485], [11.22605, 9.93534], [11.2244, 9.93695], [11.22066, 9.9422], [11.22615, 9.95911], [11.22872, 9.9585], [11.23193, 9.95838], [11.25001, 9.96038], [11.25761, 9.9487]]]]}, "properties": {"name": "Bare", "lga": "Billiri", "state": "go"}}, {"type": "Feature", "geometry": {"type": "Polygon", "coordinates": [[[11.31894, 10.44191], [11.32037, 10.44097], [11.32482, 10.43805], [11.32525, 10.39995], [11.31666, 10.39912], [11.26249, 10.37295], [11.23792, 10.36742], [11.20332, 10.37628], [11.18621, 10.40929], [11.15244, 10.45363], [11.18049, 10.46236], [11.24766, 10.48228], [11.24905, 10.46604], [11.24478, 10.45537], [11.23969, 10.45351], [11.24259, 10.44067], [11.25858, 10.43823], [11.31894, 10.44191]]]}, "properties": {"name": "Doho", "lga": "Kwami", "state": "go"}}, {"type": "Feature", "geometry": {"type": "Polygon", "coordinates": [[[11.46986, 9.8745], [11.47363, 9.89205], [11.48504, 9.90414], [11.49759, 9.91517], [11.50824, 9.9197], [11.52716, 9.93111], [11.53111, 9.93085], [11.53593, 9.93052], [11.54407, 9.93403], [11.55195, 9.93334], [11.55479, 9.92916], [11.55085, 9.92412], [11.54457, 9.92049], [11.53942, 9.92052], [11.53674, 9.91696], [11.53483, 9.91016], [11.53735, 9.90555], [11.53848, 9.89729], [11.54558, 9.88894], [11.52198, 9.85828], [11.51983, 9.86032], [11.50105, 9.84732], [11.48928, 9.84791], [11.47474, 9.86427], [11.46986, 9.8745]]]}, "properties": {"name": "Baule Central", "lga": "Kaltungo", "state": "go"}}, {"type": "Feature", "geometry": {"type": "Polygon", "coordinates": [[[11.12135, 10.31095], [11.12139, 10.31221], [11.13313, 10.31032], [11.13395, 10.30927], [11.13758, 10.30702], [11.1421, 10.30456], [11.14149, 10.30265], [11.14654, 10.30078], [11.14706, 10.30247], [11.15388, 10.30127], [11.15346, 10.29967], [11.15657, 10.29888], [11.15922, 10.2965], [11.15626, 10.2941], [11.15617, 10.29207], [11.1549, 10.29228], [11.15322, 10.29172], [11.15101, 10.29153], [11.15047, 10.28402], [11.14789, 10.28466], [11.14157, 10.28595], [11.14076, 10.27903], [11.13519, 10.27951], [11.13072, 10.27945], [11.1243, 10.27965], [11.12017, 10.28601], [11.12135, 10.31095]]]}, "properties": {"name": "Ajiya", "lga": "Gombe", "state": "go"}}, {"type": "Feature", "geometry": {"type": "Polygon", "coordinates": [[[10.7724, 11.06034], [10.78675, 11.06382], [10.78697, 11.06348], [10.79949, 11.0438], [10.81567, 11.03143], [10.82146, 11.01215], [10.78396, 10.99966], [10.76683, 10.99205], [10.72876, 10.97492], [10.70734, 10.97777], [10.6983, 11.01418], [10.67901, 11.04578], [10.68987, 11.04722], [10.70791, 11.0848], [10.73837, 11.10098], [10.76692, 11.06814], [10.7724, 11.06034]]]}, "properties": {"name": "Malala", "lga": "Dukku", "state": "go"}}, {"type": "Feature", "geometry": {"type": "Polygon", "coordinates": [[[11.78168, 9.84897], [11.80158, 9.84593], [11.80116, 9.84068], [11.80344, 9.83234], [11.82635, 9.82288], [11.84441, 9.81928], [11.8518, 9.81405], [11.85454, 9.79349], [11.85319, 9.78981], [11.85086, 9.78638], [11.84737, 9.78296], [11.8404, 9.77611], [11.83575, 9.77269], [11.82473, 9.75383], [11.81716, 9.74088], [11.79616, 9.73094], [11.77609, 9.70714], [11.77074, 9.72321], [11.75476, 9.73684], [11.73161, 9.74981], [11.71468, 9.75666], [11.70685, 9.76314], [11.7232, 9.78412], [11.75148, 9.80098], [11.78168, 9.84897]]]}, "properties": {"name": "Nyuwar / Jessu", "lga": "Balanga", "state": "go"}}, {"type": "Feature", "geometry": {"type": "Polygon", "coordinates": [[[11.53721, 10.0731], [11.57999, 10.05246], [11.57929, 10.04982], [11.5808, 10.04741], [11.58198, 10.04488], [11.57754, 10.038], [11.56861, 10.03585], [11.55895, 10.03554], [11.55204, 10.03363], [11.55044, 10.03028], [11.54919, 10.02554], [11.54592, 10.0234], [11.53943, 10.0216], [11.53076, 10.02711], [11.52015, 10.03498], [11.51253, 10.03887], [11.49272, 10.04305], [11.47184, 10.04314], [11.45822, 10.0482], [11.43224, 10.06232], [11.44721, 10.08071], [11.45672, 10.10617], [11.44459, 10.12139], [11.42746, 10.13686], [11.41746, 10.15423], [11.45379, 10.17809], [11.46343, 10.18915], [11.49495, 10.18685], [11.49694, 10.16376], [11.51768, 10.14382], [11.52054, 10.12776], [11.53267, 10.0753], [11.53721, 10.0731]]]}, "properties": {"name": "Lano / Kuri / Lambam", "lga": "Yamaltu/Deba", "state": "go"}}, {"type": "Feature", "geometry": {"type": "Polygon", "coordinates": [[[11.2181, 10.21268], [11.21709, 10.20893], [11.20715, 10.19281], [11.19587, 10.1883], [11.18649, 10.18084], [11.18641, 10.16666], [11.16242, 10.15753], [11.13972, 10.17068], [11.12489, 10.16703], [11.10474, 10.16885], [11.09065, 10.16991], [11.07607, 10.18125], [11.0697, 10.18914], [11.08422, 10.20974], [11.0791, 10.23096], [11.0739, 10.23823], [11.05656, 10.25722], [11.0778, 10.28126], [11.07374, 10.30859], [11.07261, 10.31232], [11.07844, 10.30998], [11.09188, 10.31673], [11.12135, 10.31095], [11.12017, 10.28601], [11.1243, 10.27965], [11.14639, 10.27847], [11.14971, 10.27758], [11.14968, 10.27623], [11.15012, 10.27622], [11.15414, 10.27606], [11.15783, 10.26993], [11.15949, 10.27039], [11.16026, 10.26851], [11.16158, 10.26887], [11.16264, 10.2668], [11.16884, 10.26361], [11.17182, 10.26453], [11.17708, 10.26368], [11.18004, 10.26667], [11.18085, 10.26654], [11.18144, 10.26598], [11.18205, 10.26606], [11.18265, 10.26641], [11.18269, 10.26701], [11.1839, 10.26848], [11.18996, 10.26991], [11.19717, 10.27783], [11.19312, 10.28166], [11.19871, 10.2897], [11.20821, 10.2931], [11.21149, 10.27476], [11.21151, 10.27404], [11.21067, 10.26937], [11.20995, 10.2653], [11.20482, 10.26112], [11.20027, 10.25637], [11.19689, 10.25165], [11.193, 10.24344], [11.19079, 10.23817], [11.19034, 10.23236], [11.19048, 10.2254], [11.19291, 10.22024], [11.19709, 10.21454], [11.19998, 10.20798], [11.2181, 10.21268]]]}, "properties": {"name": "Garko", "lga": "Akko", "state": "go"}}, {"type": "Feature", "geometry": {"type": "MultiPolygon", "coordinates": [[[[11.50824, 9.9197], [11.49759, 9.91517], [11.48504, 9.90414], [11.47024, 9.90982], [11.44344, 9.91783], [11.42713, 9.92085], [11.42931, 9.93714], [11.43847, 9.94034], [11.45465, 9.93831], [11.46508, 9.94117], [11.50481, 9.9242], [11.50824, 9.9197]]], [[[11.34384, 9.93686], [11.33404, 9.94222], [11.29757, 9.9396], [11.29363, 9.94655], [11.28959, 9.96778], [11.29114, 9.96834], [11.2873, 9.97996], [11.2796, 9.98636], [11.27926, 9.98715], [11.27287, 10.0023], [11.28288, 10.00516], [11.29835, 10.01995], [11.30376, 10.02791], [11.3211, 10.02789], [11.3333, 10.02645], [11.35863, 10.02172], [11.38553, 10.01223], [11.3908, 10.0109], [11.39098, 9.99754], [11.38567, 9.98537], [11.38723, 9.97593], [11.37799, 9.95442], [11.37283, 9.9404], [11.37154, 9.93896], [11.35786, 9.93985], [11.34384, 9.93686]]]]}, "properties": {"name": "Kamo", "lga": "Kaltungo", "state": "go"}}, {"type": "Feature", "geometry": {"type": "Polygon", "coordinates": [[[10.52668, 10.73697], [10.52672, 10.73704], [10.53259, 10.7487], [10.55857, 10.73578], [10.60616, 10.72359], [10.67209, 10.70036], [10.67494, 10.67823], [10.65567, 10.6561], [10.61239, 10.55662], [10.59336, 10.57137], [10.56997, 10.58675], [10.55819, 10.60061], [10.56615, 10.61811], [10.56948, 10.62786], [10.56258, 10.64226], [10.53795, 10.6494], [10.52857, 10.64967], [10.5253, 10.66274], [10.49723, 10.68702], [10.49428, 10.68833], [10.49684, 10.69091], [10.49995, 10.69763], [10.5001, 10.70682], [10.49966, 10.71203], [10.50263, 10.71325], [10.50537, 10.71448], [10.50694, 10.71651], [10.50649, 10.71777], [10.50893, 10.71924], [10.51093, 10.71987], [10.51195, 10.72131], [10.51221, 10.72345], [10.51428, 10.72555], [10.51649, 10.72527], [10.51856, 10.72548], [10.52027, 10.72695], [10.52113, 10.72961], [10.52141, 10.73255], [10.52298, 10.73367], [10.52668, 10.73697]]]}, "properties": {"name": "Kunde", "lga": "Dukku", "state": "go"}}, {"type": "Feature", "geometry": {"type": "Polygon", "coordinates": [[[11.16488, 9.75119], [11.14224, 9.72475], [11.13778, 9.69958], [11.12604, 9.69281], [11.11211, 9.68961], [11.10129, 9.68044], [11.08283, 9.69003], [11.08256, 9.69998], [11.0934, 9.7214], [11.09527, 9.73529], [11.10474, 9.73647], [11.1184, 9.73068], [11.12367, 9.73524], [11.12081, 9.74255], [11.12502, 9.74435], [11.12779, 9.75012], [11.12441, 9.75941], [11.12608, 9.76936], [11.13519, 9.78028], [11.18559, 9.81131], [11.20109, 9.8159], [11.2323, 9.82177], [11.23891, 9.81977], [11.23673, 9.81439], [11.23656, 9.81397], [11.23649, 9.81378], [11.23384, 9.80154], [11.23172, 9.79221], [11.21319, 9.78748], [11.16488, 9.75119]]]}, "properties": {"name": "Todi", "lga": "Billiri", "state": "go"}}, {"type": "Feature", "geometry": {"type": "Polygon", "coordinates": [[[11.25126, 9.63827], [11.25119, 9.63825], [11.23605, 9.65493], [11.23604, 9.65494], [11.19999, 9.72521], [11.21927, 9.74127], [11.23234, 9.748], [11.25671, 9.75181], [11.27453, 9.77216], [11.28207, 9.79295], [11.28823, 9.79331], [11.28828, 9.79375], [11.29062, 9.79256], [11.29451, 9.79229], [11.29472, 9.79216], [11.30028, 9.78877], [11.29899, 9.78707], [11.29919, 9.78438], [11.29949, 9.78193], [11.30098, 9.78012], [11.30248, 9.77774], [11.29455, 9.77674], [11.29385, 9.77615], [11.29267, 9.7755], [11.29241, 9.77495], [11.30308, 9.76417], [11.31486, 9.75575], [11.31914, 9.75184], [11.32608, 9.74615], [11.33435, 9.7388], [11.34215, 9.72622], [11.34238, 9.7259], [11.34694, 9.71937], [11.35057, 9.71144], [11.35655, 9.70335], [11.36308, 9.69654], [11.3635, 9.69582], [11.30645, 9.65055], [11.27436, 9.64557], [11.26788, 9.64352], [11.25126, 9.63827]]]}, "properties": {"name": "Lapan", "lga": "Shomgom", "state": "go"}}, {"type": "Feature", "geometry": {"type": "MultiPolygon", "coordinates": [[[[11.36574, 9.69158], [11.408, 9.75488], [11.43929, 9.74497], [11.45247, 9.759], [11.47509, 9.74282], [11.53051, 9.70938], [11.52756, 9.70801], [11.52008, 9.70494], [11.50454, 9.69936], [11.49643, 9.69859], [11.48833, 9.69782], [11.4539, 9.69971], [11.44657, 9.69743], [11.43627, 9.69081], [11.41873, 9.66952], [11.41707, 9.666], [11.41427, 9.6613], [11.41203, 9.65765], [11.40679, 9.65869], [11.4015, 9.66205], [11.39331, 9.66534], [11.38569, 9.66922], [11.37861, 9.67486], [11.37398, 9.67978], [11.36574, 9.69158]]], [[[11.29267, 9.7755], [11.30248, 9.77774], [11.30098, 9.78012], [11.29949, 9.78193], [11.29919, 9.78438], [11.29899, 9.78707], [11.30028, 9.78877], [11.29472, 9.79216], [11.31011, 9.81115], [11.31788, 9.81484], [11.3278, 9.81236], [11.33463, 9.8047], [11.34596, 9.79178], [11.35407, 9.80555], [11.38743, 9.80447], [11.35272, 9.75426], [11.34334, 9.77421], [11.31914, 9.75184], [11.31486, 9.75575], [11.30308, 9.76417], [11.29241, 9.77495], [11.29267, 9.7755]]], [[[11.28959, 9.96778], [11.29363, 9.94655], [11.29757, 9.9396], [11.29401, 9.93559], [11.294, 9.93559], [11.28109, 9.93156], [11.2563, 9.94748], [11.28959, 9.96778]]]]}, "properties": {"name": "Kaltungo East", "lga": "Kaltungo", "state": "go"}}, {"type": "Feature", "geometry": {"type": "Polygon", "coordinates": [[[10.92313, 10.59769], [10.82976, 10.67645], [10.79228, 10.72784], [10.76194, 10.74712], [10.7441, 10.75854], [10.70583, 10.76189], [10.69686, 10.75494], [10.68919, 10.74915], [10.66913, 10.78572], [10.67579, 10.79953], [10.68836, 10.81491], [10.69911, 10.82808], [10.73541, 10.82866], [10.77102, 10.82285], [10.77629, 10.82411], [10.77869, 10.82262], [10.77955, 10.82226], [10.80013, 10.81704], [10.8119, 10.80619], [10.83094, 10.79619], [10.85664, 10.7971], [10.88207, 10.79584], [10.91884, 10.802], [10.94825, 10.8087], [10.97608, 10.81142], [10.99131, 10.81428], [11.01225, 10.82951], [11.04696, 10.85773], [11.07979, 10.86106], [11.10856, 10.88448], [11.14136, 10.90744], [11.14842, 10.90279], [11.15986, 10.89605], [11.19002, 10.87828], [11.21777, 10.85699], [11.20535, 10.81267], [11.2053, 10.81249], [11.21651, 10.80347], [11.23041, 10.80227], [11.23745, 10.80167], [11.24549, 10.80098], [11.21106, 10.73333], [11.19532, 10.7024], [11.19069, 10.69346], [11.18598, 10.68512], [11.1721, 10.66045], [11.14667, 10.67074], [11.13677, 10.67226], [11.09227, 10.66289], [11.08536, 10.66236], [11.07777, 10.66451], [11.05759, 10.66518], [11.03948, 10.66478], [10.99615, 10.65681], [10.99702, 10.64819], [10.99131, 10.63867], [10.97085, 10.61488], [10.93136, 10.62051], [10.92641, 10.60763], [10.92313, 10.59769]]]}, "properties": {"name": "Waziri South", "lga": "Dukku", "state": "go"}}, {"type": "Feature", "geometry": {"type": "Polygon", "coordinates": [[[11.28975, 10.52795], [11.31378, 10.52832], [11.31425, 10.52832], [11.32174, 10.51017], [11.31834, 10.50326], [11.31478, 10.46178], [11.31894, 10.44191], [11.25858, 10.43823], [11.24259, 10.44067], [11.23969, 10.45351], [11.24478, 10.45537], [11.24905, 10.46604], [11.24766, 10.48228], [11.26011, 10.48691], [11.28975, 10.52795]]]}, "properties": {"name": "Malam Sidi", "lga": "Kwami", "state": "go"}}, {"type": "Feature", "geometry": {"type": "Polygon", "coordinates": [[[11.15076, 10.06707], [11.1641, 10.08311], [11.16686, 10.08791], [11.17221, 10.08629], [11.20071, 10.08854], [11.21042, 10.07779], [11.2138, 10.07645], [11.2195, 10.07539], [11.22244, 10.07656], [11.2279, 10.07702], [11.23203, 10.07674], [11.24339, 10.07623], [11.24981, 10.04901], [11.24733, 10.0404], [11.24079, 10.00726], [11.2441, 10.00458], [11.22694, 9.99076], [11.22666, 9.99067], [11.22411, 9.98983], [11.22078, 9.99036], [11.21788, 10.00598], [11.21801, 10.01872], [11.2255, 10.03663], [11.22207, 10.04247], [11.21933, 10.04784], [11.21511, 10.04769], [11.2087, 10.04929], [11.21153, 10.05304], [11.21062, 10.05496], [11.20792, 10.05577], [11.2048, 10.05439], [11.20219, 10.04607], [11.19763, 10.04079], [11.19337, 10.03026], [11.17937, 10.03038], [11.17555, 10.02942], [11.17057, 10.03107], [11.16921, 10.03255], [11.15797, 10.03633], [11.15482, 10.04976], [11.15076, 10.06707]]]}, "properties": {"name": "Kumo Central", "lga": "Akko", "state": "go"}}, {"type": "Feature", "geometry": {"type": "Polygon", "coordinates": [[[11.408, 9.75488], [11.36574, 9.69158], [11.3635, 9.69582], [11.36308, 9.69654], [11.35655, 9.70335], [11.35057, 9.71144], [11.34694, 9.71937], [11.34238, 9.7259], [11.34215, 9.72622], [11.33435, 9.7388], [11.32608, 9.74615], [11.31914, 9.75184], [11.34334, 9.77421], [11.35272, 9.75426], [11.38743, 9.80447], [11.35407, 9.80555], [11.35565, 9.81101], [11.35546, 9.82565], [11.36177, 9.83113], [11.34276, 9.86819], [11.34397, 9.86929], [11.34047, 9.89123], [11.33972, 9.9069], [11.33658, 9.91747], [11.34384, 9.93686], [11.35786, 9.93985], [11.37154, 9.93896], [11.38022, 9.92609], [11.3795, 9.90441], [11.3823, 9.88786], [11.38097, 9.87508], [11.37667, 9.86848], [11.38548, 9.84549], [11.38547, 9.84534], [11.40317, 9.82679], [11.40779, 9.82241], [11.42279, 9.81518], [11.40055, 9.76501], [11.408, 9.75488]]]}, "properties": {"name": "Ture", "lga": "Kaltungo", "state": "go"}}, {"type": "Feature", "geometry": {"type": "Polygon", "coordinates": [[[10.94525, 9.87914], [10.94542, 9.88044], [10.94392, 9.88178], [10.91846, 9.8997], [10.90537, 9.91445], [10.89446, 9.92648], [10.89062, 9.93073], [10.88355, 9.93521], [10.87741, 9.93911], [10.87518, 9.94052], [10.86588, 9.94986], [10.86351, 9.95156], [10.85772, 9.95572], [10.84136, 9.96284], [10.82499, 9.96996], [10.81217, 9.97934], [10.8029, 9.99098], [10.79478, 10.0003], [10.78845, 10.00613], [10.78718, 10.00674], [10.77526, 10.01248], [10.72767, 10.04154], [10.72443, 10.04418], [10.71748, 10.04985], [10.71694, 10.06349], [10.71573, 10.06465], [10.71561, 10.06486], [10.71154, 10.07621], [10.71277, 10.07862], [10.7134, 10.08883], [10.7159, 10.09454], [10.7212, 10.09515], [10.72509, 10.10279], [10.72606, 10.10468], [10.72648, 10.1055], [10.73347, 10.11458], [10.73839, 10.12096], [10.74921, 10.11991], [10.77461, 10.13761], [10.78674, 10.13475], [10.8003, 10.13475], [10.80744, 10.13796], [10.81864, 10.15734], [10.81723, 10.16949], [10.81801, 10.17291], [10.81988, 10.18115], [10.8238, 10.1882], [10.83029, 10.19692], [10.83563, 10.20409], [10.83569, 10.20427], [10.83933, 10.21517], [10.85117, 10.22424], [10.85716, 10.23568], [10.85695, 10.23626], [10.87974, 10.23452], [10.92789, 10.19253], [10.92316, 10.18642], [10.92547, 10.1319], [10.93197, 10.09856], [10.92842, 10.08929], [10.92569, 10.08485], [10.92611, 10.07626], [10.92854, 10.07187], [10.94119, 10.06688], [10.95515, 10.06251], [10.96736, 10.06477], [10.97746, 10.06967], [10.98424, 10.07663], [10.99227, 10.07902], [10.99509, 10.07542], [11.00164, 10.06815], [11.00455, 10.06283], [11.00632, 10.04563], [11.00803, 10.04437], [10.99804, 10.02281], [10.99316, 10.02807], [10.98118, 10.03552], [10.97768, 10.03107], [10.98483, 10.02297], [10.97176, 10.01442], [10.96935, 10.00755], [10.96939, 10.00142], [10.97215, 9.99516], [10.9768, 9.98733], [10.9844, 9.97711], [10.99287, 9.97337], [11.00956, 9.95695], [11.00414, 9.93464], [10.99501, 9.92488], [10.98372, 9.90028], [10.96208, 9.88786], [10.94525, 9.87914]]]}, "properties": {"name": "Pindiga", "lga": "Akko", "state": "go"}}, {"type": "Feature", "geometry": {"type": "Polygon", "coordinates": [[[11.36112, 10.7569], [11.36384, 10.75473], [11.37698, 10.75072], [11.37739, 10.7506], [11.42089, 10.74616], [11.43337, 10.74176], [11.43943, 10.73962], [11.43515, 10.72141], [11.42179, 10.6841], [11.4216, 10.6842], [11.34569, 10.68832], [11.34958, 10.70179], [11.3541, 10.72117], [11.35687, 10.75274], [11.36112, 10.7569]]]}, "properties": {"name": "Tongo", "lga": "Funakaye", "state": "go"}}, {"type": "Feature", "geometry": {"type": "Polygon", "coordinates": [[[11.80158, 9.84593], [11.78168, 9.84897], [11.77234, 9.85039], [11.74144, 9.86795], [11.73877, 9.89576], [11.7147, 9.9142], [11.71432, 9.91442], [11.68767, 9.93], [11.68811, 9.94919], [11.69308, 9.94905], [11.69931, 9.96833], [11.74434, 10.00066], [11.74834, 10.01066], [11.78993, 10.0393], [11.80176, 10.03585], [11.83578, 10.03389], [11.83546, 10.02853], [11.82963, 10.01639], [11.82535, 9.99486], [11.8248, 9.98177], [11.82267, 9.9699], [11.82373, 9.95577], [11.83324, 9.94904], [11.83318, 9.94904], [11.83359, 9.94307], [11.83473, 9.92965], [11.8293, 9.91538], [11.81931, 9.90281], [11.81645, 9.89139], [11.80903, 9.87638], [11.80582, 9.86525], [11.80381, 9.85518], [11.80158, 9.84593]]]}, "properties": {"name": "Bangu", "lga": "Balanga", "state": "go"}}, {"type": "Feature", "geometry": {"type": "Polygon", "coordinates": [[[10.68919, 10.74915], [10.69686, 10.75494], [10.70583, 10.76189], [10.7441, 10.75854], [10.76194, 10.74712], [10.79228, 10.72784], [10.82976, 10.67645], [10.92313, 10.59769], [10.92396, 10.58611], [10.93054, 10.54856], [10.92174, 10.5303], [10.91163, 10.5046], [10.91255, 10.47501], [10.92306, 10.42381], [10.87287, 10.38447], [10.86265, 10.38437], [10.83745, 10.39559], [10.83507, 10.3951], [10.8354, 10.39955], [10.80414, 10.42447], [10.81351, 10.43773], [10.81026, 10.44777], [10.80043, 10.45066], [10.7926, 10.44066], [10.79074, 10.43515], [10.74249, 10.4736], [10.73018, 10.48741], [10.72156, 10.49009], [10.70545, 10.48038], [10.70144, 10.48741], [10.68943, 10.49305], [10.68179, 10.49323], [10.67483, 10.4933], [10.66962, 10.49306], [10.66552, 10.49089], [10.66189, 10.49139], [10.61239, 10.55662], [10.65567, 10.6561], [10.67494, 10.67823], [10.67209, 10.70036], [10.68637, 10.74248], [10.68919, 10.74915]]]}, "properties": {"name": "Zange", "lga": "Dukku", "state": "go"}}, {"type": "Feature", "geometry": {"type": "Polygon", "coordinates": [[[11.31425, 10.52832], [11.27724, 10.52805], [11.26562, 10.52894], [11.25165, 10.53152], [11.23322, 10.55542], [11.21301, 10.56594], [11.19248, 10.57894], [11.17974, 10.62814], [11.18092, 10.6438], [11.18118, 10.64387], [11.20056, 10.64869], [11.27804, 10.68606], [11.34412, 10.6884], [11.34569, 10.68832], [11.4216, 10.6842], [11.42179, 10.6841], [11.43586, 10.67719], [11.43837, 10.66489], [11.43837, 10.66487], [11.41547, 10.66579], [11.3763, 10.64887], [11.3454, 10.61617], [11.33054, 10.56419], [11.32876, 10.55426], [11.32223, 10.53965], [11.315, 10.52937], [11.31425, 10.52832]]]}, "properties": {"name": "Ribadu", "lga": "Funakaye", "state": "go"}}, {"type": "Feature", "geometry": {"type": "Polygon", "coordinates": [[[11.47383, 10.3407], [11.47342, 10.31407], [11.44773, 10.29766], [11.44112, 10.29495], [11.42417, 10.28802], [11.40518, 10.28802], [11.39826, 10.29766], [11.38265, 10.30737], [11.36799, 10.31556], [11.36228, 10.31023], [11.36114, 10.29843], [11.35334, 10.30052], [11.34991, 10.29538], [11.34439, 10.29671], [11.34039, 10.28796], [11.32593, 10.29138], [11.30634, 10.29104], [11.30733, 10.3009], [11.29305, 10.30518], [11.29138, 10.3128], [11.29471, 10.32731], [11.29495, 10.33968], [11.28331, 10.34909], [11.28988, 10.35624], [11.29395, 10.36031], [11.30425, 10.36693], [11.31515, 10.37103], [11.31557, 10.37069], [11.31592, 10.37073], [11.32215, 10.37768], [11.34377, 10.35307], [11.35852, 10.3445], [11.37684, 10.34498], [11.39326, 10.34331], [11.39469, 10.35331], [11.40254, 10.35402], [11.41491, 10.3514], [11.42847, 10.34379], [11.43585, 10.33903], [11.44144, 10.32116], [11.44775, 10.3202], [11.4556, 10.32687], [11.45881, 10.33698], [11.4606, 10.34388], [11.46867, 10.35083], [11.47383, 10.3407]]]}, "properties": {"name": "Zambuk / Kwali", "lga": "Yamaltu/Deba", "state": "go"}}, {"type": "Feature", "geometry": {"type": "Polygon", "coordinates": [[[11.17662, 9.66463], [11.15315, 9.68454], [11.13778, 9.69958], [11.14224, 9.72475], [11.16488, 9.75119], [11.17753, 9.72311], [11.18867, 9.71579], [11.19999, 9.72521], [11.23604, 9.65494], [11.23605, 9.65493], [11.20544, 9.65084], [11.18642, 9.66666], [11.17663, 9.6648], [11.17662, 9.66463]]]}, "properties": {"name": "Lalaipido", "lga": "Shomgom", "state": "go"}}, {"type": "Feature", "geometry": {"type": "Polygon", "coordinates": [[[11.33967, 10.79496], [11.35196, 10.78352], [11.356, 10.77932], [11.36086, 10.76938], [11.36024, 10.76528], [11.36112, 10.7569], [11.35687, 10.75274], [11.3541, 10.72117], [11.34958, 10.70179], [11.34569, 10.68832], [11.34412, 10.6884], [11.27804, 10.68606], [11.20056, 10.64869], [11.18118, 10.64387], [11.18092, 10.6438], [11.18187, 10.65649], [11.1721, 10.66045], [11.18598, 10.68512], [11.19069, 10.69346], [11.19532, 10.7024], [11.21106, 10.73333], [11.24549, 10.80098], [11.25604, 10.79916], [11.25651, 10.79906], [11.27061, 10.79602], [11.31704, 10.78955], [11.32687, 10.79093], [11.33223, 10.7927], [11.33967, 10.79496]]]}, "properties": {"name": "Tilde / Bodor", "lga": "Funakaye", "state": "go"}}, {"type": "Feature", "geometry": {"type": "Polygon", "coordinates": [[[11.53659, 10.83724], [11.5363, 10.83674], [11.53441, 10.83354], [11.53644, 10.82877], [11.53618, 10.82305], [11.53211, 10.80688], [11.52543, 10.81253], [11.48455, 10.83074], [11.47741, 10.83433], [11.48554, 10.86056], [11.49148, 10.88974], [11.46608, 10.90776], [11.47016, 10.91481], [11.46982, 10.92109], [11.47974, 10.92599], [11.51023, 10.92879], [11.53036, 10.93487], [11.53187, 10.91808], [11.531, 10.90414], [11.52979, 10.89792], [11.5289, 10.8934], [11.52738, 10.89159], [11.52867, 10.87682], [11.53139, 10.87107], [11.53649, 10.86366], [11.53907, 10.85096], [11.53815, 10.83992], [11.53659, 10.83724]]]}, "properties": {"name": "Ashaka / Magaba", "lga": "Funakaye", "state": "go"}}, {"type": "Feature", "geometry": {"type": "Polygon", "coordinates": [[[11.24258, 9.86669], [11.24468, 9.87653], [11.2446, 9.88668], [11.24281, 9.89978], [11.23883, 9.91814], [11.24038, 9.92954], [11.2475, 9.92979], [11.25636, 9.92692], [11.26275, 9.91872], [11.26581, 9.90959], [11.27362, 9.89643], [11.27973, 9.88207], [11.28349, 9.86824], [11.29514, 9.83835], [11.2926, 9.82089], [11.29172, 9.80753], [11.2885, 9.79527], [11.28828, 9.79375], [11.28823, 9.79331], [11.28207, 9.79295], [11.27155, 9.79233], [11.26451, 9.80011], [11.25634, 9.80769], [11.24112, 9.81275], [11.23656, 9.81397], [11.23673, 9.81439], [11.23891, 9.81977], [11.2398, 9.82198], [11.24129, 9.83362], [11.24161, 9.84639], [11.24258, 9.86669]]]}, "properties": {"name": "Kulishin", "lga": "Shomgom", "state": "go"}}, {"type": "Feature", "geometry": {"type": "Polygon", "coordinates": [[[11.19058, 10.30335], [11.18918, 10.30637], [11.18976, 10.30973], [11.1853, 10.31297], [11.18624, 10.31393], [11.19082, 10.31588], [11.19417, 10.31879], [11.21463, 10.34092], [11.22386, 10.34084], [11.23098, 10.31609], [11.23875, 10.31574], [11.2433, 10.30935], [11.24173, 10.30878], [11.24162, 10.3086], [11.2413, 10.30628], [11.2413, 10.30582], [11.24124, 10.30297], [11.24467, 10.30211], [11.24703, 10.29385], [11.25334, 10.29336], [11.25959, 10.29262], [11.25994, 10.29321], [11.26067, 10.30056], [11.26233, 10.30556], [11.26151, 10.3158], [11.27393, 10.34033], [11.28331, 10.34909], [11.29495, 10.33968], [11.29471, 10.32731], [11.29138, 10.3128], [11.29305, 10.30518], [11.30733, 10.3009], [11.30634, 10.29104], [11.30399, 10.26759], [11.31536, 10.24443], [11.32307, 10.21619], [11.30824, 10.20979], [11.31224, 10.19601], [11.28576, 10.19507], [11.2789, 10.21047], [11.26576, 10.22502], [11.2181, 10.21268], [11.19998, 10.20798], [11.19709, 10.21454], [11.19291, 10.22024], [11.19048, 10.2254], [11.19034, 10.23236], [11.19079, 10.23817], [11.193, 10.24344], [11.19689, 10.25165], [11.20027, 10.25637], [11.20482, 10.26112], [11.20995, 10.2653], [11.21067, 10.26937], [11.21151, 10.27404], [11.21149, 10.27476], [11.20821, 10.2931], [11.19871, 10.2897], [11.19598, 10.2931], [11.19561, 10.30165], [11.19309, 10.30449], [11.19058, 10.30335]]]}, "properties": {"name": "Kwadon / Liji / Kurba", "lga": "Yamaltu/Deba", "state": "go"}}, {"type": "Feature", "geometry": {"type": "Polygon", "coordinates": [[[11.30346, 10.97337], [11.30364, 10.9734], [11.32433, 10.97595], [11.32435, 10.97461], [11.3244, 10.97044], [11.32209, 10.96498], [11.3255, 10.95867], [11.32681, 10.95155], [11.34333, 10.92915], [11.34416, 10.92096], [11.33946, 10.92105], [11.34693, 10.89959], [11.34696, 10.89857], [11.34706, 10.8936], [11.33469, 10.8873], [11.32086, 10.88176], [11.30496, 10.8845], [11.28934, 10.8971], [11.28001, 10.90959], [11.28249, 10.91017], [11.28325, 10.93837], [11.30346, 10.97337]]]}, "properties": {"name": "Birin Fulani East", "lga": "Nafada", "state": "go"}}, {"type": "Feature", "geometry": {"type": "Polygon", "coordinates": [[[11.53721, 10.0731], [11.53267, 10.0753], [11.52054, 10.12776], [11.51768, 10.14382], [11.49694, 10.16376], [11.49495, 10.18685], [11.50671, 10.19723], [11.51504, 10.20372], [11.51793, 10.20283], [11.51999, 10.2022], [11.5276, 10.21038], [11.54436, 10.21038], [11.56682, 10.21153], [11.58224, 10.22085], [11.60407, 10.21635], [11.60495, 10.2112], [11.61098, 10.2112], [11.62304, 10.20532], [11.62666, 10.19944], [11.62289, 10.18707], [11.61882, 10.18376], [11.61746, 10.18029], [11.61369, 10.16747], [11.595, 10.14531], [11.59665, 10.14254], [11.60133, 10.14194], [11.60193, 10.13199], [11.59665, 10.13107], [11.59113, 10.13165], [11.58437, 10.1267], [11.57542, 10.1148], [11.5641, 10.09938], [11.56328, 10.09132], [11.55897, 10.08807], [11.53721, 10.0731]]]}, "properties": {"name": "Jagali South", "lga": "Yamaltu/Deba", "state": "go"}}, {"type": "Feature", "geometry": {"type": "Polygon", "coordinates": [[[10.96913, 9.61535], [10.96932, 9.6155], [10.97801, 9.62241], [10.99943, 9.6135], [11.01352, 9.60084], [11.02594, 9.60192], [11.03407, 9.59464], [11.04054, 9.58514], [11.04536, 9.56138], [11.04798, 9.55033], [11.03553, 9.54868], [11.0274, 9.54907], [11.02043, 9.54949], [11.00819, 9.55211], [10.99238, 9.55928], [10.98471, 9.56549], [10.97995, 9.57118], [10.97814, 9.57461], [10.97432, 9.59594], [10.96913, 9.61535]]]}, "properties": {"name": "Gundale", "lga": "Shomgom", "state": "go"}}, {"type": "Feature", "geometry": {"type": "Polygon", "coordinates": [[[11.43837, 10.66487], [11.43837, 10.66489], [11.43586, 10.67719], [11.42179, 10.6841], [11.43515, 10.72141], [11.43943, 10.73962], [11.43337, 10.74176], [11.43702, 10.74459], [11.46411, 10.75206], [11.52848, 10.78149], [11.5284, 10.77879], [11.52696, 10.77348], [11.52652, 10.75786], [11.51983, 10.74495], [11.51856, 10.7399], [11.51661, 10.73211], [11.51686, 10.72052], [11.51547, 10.70366], [11.51507, 10.69495], [11.51646, 10.68397], [11.51809, 10.6781], [11.52272, 10.66148], [11.43837, 10.66487]]]}, "properties": {"name": "Kupto", "lga": "Funakaye", "state": "go"}}, {"type": "Feature", "geometry": {"type": "Polygon", "coordinates": [[[11.48437, 10.66302], [11.50058, 10.66237], [11.51158, 10.66193], [11.52272, 10.66148], [11.52419, 10.66001], [11.52266, 10.64853], [11.52145, 10.63942], [11.51703, 10.62144], [11.51342, 10.60733], [11.5124, 10.59984], [11.51337, 10.59498], [11.51272, 10.58527], [11.51651, 10.57028], [11.52185, 10.569], [11.51859, 10.55184], [11.5182, 10.54938], [11.51659, 10.54296], [11.51322, 10.53767], [11.51094, 10.53587], [11.50945, 10.51965], [11.49092, 10.49022], [11.48004, 10.48359], [11.45473, 10.4971], [11.42565, 10.51264], [11.42233, 10.52021], [11.40011, 10.53425], [11.41, 10.55285], [11.42455, 10.58176], [11.43436, 10.5949], [11.47001, 10.59403], [11.48724, 10.6025], [11.48437, 10.66301], [11.48437, 10.66302]]]}, "properties": {"name": "Malleri", "lga": "Kwami", "state": "go"}}, {"type": "Feature", "geometry": {"type": "MultiPolygon", "coordinates": [[[[11.2475, 9.92979], [11.24038, 9.92954], [11.23883, 9.91814], [11.24281, 9.89978], [11.2446, 9.88668], [11.24468, 9.87653], [11.24146, 9.877], [11.23402, 9.89133], [11.23282, 9.90354], [11.22989, 9.9124], [11.22567, 9.91895], [11.22205, 9.91772], [11.21165, 9.91255], [11.20894, 9.92251], [11.21286, 9.92662], [11.21547, 9.92861], [11.2244, 9.93695], [11.22605, 9.93534], [11.23468, 9.93485], [11.24247, 9.93061], [11.24424, 9.93051], [11.2475, 9.92979]]], [[[11.22615, 9.95911], [11.22066, 9.9422], [11.20766, 9.93615], [11.19401, 9.94378], [11.19089, 9.94284], [11.16104, 9.95018], [11.15997, 9.95448], [11.1651, 9.95482], [11.17344, 9.96657], [11.17728, 9.97729], [11.18266, 9.98377], [11.18629, 9.98598], [11.18929, 9.98666], [11.20617, 9.9927], [11.21717, 9.99094], [11.2228, 9.96215], [11.22615, 9.95911]]]]}, "properties": {"name": "Billiri North", "lga": "Billiri", "state": "go"}}, {"type": "Feature", "geometry": {"type": "Polygon", "coordinates": [[[11.41676, 10.82815], [11.41681, 10.82818], [11.43166, 10.83081], [11.43654, 10.83168], [11.46174, 10.84218], [11.47741, 10.83433], [11.48455, 10.83074], [11.52543, 10.81253], [11.53211, 10.80688], [11.53268, 10.80414], [11.5303, 10.79914], [11.52874, 10.7904], [11.52851, 10.7825], [11.52848, 10.78149], [11.46411, 10.75206], [11.43702, 10.74459], [11.43337, 10.74176], [11.42089, 10.74616], [11.37739, 10.7506], [11.37698, 10.75072], [11.37593, 10.78055], [11.3825, 10.79544], [11.3953, 10.80768], [11.40543, 10.82297], [11.41676, 10.82815]]]}, "properties": {"name": "Jillahi", "lga": "Funakaye", "state": "go"}}, {"type": "Feature", "geometry": {"type": "Polygon", "coordinates": [[[11.1853, 10.31297], [11.18976, 10.30973], [11.18918, 10.30637], [11.19058, 10.30335], [11.18252, 10.30016], [11.18603, 10.29273], [11.18278, 10.29299], [11.18327, 10.29124], [11.18167, 10.29093], [11.18015, 10.29062], [11.18088, 10.2878], [11.18105, 10.28641], [11.18035, 10.28654], [11.17952, 10.28666], [11.17893, 10.28696], [11.17815, 10.28739], [11.17716, 10.28787], [11.17746, 10.28989], [11.16746, 10.29106], [11.16574, 10.29282], [11.15829, 10.29472], [11.15922, 10.2965], [11.15657, 10.29888], [11.15346, 10.29967], [11.15388, 10.30127], [11.14706, 10.30247], [11.14654, 10.30078], [11.14575, 10.30088], [11.14461, 10.30137], [11.14301, 10.30202], [11.14149, 10.30265], [11.1421, 10.30456], [11.13758, 10.30702], [11.13395, 10.30927], [11.13313, 10.31032], [11.12139, 10.31221], [11.12091, 10.32133], [11.12111, 10.32502], [11.12204, 10.32724], [11.12361, 10.32932], [11.12742, 10.33209], [11.12926, 10.32845], [11.13768, 10.3176], [11.13904, 10.31626], [11.14113, 10.31449], [11.14442, 10.31176], [11.14605, 10.31537], [11.15232, 10.31309], [11.15514, 10.31186], [11.15715, 10.31139], [11.15764, 10.31158], [11.1601, 10.31698], [11.17577, 10.31088], [11.18254, 10.31299], [11.1826, 10.31332], [11.18226, 10.31406], [11.18247, 10.31422], [11.1853, 10.31297]]]}, "properties": {"name": "Shamaki", "lga": "Gombe", "state": "go"}}, {"type": "Feature", "geometry": {"type": "Polygon", "coordinates": [[[11.15123, 11.00663], [11.12126, 11.0003], [11.12137, 11.00551], [11.0979, 11.03117], [11.08691, 11.05421], [11.07461, 11.06299], [11.09484, 11.08653], [11.11801, 11.09563], [11.13121, 11.11137], [11.14689, 11.12466], [11.17076, 11.10761], [11.17601, 11.10402], [11.1892, 11.08058], [11.18245, 11.04858], [11.18216, 11.0472], [11.1817, 11.04495], [11.18148, 11.04489], [11.15866, 11.0344], [11.15123, 11.00663]]]}, "properties": {"name": "Gudukku", "lga": "Nafada", "state": "go"}}, {"type": "Feature", "geometry": {"type": "Polygon", "coordinates": [[[11.32482, 10.43805], [11.32037, 10.44097], [11.31894, 10.44191], [11.31478, 10.46178], [11.31834, 10.50326], [11.32174, 10.51017], [11.32191, 10.50969], [11.35399, 10.49567], [11.38905, 10.54124], [11.40011, 10.53425], [11.42233, 10.52021], [11.42565, 10.51264], [11.42501, 10.51298], [11.4146, 10.49662], [11.41458, 10.49652], [11.40628, 10.49742], [11.36172, 10.47171], [11.32488, 10.43899], [11.32482, 10.43805]]]}, "properties": {"name": "Jurara", "lga": "Kwami", "state": "go"}}, {"type": "Feature", "geometry": {"type": "Polygon", "coordinates": [[[11.44112, 10.29495], [11.44773, 10.29766], [11.47342, 10.31407], [11.47383, 10.3407], [11.48963, 10.34127], [11.506, 10.3407], [11.51666, 10.34413], [11.52656, 10.34089], [11.54617, 10.32871], [11.54632, 10.32741], [11.53573, 10.3271], [11.5307, 10.3188], [11.52934, 10.31362], [11.54478, 10.31812], [11.54426, 10.31492], [11.54598, 10.30784], [11.54633, 10.30283], [11.54648, 10.30078], [11.54963, 10.29645], [11.55148, 10.29011], [11.55655, 10.29628], [11.56122, 10.29739], [11.56425, 10.2967], [11.56788, 10.2933], [11.56996, 10.28862], [11.57477, 10.2745], [11.57371, 10.25701], [11.57869, 10.25279], [11.58224, 10.24769], [11.58452, 10.24217], [11.58224, 10.22085], [11.56682, 10.21153], [11.54436, 10.21038], [11.5276, 10.21038], [11.51999, 10.2022], [11.51793, 10.20283], [11.51504, 10.20372], [11.51283, 10.21243], [11.50926, 10.23313], [11.47071, 10.23195], [11.46446, 10.23627], [11.45807, 10.23671], [11.45316, 10.23671], [11.45078, 10.23924], [11.449, 10.24787], [11.45435, 10.27017], [11.44112, 10.29495]]]}, "properties": {"name": "Hinna", "lga": "Yamaltu/Deba", "state": "go"}}, {"type": "Feature", "geometry": {"type": "Polygon", "coordinates": [[[11.25126, 9.63827], [11.26788, 9.64352], [11.28228, 9.61271], [11.29559, 9.59977], [11.29208, 9.57843], [11.28909, 9.54816], [11.27801, 9.54782], [11.27451, 9.54843], [11.26928, 9.54889], [11.25467, 9.55435], [11.24406, 9.56222], [11.22782, 9.56908], [11.22509, 9.60654], [11.22754, 9.61322], [11.22865, 9.62331], [11.2503, 9.63268], [11.25126, 9.63827]]]}, "properties": {"name": "Burak", "lga": "Shomgom", "state": "go"}}, {"type": "Feature", "geometry": {"type": "Polygon", "coordinates": [[[11.15997, 9.95448], [11.16104, 9.95018], [11.15547, 9.93655], [11.16728, 9.92582], [11.17029, 9.91945], [11.18138, 9.91026], [11.18151, 9.91029], [11.19708, 9.90167], [11.19857, 9.89946], [11.19831, 9.89838], [11.19783, 9.89201], [11.1911, 9.88117], [11.18267, 9.88021], [11.15903, 9.88527], [11.15366, 9.88963], [11.15346, 9.88971], [11.1326, 9.88322], [11.11375, 9.90973], [11.11257, 9.92004], [11.10868, 9.9226], [11.09074, 9.94086], [11.09688, 9.94396], [11.10667, 9.94708], [11.11938, 9.9497], [11.12118, 9.94974], [11.12982, 9.94994], [11.14137, 9.95195], [11.15177, 9.95393], [11.15997, 9.95448]]]}, "properties": {"name": "Kalmai", "lga": "Billiri", "state": "go"}}, {"type": "Feature", "geometry": {"type": "Polygon", "coordinates": [[[10.64267, 10.97703], [10.6597, 10.98488], [10.66474, 10.9944], [10.66246, 11.0107], [10.66467, 11.02826], [10.66945, 11.03982], [10.67901, 11.04578], [10.6983, 11.01418], [10.70734, 10.97777], [10.72876, 10.97492], [10.69673, 10.93515], [10.67722, 10.93087], [10.6746, 10.93861], [10.6627, 10.94635], [10.65711, 10.9517], [10.64109, 10.96082], [10.64267, 10.97703]]]}, "properties": {"name": "Lafiya Tale", "lga": "Dukku", "state": "go"}}, {"type": "Feature", "geometry": {"type": "Polygon", "coordinates": [[[11.40518, 10.28802], [11.42417, 10.28802], [11.44112, 10.29495], [11.45435, 10.27017], [11.449, 10.24787], [11.45078, 10.23924], [11.45316, 10.23671], [11.45807, 10.23671], [11.46446, 10.23627], [11.47071, 10.23195], [11.50926, 10.23313], [11.51283, 10.21243], [11.51504, 10.20372], [11.50671, 10.19723], [11.49495, 10.18685], [11.46343, 10.18915], [11.45379, 10.17809], [11.41746, 10.15423], [11.40826, 10.15349], [11.3973, 10.1492], [11.38408, 10.13698], [11.3565, 10.13604], [11.34007, 10.14017], [11.34073, 10.15976], [11.32307, 10.21619], [11.34858, 10.2318], [11.35638, 10.24722], [11.38398, 10.25655], [11.40492, 10.26721], [11.40987, 10.28148], [11.40518, 10.28802]]]}, "properties": {"name": "Deba", "lga": "Yamaltu/Deba", "state": "go"}}, {"type": "Feature", "geometry": {"type": "Polygon", "coordinates": [[[11.12118, 9.94974], [11.11938, 9.9497], [11.10667, 9.94708], [11.09688, 9.94396], [11.09074, 9.94086], [11.08482, 9.93788], [11.08148, 9.93373], [11.08092, 9.93303], [11.07189, 9.94425], [11.07014, 9.95008], [11.06259, 9.95705], [11.0561, 9.9602], [11.04727, 9.96267], [11.03724, 9.95957], [11.02132, 9.96036], [11.00956, 9.95695], [10.99287, 9.97337], [10.9844, 9.97711], [10.9768, 9.98733], [10.97215, 9.99516], [10.96939, 10.00142], [10.96935, 10.00755], [10.97176, 10.01442], [10.98483, 10.02297], [10.97768, 10.03107], [10.98118, 10.03552], [10.99316, 10.02807], [10.99804, 10.02281], [11.00803, 10.04437], [11.00985, 10.04434], [11.02144, 10.04894], [11.0272, 10.05487], [11.03347, 10.0643], [11.03461, 10.06911], [11.03417, 10.07407], [11.03289, 10.07728], [11.02893, 10.08406], [11.031, 10.08759], [11.03516, 10.09138], [11.05561, 10.09641], [11.0609, 10.10045], [11.06616, 10.11431], [11.06844, 10.11736], [11.07228, 10.12149], [11.0799, 10.12279], [11.09644, 10.09652], [11.1061, 10.0953], [11.11327, 10.08712], [11.12696, 10.07582], [11.12916, 10.07156], [11.13094, 10.06505], [11.12765, 10.06003], [11.10972, 10.05528], [11.10018, 10.05218], [11.09347, 10.05038], [11.0839, 10.04164], [11.08004, 10.03368], [11.08064, 10.02531], [11.08757, 10.01931], [11.09183, 10.01541], [11.09525, 10.00407], [11.09812, 9.99693], [11.10011, 9.99144], [11.09856, 9.98139], [11.10062, 9.97553], [11.10531, 9.96712], [11.1161, 9.95677], [11.12118, 9.94974]]]}, "properties": {"name": "Tumu", "lga": "Akko", "state": "go"}}, {"type": "Feature", "geometry": {"type": "Polygon", "coordinates": [[[11.38569, 9.66922], [11.39331, 9.66534], [11.4015, 9.66205], [11.40679, 9.65869], [11.41203, 9.65765], [11.40813, 9.65002], [11.40805, 9.64986], [11.40646, 9.6465], [11.40373, 9.63832], [11.40155, 9.63189], [11.40052, 9.62548], [11.40028, 9.62502], [11.40052, 9.62502], [11.39383, 9.6121], [11.39177, 9.605], [11.39113, 9.60276], [11.38838, 9.59515], [11.38221, 9.58515], [11.38002, 9.5793], [11.37619, 9.56819], [11.37385, 9.5468], [11.33773, 9.54873], [11.28909, 9.54816], [11.29208, 9.57843], [11.29559, 9.59977], [11.28228, 9.61271], [11.26788, 9.64352], [11.27436, 9.64557], [11.30645, 9.65055], [11.3635, 9.69582], [11.37398, 9.67978], [11.37861, 9.67486], [11.38569, 9.66922]]]}, "properties": {"name": "Bangunji", "lga": "Shomgom", "state": "go"}}, {"type": "Feature", "geometry": {"type": "Polygon", "coordinates": [[[11.22202, 9.83416], [11.18601, 9.8379], [11.1794, 9.84762], [11.17269, 9.8478], [11.1711, 9.84732], [11.16122, 9.86791], [11.15903, 9.88527], [11.18267, 9.88021], [11.1911, 9.88117], [11.20405, 9.85743], [11.20607, 9.85644], [11.22202, 9.83416]]]}, "properties": {"name": "Banganje South", "lga": "Billiri", "state": "go"}}, {"type": "Feature", "geometry": {"type": "Polygon", "coordinates": [[[10.68781, 10.89386], [10.70254, 10.89137], [10.70682, 10.87805], [10.70682, 10.86686], [10.69374, 10.86496], [10.69112, 10.85854], [10.68731, 10.84402], [10.68836, 10.81491], [10.67579, 10.79953], [10.66913, 10.78572], [10.68919, 10.74915], [10.68637, 10.74248], [10.67209, 10.70036], [10.60616, 10.72359], [10.55857, 10.73578], [10.53259, 10.7487], [10.53586, 10.75478], [10.56874, 10.81079], [10.5765, 10.80713], [10.58687, 10.81817], [10.59554, 10.82692], [10.60981, 10.8488], [10.62471, 10.83489], [10.64762, 10.84738], [10.66642, 10.85087], [10.68947, 10.87839], [10.68781, 10.89386]]]}, "properties": {"name": "Gombe Abba", "lga": "Dukku", "state": "go"}}, {"type": "Feature", "geometry": {"type": "Polygon", "coordinates": [[[11.27506, 11.09636], [11.27333, 11.05049], [11.27333, 10.98194], [11.25108, 10.97907], [11.24136, 10.97011], [11.23147, 10.96099], [11.21103, 10.95895], [11.19796, 10.9922], [11.1935, 11.01174], [11.16439, 11.0094], [11.15148, 11.00668], [11.15123, 11.00663], [11.15866, 11.0344], [11.18148, 11.04489], [11.1817, 11.04495], [11.18216, 11.0472], [11.19349, 11.04777], [11.20009, 11.04811], [11.21079, 11.04088], [11.2241, 11.02012], [11.23931, 11.02665], [11.23646, 11.03738], [11.23099, 11.05837], [11.23903, 11.06568], [11.24383, 11.07004], [11.25167, 11.10502], [11.24686, 11.10781], [11.242, 11.11062], [11.25102, 11.13129], [11.26656, 11.15755], [11.2826, 11.1481], [11.27155, 11.11522], [11.27512, 11.09773], [11.27512, 11.09773], [11.27506, 11.09636]]]}, "properties": {"name": "Barwo Winde", "lga": "Nafada", "state": "go"}}, {"type": "Feature", "geometry": {"type": "Polygon", "coordinates": [[[11.32612, 10.38145], [11.33015, 10.39409], [11.32525, 10.39995], [11.32482, 10.43805], [11.32488, 10.43899], [11.36172, 10.47171], [11.40628, 10.49742], [11.41458, 10.49652], [11.40717, 10.46531], [11.43363, 10.45605], [11.45566, 10.45692], [11.44883, 10.45038], [11.43918, 10.44029], [11.42465, 10.42129], [11.41431, 10.40897], [11.40629, 10.40415], [11.4047, 10.40087], [11.39947, 10.39007], [11.39165, 10.39089], [11.3517, 10.39509], [11.33007, 10.38106], [11.32612, 10.38145]]]}, "properties": {"name": "Daban Fulani", "lga": "Kwami", "state": "go"}}, {"type": "Feature", "geometry": {"type": "Polygon", "coordinates": [[[10.82146, 11.01215], [10.81567, 11.03143], [10.85851, 11.03048], [10.898, 11.0538], [10.93084, 11.07474], [10.92957, 11.09074], [10.92927, 11.09448], [10.93738, 11.09615], [10.9589, 11.1128], [10.98933, 11.13633], [11.00853, 11.14909], [11.0207, 11.15718], [11.03593, 11.13434], [11.01573, 11.10796], [11.02868, 11.09898], [11.05544, 11.0896], [11.06403, 11.07054], [11.07461, 11.06299], [11.08691, 11.05421], [11.0979, 11.03117], [11.12137, 11.00551], [11.12126, 11.0003], [11.12118, 11.00029], [11.12065, 10.98598], [11.11227, 10.97071], [11.10681, 10.95434], [11.10203, 10.93335], [11.10235, 10.93314], [11.10233, 10.93306], [11.14136, 10.90744], [11.10856, 10.88448], [11.07979, 10.86106], [11.04696, 10.85773], [11.00984, 10.87201], [10.987, 10.92673], [10.95654, 10.93387], [10.93084, 10.90865], [10.86469, 10.92483], [10.8574, 10.93212], [10.84328, 10.94625], [10.82567, 10.99812], [10.82146, 11.01215]]]}, "properties": {"name": "Jamari", "lga": "Dukku", "state": "go"}}, {"type": "Feature", "geometry": {"type": "Polygon", "coordinates": [[[11.52716, 9.93111], [11.50824, 9.9197], [11.50481, 9.9242], [11.46508, 9.94117], [11.45465, 9.93831], [11.43847, 9.94034], [11.42931, 9.93714], [11.42713, 9.92085], [11.44344, 9.91783], [11.4334, 9.87608], [11.43009, 9.87712], [11.41576, 9.86524], [11.4138, 9.86263], [11.38548, 9.84549], [11.37667, 9.86848], [11.38097, 9.87508], [11.3823, 9.88786], [11.3795, 9.90441], [11.38022, 9.92609], [11.37154, 9.93896], [11.37283, 9.9404], [11.37799, 9.95442], [11.38723, 9.97593], [11.38567, 9.98537], [11.39098, 9.99754], [11.3908, 10.0109], [11.41847, 10.00377], [11.42848, 9.9938], [11.4491, 9.98887], [11.46384, 9.98728], [11.4726, 9.9915], [11.47987, 10.00122], [11.48656, 10.01974], [11.53351, 10.00629], [11.52637, 9.98698], [11.52319, 9.97299], [11.52336, 9.93703], [11.5255, 9.93334], [11.52716, 9.93111]]]}, "properties": {"name": "Awak", "lga": "Kaltungo", "state": "go"}}, {"type": "Feature", "geometry": {"type": "Polygon", "coordinates": [[[11.19095, 10.27132], [11.18918, 10.27686], [11.18606, 10.277], [11.18637, 10.27823], [11.18652, 10.27932], [11.1849, 10.2797], [11.18444, 10.28659], [11.1829, 10.2865], [11.18105, 10.28641], [11.18088, 10.2878], [11.18015, 10.29062], [11.18167, 10.29093], [11.18327, 10.29124], [11.18278, 10.29299], [11.18603, 10.29273], [11.18252, 10.30016], [11.19309, 10.30449], [11.19561, 10.30165], [11.19598, 10.2931], [11.19871, 10.2897], [11.19312, 10.28166], [11.19717, 10.27783], [11.19095, 10.27132]]]}, "properties": {"name": "Bajoga", "lga": "Gombe", "state": "go"}}, {"type": "Feature", "geometry": {"type": "Polygon", "coordinates": [[[11.78993, 10.0393], [11.74834, 10.01066], [11.74818, 10.01055], [11.7335, 10.00535], [11.72808, 10.00809], [11.71619, 10.02434], [11.70505, 10.01776], [11.68663, 10.00518], [11.67906, 9.98192], [11.67842, 9.97329], [11.67667, 9.97156], [11.6731, 9.97687], [11.6528, 9.98438], [11.63903, 9.99103], [11.61496, 10.00577], [11.60337, 10.03649], [11.58602, 10.0604], [11.58604, 10.06055], [11.59123, 10.06498], [11.59764, 10.0672], [11.60567, 10.06735], [11.60982, 10.06578], [11.61613, 10.06922], [11.62157, 10.07131], [11.62436, 10.07103], [11.62542, 10.06747], [11.63505, 10.07177], [11.6465, 10.07651], [11.65128, 10.07785], [11.65993, 10.0772], [11.66763, 10.07467], [11.6739, 10.07186], [11.67903, 10.07495], [11.68174, 10.07972], [11.68602, 10.08299], [11.68905, 10.08531], [11.70519, 10.07883], [11.71427, 10.0827], [11.71992, 10.08091], [11.73553, 10.09593], [11.74421, 10.09432], [11.74569, 10.09131], [11.74742, 10.08964], [11.74832, 10.08921], [11.74975, 10.08961], [11.75104, 10.09074], [11.75465, 10.09164], [11.75542, 10.08824], [11.75623, 10.08341], [11.76065, 10.07896], [11.7646, 10.07687], [11.76673, 10.07688], [11.77282, 10.06907], [11.78026, 10.05952], [11.78512, 10.04578], [11.78993, 10.0393]]]}, "properties": {"name": "Swa", "lga": "Balanga", "state": "go"}}, {"type": "Feature", "geometry": {"type": "Polygon", "coordinates": [[[11.18641, 10.16666], [11.18649, 10.18084], [11.19587, 10.1883], [11.20715, 10.19281], [11.21709, 10.20893], [11.2181, 10.21268], [11.26576, 10.22502], [11.2789, 10.21047], [11.28576, 10.19507], [11.28822, 10.17399], [11.29289, 10.15984], [11.29839, 10.12988], [11.30402, 10.10769], [11.30875, 10.10316], [11.30918, 10.10266], [11.31589, 10.09463], [11.28732, 10.07174], [11.28179, 10.06743], [11.2808, 10.0685], [11.26638, 10.07863], [11.26139, 10.0806], [11.25398, 10.08055], [11.24339, 10.07623], [11.23203, 10.07674], [11.2279, 10.07702], [11.22244, 10.07656], [11.2195, 10.07539], [11.2138, 10.07645], [11.21042, 10.07779], [11.20071, 10.08854], [11.20073, 10.09104], [11.20645, 10.10365], [11.21362, 10.11], [11.21626, 10.11618], [11.21707, 10.12434], [11.2148, 10.13376], [11.21225, 10.13747], [11.20841, 10.14212], [11.19553, 10.14995], [11.18901, 10.16295], [11.18641, 10.16666]]]}, "properties": {"name": "Kalshingi", "lga": "Akko", "state": "go"}}, {"type": "Feature", "geometry": {"type": "Polygon", "coordinates": [[[10.8574, 10.93212], [10.86469, 10.92483], [10.93084, 10.90865], [10.95654, 10.93387], [10.987, 10.92673], [11.00984, 10.87201], [11.04696, 10.85773], [11.01225, 10.82951], [10.99131, 10.81428], [10.97608, 10.81142], [10.94825, 10.8087], [10.91884, 10.802], [10.88207, 10.79584], [10.85664, 10.7971], [10.83094, 10.79619], [10.8119, 10.80619], [10.80013, 10.81704], [10.77955, 10.82226], [10.77869, 10.82262], [10.77629, 10.82411], [10.77102, 10.82285], [10.73541, 10.82866], [10.69911, 10.82808], [10.68836, 10.81491], [10.68731, 10.84402], [10.69112, 10.85854], [10.69374, 10.86496], [10.70682, 10.86686], [10.70682, 10.87805], [10.70254, 10.89137], [10.71208, 10.91009], [10.7329, 10.91574], [10.77275, 10.91396], [10.77959, 10.91901], [10.79714, 10.91901], [10.82153, 10.91723], [10.82956, 10.91723], [10.8364, 10.92258], [10.84652, 10.92467], [10.8574, 10.93212]]]}, "properties": {"name": "Waziri North", "lga": "Dukku", "state": "go"}}, {"type": "Feature", "geometry": {"type": "Polygon", "coordinates": [[[11.71432, 9.91442], [11.67913, 9.88817], [11.64259, 9.87588], [11.58138, 9.86476], [11.57414, 9.86248], [11.57421, 9.8628], [11.56591, 9.87131], [11.55534, 9.87745], [11.56557, 9.88893], [11.58747, 9.89549], [11.60775, 9.89997], [11.61668, 9.90331], [11.61934, 9.91538], [11.61804, 9.92868], [11.62683, 9.94343], [11.67428, 9.96728], [11.67667, 9.97156], [11.67842, 9.97329], [11.67906, 9.98192], [11.68663, 10.00518], [11.70505, 10.01776], [11.71619, 10.02434], [11.72808, 10.00809], [11.7335, 10.00535], [11.74818, 10.01055], [11.74834, 10.01066], [11.74434, 10.00066], [11.69931, 9.96833], [11.69308, 9.94905], [11.68811, 9.94919], [11.68767, 9.93], [11.71432, 9.91442]]]}, "properties": {"name": "Talasse", "lga": "Balanga", "state": "go"}}, {"type": "Feature", "geometry": {"type": "Polygon", "coordinates": [[[11.32174, 10.51017], [11.31425, 10.52832], [11.315, 10.52937], [11.32223, 10.53965], [11.32876, 10.55426], [11.33054, 10.56419], [11.3454, 10.61617], [11.3763, 10.64887], [11.41547, 10.66579], [11.43837, 10.66487], [11.45845, 10.66406], [11.48437, 10.66302], [11.48437, 10.66301], [11.48724, 10.6025], [11.47001, 10.59403], [11.43436, 10.5949], [11.42455, 10.58176], [11.41, 10.55285], [11.40011, 10.53425], [11.38905, 10.54124], [11.35399, 10.49567], [11.32191, 10.50969], [11.32174, 10.51017]]]}, "properties": {"name": "Dukul", "lga": "Kwami", "state": "go"}}, {"type": "Feature", "geometry": {"type": "Polygon", "coordinates": [[[11.30346, 10.97337], [11.28031, 10.98284], [11.27333, 10.98194], [11.27333, 11.05049], [11.27506, 11.09636], [11.31766, 11.12303], [11.30673, 11.14775], [11.27545, 11.17232], [11.30975, 11.16908], [11.31145, 11.16892], [11.31938, 11.18623], [11.34156, 11.16376], [11.34795, 11.15272], [11.35488, 11.14415], [11.35714, 11.13484], [11.36, 11.12745], [11.36502, 11.12238], [11.36868, 11.11852], [11.37321, 11.11395], [11.37347, 11.11174], [11.37441, 11.11068], [11.37495, 11.11014], [11.37464, 11.10946], [11.3727, 11.10611], [11.37416, 11.10503], [11.37434, 11.10431], [11.37455, 11.10377], [11.37423, 11.10278], [11.37432, 11.10172], [11.3712, 11.09843], [11.36858, 11.1009], [11.3407, 11.10171], [11.33499, 11.09677], [11.33494, 11.09252], [11.33518, 11.08977], [11.33434, 11.08326], [11.33174, 11.06831], [11.33568, 11.05458], [11.34499, 11.0455], [11.3478, 11.03876], [11.35021, 11.02983], [11.35329, 11.02328], [11.33097, 11.00884], [11.32846, 11.00389], [11.32651, 11.00004], [11.32737, 10.98671], [11.32748, 10.98569], [11.32582, 10.97932], [11.32531, 10.97737], [11.32457, 10.97598], [11.32433, 10.97595], [11.30364, 10.9734], [11.30346, 10.97337]]]}, "properties": {"name": "Nafada Central", "lga": "Nafada", "state": "go"}}, {"type": "Feature", "geometry": {"type": "Polygon", "coordinates": [[[11.77609, 9.70714], [11.76581, 9.7122], [11.75659, 9.71867], [11.74632, 9.70539], [11.73819, 9.69968], [11.73593, 9.69969], [11.73588, 9.69969], [11.73123, 9.69512], [11.72658, 9.69056], [11.70086, 9.67381], [11.69904, 9.67181], [11.69638, 9.66889], [11.68826, 9.66433], [11.68363, 9.66319], [11.66417, 9.68595], [11.6655, 9.727], [11.67159, 9.73993], [11.67387, 9.74724], [11.65169, 9.75845], [11.66352, 9.76497], [11.67683, 9.77171], [11.69757, 9.77083], [11.70685, 9.76314], [11.71468, 9.75666], [11.73161, 9.74981], [11.75476, 9.73684], [11.77074, 9.72321], [11.77609, 9.70714]]]}, "properties": {"name": "Kindiyo", "lga": "Balanga", "state": "go"}}]}