{"type": "FeatureCollection", "features": [{"type": "Feature", "properties": {"name": "Owerri West", "state": "im"}, "geometry": {"type": "MultiPolygon", "coordinates": [[[[7.006343999875753, 5.264618000020732], [7.008936999842717, 5.270158000091669], [7.0101609996305, 5.272387000359799], [7.017200999626482, 5.279872000192711], [7.008054969061618, 5.281896616935398], [6.999690148981244, 5.286357720132742], [6.986197999837884, 5.28845999962931], [6.988691999736034, 5.271369000179277], [6.989344000125527, 5.268822999681731], [6.988046999669336, 5.260088999807522], [6.990582999705737, 5.26004599962323], [7.006343999875753, 5.264618000020732]]], [[[7.035314000340918, 5.328476999613883], [7.030208999645652, 5.342324999699031], [7.034202000322125, 5.346636999797738], [7.032326000144849, 5.359108000234073], [7.03514699983424, 5.376572999844143], [7.063301042708986, 5.380091648610744], [7.080608765282363, 5.418008579632271], [7.078684451726133, 5.425441236224117], [7.062487999821371, 5.426801000365913], [7.057753048564393, 5.434470539284007], [7.052377037170572, 5.438429041067423], [7.048657999667, 5.441783999731854], [7.041858898369526, 5.446937623172801], [7.032004607626561, 5.442958734657907], [7.025932538955544, 5.443878322926309], [7.024342837951679, 5.444705638054813], [7.007441986658421, 5.427396036797688], [7.002435772892682, 5.426559811186394], [7.000967991179891, 5.436799716833491], [6.996720594779674, 5.437815473205546], [6.985884513259748, 5.443966079670872], [6.995814547603345, 5.456201043143665], [6.98714338336049, 5.461112226448165], [6.983939935279864, 5.4610977689469], [6.985804692132888, 5.463570113170249], [6.986848037906668, 5.464950330593354], [6.987537320590945, 5.466053185406224], [6.986675717010769, 5.472739237425913], [6.97465002308013, 5.484328922941472], [6.996799876313275, 5.510671491995822], [7.000413558239188, 5.50963467260209], [7.000388307074786, 5.510494609738487], [6.998285073397483, 5.512587121698346], [6.997335124916106, 5.513662771120039], [7.005986926755327, 5.520073787974979], [7.007966990184514, 5.521110667623248], [7.005469401092057, 5.544271300380274], [6.998773413362358, 5.548927505200254], [7.00667917540369, 5.559031307448947], [7.003357642741094, 5.564057059885442], [7.001610358031655, 5.566047040138812], [6.998560890972385, 5.568906679199927], [6.995745785439681, 5.569420221765881], [6.989818202747927, 5.567100490695111], [6.987907629933204, 5.565787872612304], [6.985516716623238, 5.563534897317709], [6.985148884013824, 5.561189962746653], [6.985240842391022, 5.559028944929935], [6.988946530358135, 5.544932749047177], [6.981318631849433, 5.541000759277665], [6.969173998081601, 5.56058101020551], [6.937996797814037, 5.556206333655439], [6.934045483412376, 5.554303473426614], [6.92936510031916, 5.542488097647663], [6.929053901616328, 5.525356060333991], [6.88987670384688, 5.505946425187403], [6.886557826882267, 5.504601256143133], [6.88562325590857, 5.503223475882749], [6.89470105760779, 5.486452781670607], [6.896427321563692, 5.484159561714478], [6.900601037408023, 5.479275805034433], [6.90487134493668, 5.473496484575151], [6.913646549948396, 5.467670626897984], [6.917961557380011, 5.451589029210368], [6.922829253966938, 5.44918191011709], [6.930190063720488, 5.44269163061432], [6.906442215935556, 5.424802186971419], [6.870166953242347, 5.391956240687989], [6.869743121647787, 5.384755738686465], [6.890500290156297, 5.377909663100525], [6.920247487431652, 5.385474696300264], [6.939677950876785, 5.39855644342515], [6.95060697822953, 5.393666731434564], [6.963025391708527, 5.381321227792455], [6.967100015753147, 5.381442859300591], [6.970505671899275, 5.382963240561139], [6.974945187770231, 5.38831498644754], [6.976343939321396, 5.3925112402016], [6.976391368666782, 5.393971424441759], [6.983554068565468, 5.384130390605094], [6.986734902293961, 5.375546021731566], [6.98541736132222, 5.36825776928066], [6.982120816322663, 5.345402715363093], [6.982314961965983, 5.341690960569451], [6.98491652437815, 5.339329775248984], [7.000117987954809, 5.324011859359871], [7.011667142824422, 5.310922886182311], [7.022876906144347, 5.303827314379078], [7.026573000143912, 5.28869899985898], [7.034705000135716, 5.292247999845358], [7.040154999653566, 5.301140999857296], [7.041650000247387, 5.322313999591472], [7.036617000174488, 5.324934999950358], [7.035314000340918, 5.328476999613883]]]]}}, {"type": "Feature", "properties": {"name": "Ahiazu-Mbaise", "state": "im"}, "geometry": {"type": "Polygon", "coordinates": [[[7.210201176443206, 5.511822174553743], [7.22620383973549, 5.507052364674962], [7.231366015729066, 5.514125928269038], [7.235716748729033, 5.510277505302668], [7.236893327265307, 5.517607108581217], [7.24018566793427, 5.5186816068707], [7.243440523961056, 5.51977476429397], [7.245450908033035, 5.521911384402927], [7.24913697369243, 5.521085976736458], [7.252673316620303, 5.520111454280254], [7.254487566647924, 5.514719339625856], [7.263056022917169, 5.522387638378859], [7.271014291876099, 5.514322403156427], [7.284427583965851, 5.490829917866449], [7.296038919760406, 5.499606961991731], [7.302652990942818, 5.510203170939633], [7.309107921693283, 5.510994064424608], [7.31910979927784, 5.521728566620084], [7.32003442105173, 5.521450998964497], [7.322574316951204, 5.520887386643608], [7.326213715890333, 5.524353999737343], [7.328744013325604, 5.525878827246117], [7.320826143711599, 5.525057596930594], [7.314276445101882, 5.531824658980895], [7.319092561972184, 5.538587805382974], [7.315625868838822, 5.540971764235564], [7.323425689843759, 5.54332479360437], [7.324476321025429, 5.553923936140791], [7.316811365052502, 5.55216693875326], [7.301185045553439, 5.569452464259882], [7.300504774975423, 5.5727018856835], [7.299632337262608, 5.57677257699288], [7.308933222989879, 5.591497351321777], [7.307882000054292, 5.594536000436108], [7.304000083636993, 5.600927425560315], [7.253324859254917, 5.596921986360655], [7.252802400810197, 5.590146658641459], [7.254315011029007, 5.587150736317483], [7.252050662907834, 5.588832455953138], [7.249510803880526, 5.591569236830878], [7.23536537371308, 5.594751345798045], [7.229285999849083, 5.612920000157942], [7.226070168103831, 5.612685287895772], [7.219664105614015, 5.61047336665257], [7.214284226236089, 5.605136027006097], [7.210866786273243, 5.599906063713945], [7.212830726656762, 5.587687250266413], [7.222803066908057, 5.584303262385674], [7.242983180929116, 5.585629134676878], [7.254351358028771, 5.570615954063101], [7.241596009048635, 5.568121006279455], [7.235923933642653, 5.56120041376812], [7.224506763276565, 5.556566740562687], [7.216627915246136, 5.551611423028817], [7.207642956857001, 5.538055275430679], [7.207890571692587, 5.528565087808602], [7.212360928913768, 5.523360792066967], [7.211115456912864, 5.522827018352245], [7.210284237827352, 5.522847569659689], [7.206956468366343, 5.521403620880449], [7.203283218945444, 5.514664095171895], [7.210201176443206, 5.511822174553743]]]}}, {"type": "Feature", "properties": {"name": "Nkwerre", "state": "im"}, "geometry": {"type": "MultiPolygon", "coordinates": [[[[7.079628889161938, 5.71870242757501], [7.094169431973739, 5.713223411431329], [7.105890181986354, 5.723285520210652], [7.11645783476132, 5.710001344686361], [7.120164857322379, 5.710857180014898], [7.122514167095176, 5.710911231967827], [7.127707406571631, 5.720041920997915], [7.131663922651967, 5.717437446580959], [7.131898597142595, 5.718410935716179], [7.132076519016209, 5.719229375435361], [7.132094311203559, 5.719656387032671], [7.131738468355707, 5.720812877412413], [7.131318821306593, 5.722225090015968], [7.129762976180473, 5.724097902995879], [7.118884295573821, 5.727626762665011], [7.115711482898689, 5.734133610377853], [7.11421636539302, 5.734519699224791], [7.113334911077345, 5.734626474831998], [7.111925466587081, 5.734609067554459], [7.104569957437661, 5.726983202412896], [7.098791728755316, 5.729500491154795], [7.100244527762811, 5.721091430724982], [7.084251430559107, 5.729672246377106], [7.079628889161938, 5.71870242757501]]], [[[7.113509361567822, 5.811065712812422], [7.092614157917126, 5.793004235157355], [7.069624515059388, 5.785766299774991], [7.067833433366332, 5.780270377276111], [7.071876385986457, 5.774833842407929], [7.081829721764279, 5.771818540593245], [7.07910421119044, 5.764894561235053], [7.081715852304796, 5.756165674906015], [7.083716255700665, 5.756481715558778], [7.08675383102451, 5.756675193005776], [7.089163759599899, 5.757022795365742], [7.092179127964414, 5.752711272807062], [7.091763668158819, 5.745681602424042], [7.083446064284487, 5.746175582936871], [7.076384440989216, 5.734413940750812], [7.098791728755316, 5.729500491154795], [7.100161761356276, 5.746879625294525], [7.106322008553889, 5.748497708902164], [7.112491454017459, 5.739416002346672], [7.12541372256527, 5.737380877925204], [7.127061717624201, 5.741663055605557], [7.140478867805541, 5.738710073211337], [7.147071495553121, 5.74677343424662], [7.15330015777613, 5.742567717825978], [7.154750120321864, 5.744312837867199], [7.156359894193827, 5.746389410243125], [7.162410838689311, 5.746024947393437], [7.154994544362808, 5.756467668148389], [7.136659806804687, 5.76406994407273], [7.130211999584162, 5.763799465772763], [7.124745058637586, 5.765057378095548], [7.123353319100431, 5.766525160707658], [7.116941411916685, 5.774878936214009], [7.123745542223048, 5.78656526107801], [7.118691396390886, 5.789252411969301], [7.129796192640242, 5.794114537256121], [7.126423900442717, 5.801125443284604], [7.123136159805995, 5.798892724319842], [7.118278157011389, 5.802008716029491], [7.113509361567822, 5.811065712812422]]]]}}, {"type": "Feature", "properties": {"name": "Okigwe", "state": "im"}, "geometry": {"type": "Polygon", "coordinates": [[[7.381607532861381, 5.705608845371955], [7.396841049175123, 5.70866107874582], [7.399729251603731, 5.710363388359724], [7.400300980306042, 5.71271181140105], [7.394280910435725, 5.755751133308195], [7.392399311079373, 5.833835125190944], [7.386432648348091, 5.860856533102549], [7.389560223325702, 5.88150119822177], [7.396083831703493, 5.898677825721109], [7.394222260249137, 5.9101715086083], [7.391950606934984, 5.911909103122639], [7.387948035673332, 5.912797928281805], [7.37668085064081, 5.905986785961431], [7.362891674311356, 5.903785706045539], [7.335178852322201, 5.911439418694272], [7.284521102666815, 5.918389797651116], [7.270840167839538, 5.924798964600598], [7.260983943554209, 5.938930988574327], [7.248618528022689, 5.931852049732356], [7.22879743595297, 5.932837963001646], [7.225545283288227, 5.922229094297336], [7.233186309200846, 5.91363782132845], [7.229990939730158, 5.90815356933183], [7.22178722420108, 5.904125362895229], [7.225027917704267, 5.894108671677884], [7.23663096264886, 5.883502764441062], [7.24077372382834, 5.869076157638631], [7.254977367111849, 5.867065734895789], [7.259313999641392, 5.85780600034667], [7.248157999592081, 5.852696000320179], [7.235236999987592, 5.852451999859966], [7.223933000307738, 5.838130000399246], [7.232264999630104, 5.839832999793146], [7.233997000361342, 5.839176000072371], [7.241206000056934, 5.836454999598573], [7.251947999900324, 5.830280999968238], [7.256254999768487, 5.825599999940096], [7.259615000032284, 5.819320999964248], [7.270621000358915, 5.786646999559423], [7.276467000151968, 5.777329999779738], [7.285848000185126, 5.772564000328373], [7.280297592260126, 5.757509996788997], [7.266111513635508, 5.75671134575208], [7.256406970805131, 5.752335724014472], [7.24733931615657, 5.736035114429058], [7.25743823868379, 5.730489444132616], [7.27271334144757, 5.732196235967592], [7.278618000420408, 5.739275000341024], [7.277571999847964, 5.742708000373966], [7.308876000027453, 5.75506500004974], [7.314579000420565, 5.751798999624157], [7.324590999874772, 5.74333399956447], [7.331081999734522, 5.731012999750192], [7.339462000371043, 5.721422999971537], [7.349936999592899, 5.712950999588998], [7.353332999718191, 5.70897599974262], [7.364037999653988, 5.70050000007501], [7.372030761210738, 5.701551547665815], [7.381607532861381, 5.705608845371955]]]}}, {"type": "Feature", "properties": {"name": "Ehime-Mbano", "state": "im"}, "geometry": {"type": "Polygon", "coordinates": [[[7.302718001134906, 5.600979729231142], [7.301053999942212, 5.603812000123753], [7.312927854137229, 5.613886289320817], [7.315974114214043, 5.617672510677892], [7.322497541828113, 5.611319274365087], [7.328966994830978, 5.61610262893322], [7.336138051230137, 5.615677593146472], [7.340510536132399, 5.622999921808969], [7.336472616118385, 5.625499179143844], [7.33708183485885, 5.629105760022867], [7.347389835372667, 5.631542638581948], [7.3524341749972, 5.636367659639802], [7.348023423042605, 5.643361503730489], [7.357344000325384, 5.657525000378541], [7.357277999979772, 5.667665000339525], [7.35835526188589, 5.6741365055953], [7.359313000294776, 5.679382000179203], [7.366321999760544, 5.684791999651111], [7.36851700025943, 5.692128999853537], [7.36651599971367, 5.696771999927876], [7.366161531029888, 5.697305278116119], [7.364037999653988, 5.70050000007501], [7.331081999734522, 5.731012999750192], [7.324590999874772, 5.74333399956447], [7.314579000420565, 5.751798999624157], [7.308876000027453, 5.75506500004974], [7.277571999847964, 5.742708000373966], [7.278618000420408, 5.739275000341024], [7.27271334144757, 5.732196235967592], [7.25743823868379, 5.730489444132616], [7.252336562782205, 5.713946577872321], [7.253321136061629, 5.70632722472169], [7.244151631392697, 5.687724483797922], [7.247835881320896, 5.688054108710219], [7.249648818338358, 5.68387885772313], [7.243583717614513, 5.682263696012797], [7.246374038730949, 5.670605957898658], [7.238496506408694, 5.668858945683837], [7.237120303559209, 5.675023592364937], [7.230372302639694, 5.676552911088038], [7.213770609026426, 5.671337711965862], [7.224701321708665, 5.659217477704487], [7.224979708646686, 5.654351236220634], [7.226286020683347, 5.649673276800343], [7.224165708880435, 5.621071325681157], [7.226070168103831, 5.612685287895772], [7.229285999849083, 5.612920000157942], [7.232867000411773, 5.606178000414445], [7.235040999942214, 5.598519999798214], [7.235485076175394, 5.597990783847649], [7.23536537371308, 5.594751345798045], [7.249510803880526, 5.591569236830878], [7.252050662907834, 5.588832455953138], [7.254315011029007, 5.587150736317483], [7.252802400810197, 5.590146658641459], [7.253324859254917, 5.596921986360655], [7.302718001134906, 5.600979729231142]]]}}, {"type": "Feature", "properties": {"name": "Ideato South", "state": "im"}, "geometry": {"type": "MultiPolygon", "coordinates": [[[[7.046609008598921, 5.846234875039499], [7.045310750890508, 5.845792636121303], [7.045302433960217, 5.845784920837502], [7.044066772663484, 5.830927347219358], [7.046649174120148, 5.821163784581017], [7.061068455045188, 5.814036866008621], [7.063373200712704, 5.814871919803295], [7.06678021843237, 5.817577492407395], [7.068684138961885, 5.817777903627416], [7.076567802861859, 5.832908533901787], [7.046609008598921, 5.846234875039499]]], [[[7.162410838689311, 5.746024947393437], [7.173823621263182, 5.749031210122325], [7.173615331082715, 5.742481614934604], [7.175300999641479, 5.741026000149816], [7.18764399957098, 5.733902999923544], [7.189436212611156, 5.732404300418182], [7.200573999590461, 5.748892999612281], [7.205212000333574, 5.76471299980517], [7.205781999639612, 5.771705000285579], [7.194935000350029, 5.785393000186843], [7.192946000357665, 5.790726999751314], [7.193527000170945, 5.798091000299451], [7.188311999798998, 5.803709000370134], [7.186574999736479, 5.810420999629457], [7.184321000114096, 5.813683999916691], [7.179225188691532, 5.831996401912477], [7.185217995614039, 5.83267412920776], [7.183423215908761, 5.85100752317868], [7.181235198645538, 5.849840659119195], [7.179664329445302, 5.848820589598574], [7.17810484206484, 5.848643299948378], [7.160830437574703, 5.851543093738826], [7.147183987251253, 5.847161852137788], [7.137322787916389, 5.849124619805423], [7.133510998833572, 5.842997389418031], [7.132861721591212, 5.838394192438102], [7.13253615891665, 5.83814395068282], [7.109775244232196, 5.829699165584088], [7.110776782322716, 5.828625783353289], [7.113203801614191, 5.824200876069597], [7.114745063334055, 5.806474153959073], [7.122792664649808, 5.79896633023202], [7.126423900442717, 5.801125443284604], [7.129796192640242, 5.794114537256121], [7.118691396390886, 5.789252411969301], [7.123745542223048, 5.78656526107801], [7.116941411916685, 5.774878936214009], [7.123353319100431, 5.766525160707658], [7.124745058637586, 5.765057378095548], [7.130211999584162, 5.763799465772763], [7.136659806804687, 5.76406994407273], [7.154994544362808, 5.756467668148389], [7.162410838689311, 5.746024947393437]]]]}}, {"type": "Feature", "properties": {"name": "Aboh-Mbaise", "state": "im"}, "geometry": {"type": "Polygon", "coordinates": [[[7.210201176443206, 5.511822174553743], [7.199151846780353, 5.495455345188077], [7.188298142145584, 5.491323662756884], [7.187729777807021, 5.491983240833918], [7.187180013247087, 5.492927422862351], [7.186481702268793, 5.495242347956037], [7.181268390823618, 5.494144116557777], [7.176085766944652, 5.493283605653914], [7.173161593432837, 5.49439796819172], [7.172003656943275, 5.495959479946066], [7.154286816583351, 5.476858758325079], [7.16439121508256, 5.476533094926424], [7.174919223943107, 5.463739315217254], [7.180320931665733, 5.446164345608111], [7.202939246249286, 5.450660232783548], [7.208895541596007, 5.443762042384378], [7.225295549649957, 5.448412930412474], [7.240312367122101, 5.437455053707822], [7.228676378212356, 5.432853813652628], [7.224491231085494, 5.418176969591514], [7.22274197236419, 5.419082809923793], [7.220957516875956, 5.421248110312092], [7.21394765585967, 5.401628089564724], [7.210646556693291, 5.397637453205959], [7.204409766397646, 5.396084306045964], [7.19944147344529, 5.374437116279921], [7.221714999647588, 5.373181999949395], [7.239572000247676, 5.364814999912369], [7.24574900001636, 5.361486000178786], [7.249761999816485, 5.35289100041939], [7.251730999785877, 5.346406999983117], [7.2357886216476, 5.337127147599858], [7.248252720686537, 5.332686131659671], [7.259479548642332, 5.32456882569079], [7.267413999956204, 5.331854999808456], [7.284790580021308, 5.349659307331194], [7.300154970175754, 5.341230620996384], [7.305711746200188, 5.358143329850861], [7.308726310570819, 5.359957694991692], [7.311897755377174, 5.361371039841686], [7.313356875719307, 5.36336994226906], [7.321912765761567, 5.382541656372382], [7.322649002049843, 5.395452975674345], [7.31641517861766, 5.394053819428279], [7.299628247145961, 5.402369317090347], [7.291599980354874, 5.402842955837798], [7.296745225711618, 5.420605016808111], [7.28426502431148, 5.426658386775159], [7.285170089428107, 5.427626714701148], [7.286486653736119, 5.427835834056566], [7.288599788049851, 5.431768368815199], [7.285486545567665, 5.448280882956453], [7.283860844702247, 5.450540054579903], [7.27982130410993, 5.455343030556492], [7.278783802130818, 5.456767439765599], [7.26982236640913, 5.454002173761353], [7.261082494861284, 5.458742103665202], [7.275763581024478, 5.475750469808361], [7.277517822889251, 5.485313229122255], [7.284875723336029, 5.488118621976867], [7.270137171393401, 5.515434849238943], [7.263056022917169, 5.522387638378859], [7.254487566647924, 5.514719339625856], [7.252673316620303, 5.520111454280254], [7.24913697369243, 5.521085976736458], [7.245450908033035, 5.521911384402927], [7.243440523961056, 5.51977476429397], [7.24018566793427, 5.5186816068707], [7.236893327265307, 5.517607108581217], [7.235716748729033, 5.510277505302668], [7.231366015729066, 5.514125928269038], [7.22620383973549, 5.507052364674962], [7.210201176443206, 5.511822174553743]]]}}, {"type": "Feature", "properties": {"name": "Mbatoli", "state": "im"}, "geometry": {"type": "Polygon", "coordinates": [[[7.006188422557727, 5.5415736508034], [7.015654889661505, 5.538395524933605], [7.017665940131053, 5.534633084349423], [7.021810115944163, 5.540982440087589], [7.021423445235882, 5.536963681928398], [7.027716313656981, 5.528181972120365], [7.028301006985942, 5.526038685337085], [7.028097116288961, 5.523197094770183], [7.027018169952612, 5.523017029812138], [7.031778018041166, 5.520470662391233], [7.044220444318114, 5.541395322436244], [7.05411501119886, 5.541685455419497], [7.064689084233919, 5.530713814590911], [7.067143370969859, 5.528331836944744], [7.068218642676243, 5.527610249713291], [7.07848819537395, 5.523976499415937], [7.079935263901348, 5.534429051559528], [7.08658974072398, 5.53825614260694], [7.073788271811338, 5.545894019993057], [7.073780484581732, 5.54709918797721], [7.07266742336293, 5.550449896445627], [7.071785511292376, 5.555616727330175], [7.075517654616135, 5.570285098878287], [7.083481666645639, 5.578794067692115], [7.075877834894186, 5.592762793668044], [7.079766334348903, 5.596280356053626], [7.081678274133083, 5.600112486901821], [7.091329298308494, 5.60576511716647], [7.09230863573498, 5.59658678475239], [7.091684159996021, 5.592040146135901], [7.093631057327457, 5.588433505901605], [7.096645736811354, 5.583981034397254], [7.105087889594472, 5.579269979026378], [7.111164063670628, 5.57264304843801], [7.113825000223642, 5.591373000263786], [7.117444999886857, 5.601219000156789], [7.125437999763903, 5.610530999705929], [7.133834000238949, 5.616148999776556], [7.142872999789176, 5.618760999720394], [7.148897532994795, 5.618884639414603], [7.160886319648, 5.620423514333766], [7.162094206282632, 5.626989552725718], [7.160799035047489, 5.627535523045992], [7.15977273772171, 5.62858852034401], [7.158834240308011, 5.628867580874214], [7.148536522642473, 5.624308606257216], [7.143009748001532, 5.63037515668816], [7.135192431585494, 5.629713606397843], [7.129393505006306, 5.634179695436671], [7.105798055435969, 5.629720494305388], [7.096604743014552, 5.642413798158316], [7.08687940516046, 5.648940885113802], [7.079104447712155, 5.648442713760289], [7.079674741995802, 5.63694356119646], [7.074327929790172, 5.626658998813809], [7.062744166310267, 5.637728242164712], [7.061790146598014, 5.636864548560141], [7.059841474004884, 5.636056743324104], [7.056684332016346, 5.635348258315503], [7.055789723317105, 5.64246201980643], [7.043394594185202, 5.638706704550827], [7.043187409271582, 5.643532113216509], [7.038244562636521, 5.642836563156891], [7.039783653392931, 5.649288900262604], [7.020382245244491, 5.652618660822611], [6.955163000372238, 5.626615000382003], [6.964077293632272, 5.601240940916739], [6.960686841424661, 5.592475419804828], [6.961763999908726, 5.588880000411734], [6.963659516273708, 5.581398551102325], [6.959222999641781, 5.574407000282861], [6.957734000223979, 5.567979999777208], [6.956775000066273, 5.565692000385582], [6.968245741247983, 5.561877561000699], [6.969351965820636, 5.561171809931125], [6.973355711596867, 5.550469168017742], [6.981318631849433, 5.541000759277665], [6.988946530358135, 5.544932749047177], [6.985516716623238, 5.563534897317709], [6.998560890972385, 5.568906679199927], [7.001610358031655, 5.566047040138812], [7.003357642741094, 5.564057059885442], [7.00667917540369, 5.559031307448947], [6.998773413362358, 5.548927505200254], [7.006188422557727, 5.5415736508034]]]}}, {"type": "Feature", "properties": {"name": "Owerri North", "state": "im"}, "geometry": {"type": "Polygon", "coordinates": [[[7.009473146868288, 5.525469538588368], [7.018155167726832, 5.508499598677588], [7.028453901626335, 5.512567169339434], [7.033775000415972, 5.50562999962483], [7.041443934989672, 5.500428327205611], [7.048342377198992, 5.496938588944772], [7.049010350447361, 5.48975245361288], [7.05829755119106, 5.492013497624839], [7.063973749089314, 5.492868432732052], [7.06897227994682, 5.486359423948329], [7.069247185609186, 5.473616688859124], [7.061926365109684, 5.467522832312909], [7.067025823283188, 5.466993629852198], [7.07198781558526, 5.46423332540769], [7.074844969819537, 5.463350362928963], [7.041858898369526, 5.446937623172801], [7.048657999667, 5.441783999731854], [7.052377037170572, 5.438429041067423], [7.057753048564393, 5.434470539284007], [7.062487999821371, 5.426801000365913], [7.078684451726133, 5.425441236224117], [7.080608765282363, 5.418008579632271], [7.063301042708986, 5.380091648610744], [7.03514699983424, 5.376572999844143], [7.032326000144849, 5.359108000234073], [7.034202000322125, 5.346636999797738], [7.030208999645652, 5.342324999699031], [7.035314000340918, 5.328476999613883], [7.050149000076317, 5.334384000421323], [7.056912999935037, 5.338876999873719], [7.065293999718335, 5.343573999740329], [7.067687000354852, 5.348832000296625], [7.07428499975299, 5.357476999663845], [7.080606999913186, 5.363361000309965], [7.085117000149467, 5.371120000187886], [7.08868700020497, 5.377970999562024], [7.089952000084793, 5.384859999789228], [7.094405000390509, 5.389163000372207], [7.09607600010736, 5.392594000312897], [7.099818000000766, 5.395755000393024], [7.106324999699041, 5.398640000335774], [7.111862999677726, 5.398777000358336], [7.119229000318171, 5.397960999600514], [7.125881999554679, 5.395542999609802], [7.134164000168539, 5.394253000375727], [7.144772000127773, 5.393840000215903], [7.152624999843908, 5.394628999728582], [7.157319999618323, 5.399619999663287], [7.161534999740468, 5.403464999809955], [7.1683989997141, 5.4141790001608], [7.170318000075667, 5.418752999751177], [7.173018999627175, 5.428848000334995], [7.147002295419668, 5.439884243063432], [7.146690398842907, 5.44023044517894], [7.153813726422413, 5.451855556788587], [7.168952631358877, 5.460498289864233], [7.171347910877444, 5.46733506556086], [7.16439121508256, 5.476533094926424], [7.154286816583351, 5.476858758325079], [7.16664923737244, 5.488765865852088], [7.161987874041188, 5.496826185380201], [7.144929451632947, 5.490038946140487], [7.141819999793199, 5.496657000420271], [7.137935999646743, 5.49902699999609], [7.12159900079331, 5.505816882343311], [7.106956377734718, 5.516227363302221], [7.08808963362975, 5.517978555565946], [7.068218642676243, 5.527610249713291], [7.067143370969859, 5.528331836944744], [7.064689084233919, 5.530713814590911], [7.05411501119886, 5.541685455419497], [7.044220444318114, 5.541395322436244], [7.031778018041166, 5.520470662391233], [7.027018169952612, 5.523017029812138], [7.028097116288961, 5.523197094770183], [7.028301006985942, 5.526038685337085], [7.027716313656981, 5.528181972120365], [7.021423445235882, 5.536963681928398], [7.021810115944163, 5.540982440087589], [7.017665940131053, 5.534633084349423], [7.015654889661505, 5.538395524933605], [7.006188422557727, 5.5415736508034], [7.005528345356879, 5.532774524724573], [7.00589397282863, 5.531552265124958], [7.009473146868288, 5.525469538588368]]]}}, {"type": "Feature", "properties": {"name": "Ideato North", "state": "im"}, "geometry": {"type": "Polygon", "coordinates": [[[7.22879743595297, 5.932837963001646], [7.215004443800069, 5.930349826683198], [7.212119578755619, 5.928934574371169], [7.209517479448152, 5.927230359093869], [7.207779408293106, 5.925806999393558], [7.195188521932778, 5.904941082165237], [7.188812733321015, 5.899531364181144], [7.149178982124397, 5.916738986814835], [7.107727528402734, 5.926209449606461], [7.062781334391104, 5.931398392122162], [7.047820091424114, 5.927196026575416], [7.045501231796436, 5.925202847433525], [7.043472766854734, 5.923494816332777], [7.045351006343935, 5.923323507174189], [7.045903211663926, 5.923057594732256], [7.04677409265031, 5.922900929234572], [7.045021653926256, 5.908303980044707], [7.035313759322605, 5.901900164061374], [7.049402025882841, 5.86848731573707], [7.049215573939648, 5.866921123910799], [7.048884934592081, 5.864724021696304], [7.050622345644797, 5.858506765574816], [7.047626264140831, 5.85424516528218], [7.046609008598921, 5.846234875039499], [7.07905133555073, 5.832644999267359], [7.091340583001568, 5.817592738614053], [7.103050525861136, 5.828294000967446], [7.13253615891665, 5.83814395068282], [7.132861721591212, 5.838394192438102], [7.133510998833572, 5.842997389418031], [7.137322787916389, 5.849124619805423], [7.147990902158483, 5.847243798362626], [7.160830437574703, 5.851543093738826], [7.17810484206484, 5.848643299948378], [7.190184790295859, 5.853922930998522], [7.187046076315426, 5.870081078079352], [7.193368517143426, 5.872348943449026], [7.2026166288544, 5.844276612975364], [7.202309192914981, 5.841674227683484], [7.200750252322337, 5.836347968583937], [7.199579602117012, 5.832689084933349], [7.198102471951586, 5.829720726830146], [7.189246693080463, 5.829412095691737], [7.179225188691532, 5.831996401912477], [7.184321000114096, 5.813683999916691], [7.186574999736479, 5.810420999629457], [7.188311999798998, 5.803709000370134], [7.193527000170945, 5.798091000299451], [7.192946000357665, 5.790726999751314], [7.194935000350029, 5.785393000186843], [7.205781999639612, 5.771705000285579], [7.212131000145575, 5.807453000355736], [7.223396999871682, 5.833528999563725], [7.227812000223707, 5.835528000017234], [7.233997000361342, 5.839176000072371], [7.232264999630104, 5.839832999793146], [7.223933000307738, 5.838130000399246], [7.235236999987592, 5.852451999859966], [7.248157999592081, 5.852696000320179], [7.259313999641392, 5.85780600034667], [7.254977367111849, 5.867065734895789], [7.24077372382834, 5.869076157638631], [7.23663096264886, 5.883502764441062], [7.225027917704267, 5.894108671677884], [7.22178722420108, 5.904125362895229], [7.229990939730158, 5.90815356933183], [7.233186309200846, 5.91363782132845], [7.225545283288227, 5.922229094297336], [7.22879743595297, 5.932837963001646]]]}}, {"type": "Feature", "properties": {"name": "Nwangele", "state": "im"}, "geometry": {"type": "Polygon", "coordinates": [[[7.079628889161938, 5.71870242757501], [7.078188391980746, 5.716623739993679], [7.088705958813023, 5.706201284561701], [7.076802936906063, 5.69501922575671], [7.068025483589224, 5.693613249951568], [7.072677973309851, 5.67608663688884], [7.075129545891855, 5.677289630312259], [7.076688046716015, 5.677343046444491], [7.078318677664868, 5.677629690058211], [7.089025279293253, 5.669989789197473], [7.099919046926516, 5.667651812681072], [7.09552936428878, 5.678586262046394], [7.103917655775263, 5.680701177917058], [7.105910137942544, 5.679578752957127], [7.108136805369327, 5.679152797163908], [7.108220243569406, 5.674711229939362], [7.113188973592287, 5.67177978810679], [7.12107311143501, 5.680108869129072], [7.138464258718614, 5.668107045004149], [7.148362136003811, 5.654597620783647], [7.154681942717559, 5.666245288289474], [7.156639082427773, 5.664388151392131], [7.15905260919061, 5.661530246223947], [7.161175132426479, 5.659772041046892], [7.170324790856455, 5.668694358058247], [7.16594531642329, 5.669849549816945], [7.159800326224115, 5.678266716735664], [7.160962519204929, 5.688592994171415], [7.169230947250469, 5.704520332947084], [7.165533676038365, 5.715369709144795], [7.157946639126124, 5.717774468417019], [7.164619518775794, 5.721894138603659], [7.183252121688099, 5.71329883217544], [7.18475550935932, 5.714887305604691], [7.187576947917876, 5.716244682046465], [7.18969015237866, 5.719382994929333], [7.185753856655197, 5.724437014856392], [7.189436212611156, 5.732404300418182], [7.18764399957098, 5.733902999923544], [7.175300999641479, 5.741026000149816], [7.173615331082715, 5.742481614934604], [7.173823621263182, 5.749031210122325], [7.16412186543181, 5.744450485401615], [7.156359894193827, 5.746389410243125], [7.154750120321864, 5.744312837867199], [7.15330015777613, 5.742567717825978], [7.147071495553121, 5.74677343424662], [7.140478867805541, 5.738710073211337], [7.127061717624201, 5.741663055605557], [7.12541372256527, 5.737380877925204], [7.112491454017459, 5.739416002346672], [7.106322008553889, 5.748497708902164], [7.100161761356276, 5.746879625294525], [7.098791728755316, 5.729500491154795], [7.104569957437661, 5.726983202412896], [7.111925466587081, 5.734609067554459], [7.113334911077345, 5.734626474831998], [7.11421636539302, 5.734519699224791], [7.115711482898689, 5.734133610377853], [7.118884295573821, 5.727626762665011], [7.129762976180473, 5.724097902995879], [7.131663922651967, 5.717437446580959], [7.127707406571631, 5.720041920997915], [7.122514167095176, 5.710911231967827], [7.120164857322379, 5.710857180014898], [7.11645783476132, 5.710001344686361], [7.105890181986354, 5.723285520210652], [7.094169431973739, 5.713223411431329], [7.079628889161938, 5.71870242757501]]]}}, {"type": "Feature", "properties": {"name": "Onuimo", "state": "im"}, "geometry": {"type": "MultiPolygon", "coordinates": [[[[7.233997000361342, 5.839176000072371], [7.227812000223707, 5.835528000017234], [7.223396999871682, 5.833528999563725], [7.212131000145575, 5.807453000355736], [7.200573999590461, 5.748892999612281], [7.185753856655197, 5.724437014856392], [7.18969015237866, 5.719382994929333], [7.187576947917876, 5.716244682046465], [7.18475550935932, 5.714887305604691], [7.183252121688099, 5.71329883217544], [7.18743012370129, 5.711009106085442], [7.20115362434035, 5.709487574591947], [7.201740473344216, 5.71217674356194], [7.204229788673842, 5.713113991817295], [7.205875994981227, 5.713385426096579], [7.221245832329373, 5.708215548308942], [7.230137202769754, 5.717956654875763], [7.244416080637677, 5.723215386580875], [7.24733931615657, 5.736035114429058], [7.256406970805131, 5.752335724014472], [7.266111513635508, 5.75671134575208], [7.280297592260126, 5.757509996788997], [7.285848000185126, 5.772564000328373], [7.276467000151968, 5.777329999779738], [7.270621000358915, 5.786646999559423], [7.256254999768487, 5.825599999940096], [7.251947999900324, 5.830280999968238], [7.241206000056934, 5.836454999598573], [7.233997000361342, 5.839176000072371]]], [[[7.184810714243099, 5.83090100967388], [7.198102471951586, 5.829720726830146], [7.199579602117012, 5.832689084933349], [7.200750252322337, 5.836347968583937], [7.202309192914981, 5.841674227683484], [7.193368517143426, 5.872348943449026], [7.187046076315426, 5.870081078079352], [7.190184790295859, 5.853922930998522], [7.183423215908761, 5.85100752317868], [7.184810714243099, 5.83090100967388]]]]}}, {"type": "Feature", "properties": {"name": "Ngor-Okpala", "state": "im"}, "geometry": {"type": "Polygon", "coordinates": [[[7.264343654236313, 5.215610503621917], [7.268032943965238, 5.242113589970245], [7.276494418682546, 5.25567150113892], [7.279310225686402, 5.278070927031706], [7.291099548105706, 5.303534985251417], [7.292263508254337, 5.327637195600119], [7.300154970175754, 5.341230620996384], [7.284790580021308, 5.349659307331194], [7.267413999956204, 5.331854999808456], [7.259479548642332, 5.32456882569079], [7.248252720686537, 5.332686131659671], [7.2357886216476, 5.337127147599858], [7.251730999785877, 5.346406999983117], [7.249761999816485, 5.35289100041939], [7.24574900001636, 5.361486000178786], [7.239572000247676, 5.364814999912369], [7.221714999647588, 5.373181999949395], [7.19944147344529, 5.374437116279921], [7.204409766397646, 5.396084306045964], [7.210646556693291, 5.397637453205959], [7.21394765585967, 5.401628089564724], [7.220957516875956, 5.421248110312092], [7.22274197236419, 5.419082809923793], [7.224491231085494, 5.418176969591514], [7.228153566334072, 5.432234184360141], [7.240855902078295, 5.436572916806711], [7.225295549649957, 5.448412930412474], [7.208895541596007, 5.443762042384378], [7.202939246249286, 5.450660232783548], [7.180320931665733, 5.446164345608111], [7.171347910877444, 5.46733506556086], [7.168952631358877, 5.460498289864233], [7.153813726422413, 5.451855556788587], [7.146690398842907, 5.44023044517894], [7.147002295419668, 5.439884243063432], [7.173018999627175, 5.428848000334995], [7.170318000075667, 5.418752999751177], [7.1683989997141, 5.4141790001608], [7.161534999740468, 5.403464999809955], [7.157319999618323, 5.399619999663287], [7.152624999843908, 5.394628999728582], [7.106324999699041, 5.398640000335774], [7.099818000000766, 5.395755000393024], [7.09607600010736, 5.392594000312897], [7.080606999913186, 5.363361000309965], [7.07428499975299, 5.357476999663845], [7.067687000354852, 5.348832000296625], [7.065293999718335, 5.343573999740329], [7.056912999935037, 5.338876999873719], [7.050149000076317, 5.334384000421323], [7.035314000340918, 5.328476999613883], [7.036617000174488, 5.324934999950358], [7.041650000247387, 5.322313999591472], [7.040154999653566, 5.301140999857296], [7.034705000135716, 5.292247999845358], [7.026573000143912, 5.28869899985898], [7.017200999626482, 5.279872000192711], [7.0101609996305, 5.272387000359799], [7.008936999842717, 5.270158000091669], [7.006343999875753, 5.264618000020732], [7.006918000265557, 5.25723300030279], [7.003047999865373, 5.246238999630179], [7.003581383274252, 5.239958220795302], [7.045132159921309, 5.248737812699972], [7.104058743216456, 5.221520423628704], [7.122664927644337, 5.21629238128844], [7.165431022923428, 5.212290764207467], [7.217730999386163, 5.195592880007439], [7.227855728858856, 5.194829440126625], [7.231534003691365, 5.19455194531605], [7.242135048293903, 5.195867061715546], [7.251398086952179, 5.201854228989532], [7.252560616279482, 5.20472002031272], [7.256109237651231, 5.213470936434589], [7.260108948169488, 5.21332740823334], [7.264343654236313, 5.215610503621917]]]}}, {"type": "Feature", "properties": {"name": "Orsu", "state": "im"}, "geometry": {"type": "Polygon", "coordinates": [[[6.99373183825378, 5.895229012908658], [6.948365687826254, 5.838615894208203], [6.933353423621668, 5.830395698602672], [6.92757607987221, 5.806637234320931], [6.937877441590729, 5.800340789296058], [6.942298721009195, 5.811872466741022], [6.957195255956321, 5.817256140358666], [6.961917161647762, 5.792429579161819], [6.973072691351661, 5.796896805842948], [6.981737462314072, 5.794423833892893], [6.982440695281923, 5.795133601334669], [6.983794531992089, 5.796089250618479], [6.985440374074074, 5.797097992278566], [6.984867597661548, 5.810734384584237], [6.998218074804356, 5.809262307709389], [7.005141147645872, 5.822769110406171], [6.999671486250122, 5.833405145830852], [7.001043100758523, 5.847688761327333], [7.018442866245323, 5.845230694740792], [7.012182754730418, 5.880085720179864], [7.021023126416196, 5.892812727025785], [7.042704092020301, 5.905172039757872], [7.04677409265031, 5.922900929234572], [7.045903211663926, 5.923057594732256], [7.045351006343935, 5.923323507174189], [7.043472766854734, 5.923494816332777], [7.025525569649346, 5.909841060816348], [7.003111839140104, 5.905193329408689], [6.99373183825378, 5.895229012908658]]]}}, {"type": "Feature", "properties": {"name": "Ohaji/Egbema", "state": "im"}, "geometry": {"type": "Polygon", "coordinates": [[[6.816560725896807, 5.259442008641827], [6.818212986440244, 5.257966994581182], [6.824282169186802, 5.254179478200399], [6.827092647707559, 5.252425670708192], [6.848985195010812, 5.249797821112622], [6.866418838858351, 5.243133067736949], [6.887593746054563, 5.225611210289173], [6.903954983435767, 5.219525813665427], [6.971787929769164, 5.236238003381175], [6.986503123620309, 5.23425579057232], [7.003581383274252, 5.239958220795302], [7.003047999865373, 5.246238999630179], [7.006918000265557, 5.25723300030279], [7.006343999875753, 5.264618000020732], [6.990582999705737, 5.26004599962323], [6.988046999669336, 5.260088999807522], [6.989344000125527, 5.268822999681731], [6.988691999736034, 5.271369000179277], [6.986197999837884, 5.28845999962931], [6.999690148981244, 5.286357720132742], [7.008054969061618, 5.281896616935398], [7.017200999626482, 5.279872000192711], [7.026573000143912, 5.28869899985898], [7.022876906144347, 5.303827314379078], [7.011667142824422, 5.310922886182311], [7.000117987954809, 5.324011859359871], [6.98491652437815, 5.339329775248984], [6.982314961965983, 5.341690960569451], [6.982120816322663, 5.345402715363093], [6.98541736132222, 5.36825776928066], [6.986734902293961, 5.375546021731566], [6.983554068565468, 5.384130390605094], [6.976391368666782, 5.393971424441759], [6.976343939321396, 5.3925112402016], [6.974945187770231, 5.38831498644754], [6.970505671899275, 5.382963240561139], [6.967100015753147, 5.381442859300591], [6.963025391708527, 5.381321227792455], [6.95060697822953, 5.393666731434564], [6.939677950876785, 5.39855644342515], [6.920247487431652, 5.385474696300264], [6.890500290156297, 5.377909663100525], [6.869743121647787, 5.384755738686465], [6.870166953242347, 5.391956240687989], [6.906442215935556, 5.424802186971419], [6.930190063720488, 5.44269163061432], [6.922829253966938, 5.44918191011709], [6.917961557380011, 5.451589029210368], [6.913646549948396, 5.467670626897984], [6.90487134493668, 5.473496484575151], [6.900601037408023, 5.479275805034433], [6.896427321563692, 5.484159561714478], [6.89470105760779, 5.486452781670607], [6.88562325590857, 5.503223475882749], [6.886557826882267, 5.504601256143133], [6.88987670384688, 5.505946425187403], [6.929053901616328, 5.525356060333991], [6.92936510031916, 5.542488097647663], [6.904772000427499, 5.531090000103461], [6.894829999704768, 5.529642999924533], [6.888824999773988, 5.529284999603078], [6.851823000331251, 5.580604000074572], [6.842740999697412, 5.589512999925034], [6.826098000222601, 5.601776999808749], [6.813020999719413, 5.606145999838077], [6.794146999884163, 5.608770000335312], [6.764244999607115, 5.614114000360871], [6.735641999878453, 5.614138999715124], [6.723444000340407, 5.615957999961779], [6.708780000396757, 5.622197999937782], [6.667483999886713, 5.621975000445957], [6.65843629759712, 5.624850273321499], [6.639080048005837, 5.493445873028691], [6.715590477218825, 5.489103794204766], [6.741359711381619, 5.494053840812171], [6.744967937120634, 5.484471798234949], [6.749948977963015, 5.476490020997744], [6.751194000302917, 5.464835167009426], [6.743738173577924, 5.458882808894543], [6.744081973604239, 5.449101925313641], [6.762536049399216, 5.410212994434175], [6.760583878443299, 5.40139293663475], [6.758138180232891, 5.389788150602726], [6.760469912756321, 5.353443146384166], [6.757574081378777, 5.342773914284749], [6.755795002037758, 5.323452949594014], [6.770724773229745, 5.300767899019377], [6.816560725896807, 5.259442008641827]]]}}, {"type": "Feature", "properties": {"name": "Owerri Municipal", "state": "im"}, "geometry": {"type": "Polygon", "coordinates": [[[7.041858898369526, 5.446937623172801], [7.074483754421806, 5.461721393927235], [7.061926365109684, 5.467522832312909], [7.069247185609186, 5.473616688859124], [7.06897227994682, 5.486359423948329], [7.063973749089314, 5.492868432732052], [7.05829755119106, 5.492013497624839], [7.049010350447361, 5.48975245361288], [7.048342377198992, 5.496938588944772], [7.041443934989672, 5.500428327205611], [7.033775000415972, 5.50562999962483], [7.028453901626335, 5.512567169339434], [7.018155167726832, 5.508499598677588], [7.009473146868288, 5.525469538588368], [7.007966990184514, 5.521110667623248], [7.005986926755327, 5.520073787974979], [6.997335124916106, 5.513662771120039], [6.998285073397483, 5.512587121698346], [7.000388307074786, 5.510494609738487], [7.000413558239188, 5.50963467260209], [6.996799876313275, 5.510671491995822], [6.97465002308013, 5.484328922941472], [6.986675717010769, 5.472739237425913], [6.987537320590945, 5.466053185406224], [6.986848037906668, 5.464950330593354], [6.985804692132888, 5.463570113170249], [6.983939935279864, 5.4610977689469], [6.98714338336049, 5.461112226448165], [6.995814547603345, 5.456201043143665], [6.985884513259748, 5.443966079670872], [6.996720594779674, 5.437815473205546], [7.000967991179891, 5.436799716833491], [7.002435772892682, 5.426559811186394], [7.007441986658421, 5.427396036797688], [7.024342837951679, 5.444705638054813], [7.025932538955544, 5.443878322926309], [7.032004607626561, 5.442958734657907], [7.041858898369526, 5.446937623172801]]]}}, {"type": "Feature", "properties": {"name": "Isiala Mbano", "state": "im"}, "geometry": {"type": "Polygon", "coordinates": [[[7.226070168103831, 5.612685287895772], [7.224701321708665, 5.659217477704487], [7.213770609026426, 5.671337711965862], [7.230372302639694, 5.676552911088038], [7.237120303559209, 5.675023592364937], [7.238496506408694, 5.668858945683837], [7.246374038730949, 5.670605957898658], [7.243583717614513, 5.682263696012797], [7.249648818338358, 5.68387885772313], [7.247835881320896, 5.688054108710219], [7.244151631392697, 5.687724483797922], [7.253321136061629, 5.70632722472169], [7.252336562782205, 5.713946577872321], [7.25743823868379, 5.730489444132616], [7.24733931615657, 5.736035114429058], [7.244416080637677, 5.723215386580875], [7.230137202769754, 5.717956654875763], [7.219193044323561, 5.707343890308323], [7.205875994981227, 5.713385426096579], [7.204229788673842, 5.713113991817295], [7.201740473344216, 5.71217674356194], [7.20115362434035, 5.709487574591947], [7.18743012370129, 5.711009106085442], [7.164619518775794, 5.721894138603659], [7.157946639126124, 5.717774468417019], [7.165533676038365, 5.715369709144795], [7.169230947250469, 5.704520332947084], [7.160962519204929, 5.688592994171415], [7.159800326224115, 5.678266716735664], [7.16594531642329, 5.669849549816945], [7.170324790856455, 5.668694358058247], [7.161175132426479, 5.659772041046892], [7.15905260919061, 5.661530246223947], [7.156639082427773, 5.664388151392131], [7.154681942717559, 5.666245288289474], [7.148362136003811, 5.654597620783647], [7.138464258718614, 5.668107045004149], [7.12107311143501, 5.680108869129072], [7.113188973592287, 5.67177978810679], [7.103917655775263, 5.680701177917058], [7.09552936428878, 5.678586262046394], [7.099919046926516, 5.667651812681072], [7.089025279293253, 5.669989789197473], [7.088888427658844, 5.667333430193707], [7.088155863302518, 5.663099302390947], [7.087495422775589, 5.661482494021925], [7.082282552897539, 5.655351417234158], [7.08273348376332, 5.652921439173156], [7.082048360443537, 5.65119433255245], [7.080947432877792, 5.648437002165963], [7.088976657446835, 5.648845681982664], [7.105798055435969, 5.629720494305388], [7.129393505006306, 5.634179695436671], [7.135192431585494, 5.629713606397843], [7.143009748001532, 5.63037515668816], [7.148536522642473, 5.624308606257216], [7.158834240308011, 5.628867580874214], [7.15977273772171, 5.62858852034401], [7.160799035047489, 5.627535523045992], [7.162094206282632, 5.626989552725718], [7.160010351196775, 5.607344573992918], [7.161251364359032, 5.602690773960092], [7.161906343303144, 5.60048452833837], [7.162940521388009, 5.598450644981313], [7.170291283915674, 5.598780036069854], [7.182717759816796, 5.621498499156473], [7.187297941346969, 5.618786581835309], [7.184656892401733, 5.605921805147261], [7.188094382749625, 5.604273488131014], [7.210866786273243, 5.599906063713945], [7.214284226236089, 5.605136027006097], [7.219664105614015, 5.61047336665257], [7.226070168103831, 5.612685287895772]]]}}, {"type": "Feature", "properties": {"name": "Obowo", "state": "im"}, "geometry": {"type": "Polygon", "coordinates": [[[7.415176421654564, 5.571039861200688], [7.414919853168726, 5.573634623838871], [7.415235043062808, 5.575928688258387], [7.422467231777375, 5.581045150813111], [7.424949241914021, 5.588254840288698], [7.402627834007376, 5.58563756582106], [7.400795342131403, 5.590689745735233], [7.388294476109252, 5.583727531700276], [7.370932509128068, 5.593168973369472], [7.366961246864093, 5.601653577750483], [7.348733656333195, 5.60605568272365], [7.339983606258443, 5.605830371074831], [7.33679111281964, 5.599055915697988], [7.336678757818447, 5.597485404427914], [7.343965326738498, 5.595515777631078], [7.347529896687433, 5.591508333842569], [7.346068495664611, 5.588983709330762], [7.332274089777457, 5.591964169610776], [7.32236105891576, 5.583367987242866], [7.31722699393066, 5.582387561636722], [7.305524463283405, 5.585965515296323], [7.303486927779545, 5.58448830509127], [7.30185801543513, 5.581913888715064], [7.299632337262608, 5.57677257699288], [7.300504774975423, 5.5727018856835], [7.301185045553439, 5.569452464259882], [7.312342197634337, 5.555577783987587], [7.316811365052502, 5.55216693875326], [7.324476321025429, 5.553923936140791], [7.323425689843759, 5.54332479360437], [7.364401690885359, 5.533858402043677], [7.358889766749371, 5.527659135960391], [7.357454168175366, 5.51995226888215], [7.361819277737538, 5.518279200724578], [7.368198543128301, 5.518060673561308], [7.372233979214798, 5.516650631021832], [7.371677042561487, 5.506002122000382], [7.382997443177487, 5.505608439278092], [7.384754678885372, 5.503071254834595], [7.406669139968869, 5.533220768323872], [7.408312320956895, 5.549856663154515], [7.417355060787486, 5.56213665028622], [7.415176421654564, 5.571039861200688]]]}}, {"type": "Feature", "properties": {"name": "Ezinihitte", "state": "im"}, "geometry": {"type": "Polygon", "coordinates": [[[7.385482618927767, 5.503355615968928], [7.371677042561487, 5.506002122000382], [7.372233979214798, 5.516650631021832], [7.368198543128301, 5.518060673561308], [7.361819277737538, 5.518279200724578], [7.357454168175366, 5.51995226888215], [7.358889766749371, 5.527659135960391], [7.364401690885359, 5.533858402043677], [7.345968386731727, 5.536406848697141], [7.3260878323876, 5.544165451074775], [7.315625868838822, 5.540971764235564], [7.319092561972184, 5.538587805382974], [7.31511001591457, 5.53482325139197], [7.31558683736273, 5.53007558641923], [7.320826143711599, 5.525057596930594], [7.328744013325604, 5.525878827246117], [7.326213715890333, 5.524353999737343], [7.322574316951204, 5.520887386643608], [7.32003442105173, 5.521450998964497], [7.31910979927784, 5.521728566620084], [7.309107921693283, 5.510994064424608], [7.302652990942818, 5.510203170939633], [7.296038919760406, 5.499606961991731], [7.284427583965851, 5.490829917866449], [7.284875723336029, 5.488118621976867], [7.277517822889251, 5.485313229122255], [7.275763581024478, 5.475750469808361], [7.261082494861284, 5.458742103665202], [7.26982236640913, 5.454002173761353], [7.278783802130818, 5.456767439765599], [7.27982130410993, 5.455343030556492], [7.283860844702247, 5.450540054579903], [7.285486545567665, 5.448280882956453], [7.288599788049851, 5.431768368815199], [7.286486653736119, 5.427835834056566], [7.285170089428107, 5.427626714701148], [7.28426502431148, 5.426658386775159], [7.296745225711618, 5.420605016808111], [7.291599980354874, 5.402842955837798], [7.299628247145961, 5.402369317090347], [7.31641517861766, 5.394053819428279], [7.322649002049843, 5.395452975674345], [7.321908474196789, 5.404929638392161], [7.331327914851443, 5.424382687411139], [7.343560219028916, 5.439510822066836], [7.358891487152448, 5.450312139393759], [7.364247322256176, 5.46577453586616], [7.376170634667119, 5.479182719806715], [7.385482618927767, 5.503355615968928]]]}}, {"type": "Feature", "properties": {"name": "Njaba", "state": "im"}, "geometry": {"type": "MultiPolygon", "coordinates": [[[[7.029497949770587, 5.65007411542814], [7.034873062741724, 5.674886428665786], [7.03153685044532, 5.689014784304902], [7.018950229569498, 5.690227951758629], [7.011026724803571, 5.685362641972404], [7.010452031036436, 5.685477962038362], [7.002079000145784, 5.685433000432681], [7.001543999755825, 5.680833999689355], [6.990404506762616, 5.67954882441876], [6.979258179821215, 5.676493974017717], [6.980583785013721, 5.667506322159113], [6.98961936084487, 5.663260233373137], [6.987938616973622, 5.657914710795296], [7.003346867064295, 5.66582336325763], [7.003533578911572, 5.663125424998441], [7.010593999813295, 5.655564999924877], [7.010333765690802, 5.649747666921314], [7.020382245244491, 5.652618660822611], [7.029497949770587, 5.65007411542814]]], [[[7.002816234681518, 5.69789211183155], [7.011012199853212, 5.699161164056534], [7.011506631825625, 5.71991617868872], [7.020002257398289, 5.717718061139635], [7.036434948614044, 5.731809823364699], [7.058786282361098, 5.728170570115765], [7.060196366269338, 5.73228165987075], [7.061812010915617, 5.734840267064726], [7.063343309046502, 5.736378414432352], [7.052418179355527, 5.74196229242591], [7.039831536895974, 5.742847008582601], [7.03059213511898, 5.740186613421542], [7.018714879687991, 5.741919967632441], [7.01502596497636, 5.73498824960808], [6.999322619443376, 5.743682612762427], [6.999466484890434, 5.743989000092313], [7.000395873071113, 5.745639940430976], [7.001561021224177, 5.747709677060016], [6.997018803674905, 5.755224975052613], [7.00776834433367, 5.762707103350181], [6.988803553441301, 5.766842690637702], [6.980762823845282, 5.77683417026077], [6.965164883352713, 5.771760472268056], [6.971454249813803, 5.761038325858124], [6.97122587507414, 5.758746198578251], [6.971552084361235, 5.757954860828193], [6.970648843969002, 5.750921228931645], [6.977770815370889, 5.736947597153915], [6.972973611243219, 5.736468230624382], [6.977753215638415, 5.726993953807948], [6.974362322763056, 5.711716492122434], [6.960790312922654, 5.695319480609612], [6.98420280081865, 5.698331490905616], [6.989910062199669, 5.703502186176991], [7.002816234681518, 5.69789211183155]]]]}}, {"type": "Feature", "properties": {"name": "Orlu", "state": "im"}, "geometry": {"type": "Polygon", "coordinates": [[[7.113509361567822, 5.811065712812422], [7.113203801614191, 5.824200876069597], [7.110776782322716, 5.828625783353289], [7.109775244232196, 5.829699165584088], [7.108473239948125, 5.83030657219058], [7.096827651674857, 5.824245787313259], [7.091340583001568, 5.817592738614053], [7.07905133555073, 5.832644999267359], [7.077096874920869, 5.831480031878016], [7.074264589639142, 5.829494583308417], [7.068684138961885, 5.817777903627416], [7.06678021843237, 5.817577492407395], [7.063373200712704, 5.814871919803295], [7.061068455045188, 5.814036866008621], [7.046649174120148, 5.821163784581017], [7.044066772663484, 5.830927347219358], [7.045302433960217, 5.845784920837502], [7.050622345644797, 5.858506765574816], [7.048884934592081, 5.864724021696304], [7.049215573939648, 5.866921123910799], [7.049402025882841, 5.86848731573707], [7.035313759322605, 5.901900164061374], [7.021023126416196, 5.892812727025785], [7.012182754730418, 5.880085720179864], [7.018442866245323, 5.845230694740792], [7.001043100758523, 5.847688761327333], [6.999671486250122, 5.833405145830852], [7.005141147645872, 5.822769110406171], [6.998218074804356, 5.809262307709389], [6.984867597661548, 5.810734384584237], [6.985997835931414, 5.79768200032413], [6.981737462314072, 5.794423833892893], [6.99088607663117, 5.791627291266536], [6.980762823845282, 5.77683417026077], [6.988803553441301, 5.766842690637702], [7.00776834433367, 5.762707103350181], [6.997018803674905, 5.755224975052613], [7.001561021224177, 5.747709677060016], [7.000395873071113, 5.745639940430976], [6.999466484890434, 5.743989000092313], [6.999322619443376, 5.743682612762427], [7.01502596497636, 5.73498824960808], [7.018714879687991, 5.741919967632441], [7.03059213511898, 5.740186613421542], [7.039831536895974, 5.742847008582601], [7.052418179355527, 5.74196229242591], [7.053063248670014, 5.740574063842018], [7.053659808553391, 5.739729258698389], [7.055127280000022, 5.738499080568147], [7.076126119724677, 5.733405290821565], [7.083446064284487, 5.746175582936871], [7.091763668158819, 5.745681602424042], [7.092179127964414, 5.752711272807062], [7.089163759599899, 5.757022795365742], [7.08675383102451, 5.756675193005776], [7.083716255700665, 5.756481715558778], [7.081715852304796, 5.756165674906015], [7.07910421119044, 5.764894561235053], [7.081829721764279, 5.771818540593245], [7.071876385986457, 5.774833842407929], [7.067833433366332, 5.780270377276111], [7.069624515059388, 5.785766299774991], [7.092614157917126, 5.793004235157355], [7.113509361567822, 5.811065712812422]]]}}, {"type": "Feature", "properties": {"name": "Ikeduru", "state": "im"}, "geometry": {"type": "Polygon", "coordinates": [[[7.210866786273243, 5.599906063713945], [7.185379319599974, 5.605008024700624], [7.187297941346969, 5.618786581835309], [7.182717759816796, 5.621498499156473], [7.170291283915674, 5.598780036069854], [7.162940521388009, 5.598450644981313], [7.161906343303144, 5.60048452833837], [7.161251364359032, 5.602690773960092], [7.160010351196775, 5.607344573992918], [7.160886319648, 5.620423514333766], [7.148897532994795, 5.618884639414603], [7.142872999789176, 5.618760999720394], [7.133834000238949, 5.616148999776556], [7.125437999763903, 5.610530999705929], [7.117444999886857, 5.601219000156789], [7.113825000223642, 5.591373000263786], [7.111164063670628, 5.57264304843801], [7.105087889594472, 5.579269979026378], [7.096645736811354, 5.583981034397254], [7.093631057327457, 5.588433505901605], [7.091684159996021, 5.592040146135901], [7.09230863573498, 5.59658678475239], [7.091329298308494, 5.60576511716647], [7.089585940039171, 5.605559051908756], [7.087769160218613, 5.604952889963954], [7.075877834894186, 5.592762793668044], [7.083481666645639, 5.578794067692115], [7.075517654616135, 5.570285098878287], [7.071785511292376, 5.555616727330175], [7.07266742336293, 5.550449896445627], [7.073780484581732, 5.54709918797721], [7.073788271811338, 5.545894019993057], [7.08658974072398, 5.53825614260694], [7.079935263901348, 5.534429051559528], [7.07848819537395, 5.523976499415937], [7.08808963362975, 5.517978555565946], [7.106956377734718, 5.516227363302221], [7.12159900079331, 5.505816882343311], [7.137935999646743, 5.49902699999609], [7.141819999793199, 5.496657000420271], [7.144929451632947, 5.490038946140487], [7.161987874041188, 5.496826185380201], [7.16664923737244, 5.488765865852088], [7.170731384246039, 5.494199110100908], [7.172003656943275, 5.495959479946066], [7.173161593432837, 5.49439796819172], [7.176085766944652, 5.493283605653914], [7.181268390823618, 5.494144116557777], [7.186481702268793, 5.495242347956037], [7.187180013247087, 5.492927422862351], [7.187729777807021, 5.491983240833918], [7.188298142145584, 5.491323662756884], [7.199151846780353, 5.495455345188077], [7.204902942916533, 5.507102176324452], [7.205972741349001, 5.508027504066092], [7.208335185720273, 5.508910715657066], [7.209576656637466, 5.509649017688048], [7.210201176443206, 5.511822174553743], [7.203283218945444, 5.514664095171895], [7.206956468366343, 5.521403620880449], [7.210284237827352, 5.522847569659689], [7.211115456912864, 5.522827018352245], [7.212360928913768, 5.523360792066967], [7.207890571692587, 5.528565087808602], [7.207642956857001, 5.538055275430679], [7.216627915246136, 5.551611423028817], [7.224506763276565, 5.556566740562687], [7.235923933642653, 5.56120041376812], [7.241596009048635, 5.568121006279455], [7.254351358028771, 5.570615954063101], [7.242983180929116, 5.585629134676878], [7.222803066908057, 5.584303262385674], [7.212830726656762, 5.587687250266413], [7.210866786273243, 5.599906063713945]]]}}, {"type": "Feature", "properties": {"name": "Oguta", "state": "im"}, "geometry": {"type": "Polygon", "coordinates": [[[6.969173998081601, 5.56058101020551], [6.969351965820636, 5.561171809931125], [6.968245741247983, 5.561877561000699], [6.956775000066273, 5.565692000385582], [6.957734000223979, 5.567979999777208], [6.959222999641781, 5.574407000282861], [6.963659516273708, 5.581398551102325], [6.961763999908726, 5.588880000411734], [6.960686841424661, 5.592475419804828], [6.964077293632272, 5.601240940916739], [6.955163000372238, 5.626615000382003], [6.938193000206866, 5.629139999911104], [6.92766600038567, 5.634389000052352], [6.918813000419675, 5.643293999718367], [6.911599525697625, 5.650160849643555], [6.904272999899092, 5.657135000380038], [6.896135999676687, 5.667412000363584], [6.877869178919525, 5.688811813614336], [6.871872000392557, 5.693397999917806], [6.866763000412163, 5.705465999756143], [6.859898340336201, 5.713752905272429], [6.85954211527644, 5.728235028124118], [6.840402649962357, 5.719998528709198], [6.837753361428554, 5.724694086962586], [6.828398237588658, 5.741887218820125], [6.842047986625346, 5.75717640676578], [6.846529961288752, 5.765839100294272], [6.843405723695241, 5.768156528201246], [6.81068086572941, 5.787612914604381], [6.804370724029752, 5.786072780634356], [6.800801804060086, 5.784558646064738], [6.793964945625817, 5.774196454203036], [6.761678866886257, 5.75784617685963], [6.751369688260581, 5.749550841997802], [6.730119594144014, 5.750690390049499], [6.714305400873627, 5.761296272105312], [6.694906234735015, 5.746217728765203], [6.69259293741419, 5.725047927020285], [6.691257999956804, 5.699708999570703], [6.679419999933089, 5.695760000024052], [6.668868064609569, 5.689925194092496], [6.665866412704816, 5.6712004376501], [6.65843629759712, 5.624850273321499], [6.667483999886713, 5.621975000445957], [6.708780000396757, 5.622197999937782], [6.723444000340407, 5.615957999961779], [6.735641999878453, 5.614138999715124], [6.764244999607115, 5.614114000360871], [6.794146999884163, 5.608770000335312], [6.813020999719413, 5.606145999838077], [6.826098000222601, 5.601776999808749], [6.842740999697412, 5.589512999925034], [6.851823000331251, 5.580604000074572], [6.888824999773988, 5.529284999603078], [6.894829999704768, 5.529642999924533], [6.904772000427499, 5.531090000103461], [6.92936510031916, 5.542488097647663], [6.934045483412376, 5.554303473426614], [6.937996797814037, 5.556206333655439], [6.969173998081601, 5.56058101020551]]]}}, {"type": "Feature", "properties": {"name": "Oru West", "state": "im"}, "geometry": {"type": "Polygon", "coordinates": [[[6.933353423621668, 5.830395698602672], [6.901359081356588, 5.816838741614674], [6.889758110248636, 5.806298733100107], [6.883652686622213, 5.754102229934006], [6.87953042998538, 5.745519638120868], [6.872349261609202, 5.744421004725609], [6.865512370799308, 5.747912406732212], [6.846529961288752, 5.765839100294272], [6.828398237588658, 5.741887218820125], [6.837753361428554, 5.724694086962586], [6.840402649962357, 5.719998528709198], [6.85954211527644, 5.728235028124118], [6.859898340336201, 5.713752905272429], [6.866763000412163, 5.705465999756143], [6.871872000392557, 5.693397999917806], [6.911599525697625, 5.650160849643555], [6.929590143070698, 5.663387810299241], [6.923368515344748, 5.676734657778297], [6.918395472173358, 5.689997798159879], [6.924377278588565, 5.691413001908586], [6.935833594644748, 5.694449457576468], [6.9432539296252, 5.696253345615446], [6.918196406339121, 5.744525225358927], [6.922198571107231, 5.745939712347877], [6.92763831385713, 5.742493268349676], [6.935635370575937, 5.75419811924786], [6.940192158041725, 5.755502067866189], [6.945235868140855, 5.756681743667571], [6.956806770416165, 5.763303420416548], [6.963402547589567, 5.771131177961536], [6.958794353076996, 5.770101450621496], [6.950403287181985, 5.775110467574052], [6.946135539123873, 5.766571560329282], [6.933970470061183, 5.77747715494678], [6.937699074552711, 5.778644520828038], [6.942885514255124, 5.780552239194549], [6.940229227197108, 5.787760806316214], [6.942663779210079, 5.790460175396845], [6.928281923571944, 5.794927010872925], [6.922740921656271, 5.789710423197505], [6.917987415586822, 5.792409259879491], [6.926689352831431, 5.803150897296121], [6.933353423621668, 5.830395698602672]]]}}, {"type": "Feature", "properties": {"name": "Oru East", "state": "im"}, "geometry": {"type": "Polygon", "coordinates": [[[7.010333765690802, 5.649747666921314], [7.010593999813295, 5.655564999924877], [7.003533578911572, 5.663125424998441], [7.003346867064295, 5.66582336325763], [6.987938616973622, 5.657914710795296], [6.98961936084487, 5.663260233373137], [6.983553519979012, 5.663993188934569], [6.978713483840238, 5.673673261212059], [6.978574474732284, 5.674621047723235], [6.979269519372849, 5.675796305155416], [6.979258179821215, 5.676493974017717], [6.990404506762616, 5.67954882441876], [7.001543999755825, 5.680833999689355], [7.002816234681518, 5.69789211183155], [6.989910062199669, 5.703502186176991], [6.98420280081865, 5.698331490905616], [6.960790312922654, 5.695319480609612], [6.974362322763056, 5.711716492122434], [6.977753215638415, 5.726993953807948], [6.972973611243219, 5.736468230624382], [6.977770815370889, 5.736947597153915], [6.970648843969002, 5.750921228931645], [6.971552084361235, 5.757954860828193], [6.97122587507414, 5.758746198578251], [6.971454249813803, 5.761038325858124], [6.965164883352713, 5.771760472268056], [6.98237720584342, 5.777766494727985], [6.99088607663117, 5.791627291266536], [6.974307090899572, 5.796926658838288], [6.961917161647762, 5.792429579161819], [6.959350385012328, 5.815732203178698], [6.95009382866732, 5.816767782407283], [6.941944683100701, 5.811408180942863], [6.937877441590729, 5.800340789296058], [6.92757607987221, 5.806637234320931], [6.917987415586822, 5.792409259879491], [6.922740921656271, 5.789710423197505], [6.928281923571944, 5.794927010872925], [6.942663779210079, 5.790460175396845], [6.940229227197108, 5.787760806316214], [6.942885514255124, 5.780552239194549], [6.937699074552711, 5.778644520828038], [6.933970470061183, 5.77747715494678], [6.946135539123873, 5.766571560329282], [6.950403287181985, 5.775110467574052], [6.958794353076996, 5.770101450621496], [6.963402547589567, 5.771131177961536], [6.956806770416165, 5.763303420416548], [6.945235868140855, 5.756681743667571], [6.940192158041725, 5.755502067866189], [6.935635370575937, 5.75419811924786], [6.92763831385713, 5.742493268349676], [6.922198571107231, 5.745939712347877], [6.918196406339121, 5.744525225358927], [6.9432539296252, 5.696253345615446], [6.935833594644748, 5.694449457576468], [6.924377278588565, 5.691413001908586], [6.918395472173358, 5.689997798159879], [6.923368515344748, 5.676734657778297], [6.929590143070698, 5.663387810299241], [6.911599525697625, 5.650160849643555], [6.918813000419675, 5.643293999718367], [6.92766600038567, 5.634389000052352], [6.938193000206866, 5.629139999911104], [6.955163000372238, 5.626615000382003], [7.010333765690802, 5.649747666921314]]]}}, {"type": "Feature", "properties": {"name": "Ihitte/Uboma", "state": "im"}, "geometry": {"type": "Polygon", "coordinates": [[[7.305524463283405, 5.585965515296323], [7.31722699393066, 5.582387561636722], [7.32236105891576, 5.583367987242866], [7.332274089777457, 5.591964169610776], [7.346068495664611, 5.588983709330762], [7.347529896687433, 5.591508333842569], [7.343965326738498, 5.595515777631078], [7.336678757818447, 5.597485404427914], [7.33679111281964, 5.599055915697988], [7.339983606258443, 5.605830371074831], [7.348733656333195, 5.60605568272365], [7.366961246864093, 5.601653577750483], [7.370932509128068, 5.593168973369472], [7.388294476109252, 5.583727531700276], [7.400795342131403, 5.590689745735233], [7.402627834007376, 5.58563756582106], [7.424949241914021, 5.588254840288698], [7.425965308552179, 5.585613250850884], [7.432285786160151, 5.609393119896595], [7.417584419385491, 5.648530005555358], [7.416314125196777, 5.66145467799106], [7.408195972066494, 5.677010059866404], [7.389743327992221, 5.691488742811259], [7.381607532861381, 5.705608845371955], [7.372030761210738, 5.701551547665815], [7.364037999653988, 5.70050000007501], [7.366161531029888, 5.697305278116119], [7.36651599971367, 5.696771999927876], [7.36851700025943, 5.692128999853537], [7.366321999760544, 5.684791999651111], [7.359313000294776, 5.679382000179203], [7.35835526188589, 5.6741365055953], [7.357277999979772, 5.667665000339525], [7.357344000325384, 5.657525000378541], [7.348023423042605, 5.643361503730489], [7.3524341749972, 5.636367659639802], [7.347389835372667, 5.631542638581948], [7.33708183485885, 5.629105760022867], [7.336472616118385, 5.625499179143844], [7.340510536132399, 5.622999921808969], [7.336138051230137, 5.615677593146472], [7.328966994830978, 5.61610262893322], [7.322497541828113, 5.611319274365087], [7.315974114214043, 5.617672510677892], [7.312927854137229, 5.613886289320817], [7.301053999942212, 5.603812000123753], [7.308933222989879, 5.591497351321777], [7.307984089294337, 5.590045734023477], [7.306190825845988, 5.588387981320352], [7.305524463283405, 5.585965515296323]]]}}, {"type": "Feature", "properties": {"name": "Isu", "state": "im"}, "geometry": {"type": "Polygon", "coordinates": [[[7.098791728755316, 5.729500491154795], [7.083239806571839, 5.734768827619348], [7.063343309046502, 5.736378414432352], [7.061812010915617, 5.734840267064726], [7.060196366269338, 5.73228165987075], [7.058786282361098, 5.728170570115765], [7.036434948614044, 5.731809823364699], [7.020002257398289, 5.717718061139635], [7.011506631825625, 5.71991617868872], [7.011012199853212, 5.699161164056534], [7.002816234681518, 5.69789211183155], [7.002554603911904, 5.693620277254013], [7.002369977592423, 5.690350460105719], [7.002079000145784, 5.685433000432681], [7.010452031036436, 5.685477962038362], [7.011026724803571, 5.685362641972404], [7.018950229569498, 5.690227951758629], [7.03153685044532, 5.689014784304902], [7.034873062741724, 5.674886428665786], [7.029497949770587, 5.65007411542814], [7.034663220331424, 5.651730725092932], [7.041381938425786, 5.648282572382868], [7.038244562636521, 5.642836563156891], [7.043187409271582, 5.643532113216509], [7.043394594185202, 5.638706704550827], [7.055789723317105, 5.64246201980643], [7.056684332016346, 5.635348258315503], [7.059841474004884, 5.636056743324104], [7.061790146598014, 5.636864548560141], [7.062744166310267, 5.637728242164712], [7.074327929790172, 5.626658998813809], [7.078431460743388, 5.633017409825641], [7.079104447712155, 5.648442713760289], [7.087495422775589, 5.661482494021925], [7.088155863302518, 5.663099302390947], [7.088888427658844, 5.667333430193707], [7.089025279293253, 5.669989789197473], [7.078318677664868, 5.677629690058211], [7.076688046716015, 5.677343046444491], [7.075129545891855, 5.677289630312259], [7.072677973309851, 5.67608663688884], [7.068025483589224, 5.693613249951568], [7.076802936906063, 5.69501922575671], [7.088705958813023, 5.706201284561701], [7.078188391980746, 5.716623739993679], [7.083480263703279, 5.728906229039296], [7.100244527762811, 5.721091430724982], [7.098791728755316, 5.729500491154795]]]}}]}