{"type": "FeatureCollection", "features": [{"type": "Feature", "properties": {"name": "Idah", "state": "ko"}, "geometry": {"type": "Polygon", "coordinates": [[[6.679260254257372, 6.972002506210742], [6.683959319866744, 6.974801798064561], [6.687060479057891, 6.979919747198608], [6.689557619388665, 6.984351542389845], [6.695085981333023, 6.985574091571095], [6.699494179213048, 6.988302242554482], [6.703813608611199, 6.99594302385151], [6.707666581247793, 6.99901849121045], [6.712962954077113, 7.002660919066216], [6.717169675040509, 7.008938011580028], [6.718974072995138, 7.009596212795032], [6.719320889347614, 7.014449605664822], [6.722636301224384, 7.021515267815403], [6.732905028344419, 7.025812598172934], [6.742154698580521, 7.028768376559356], [6.77066703495575, 7.033891430245376], [6.794742229670192, 7.024367697011655], [6.797337257608376, 7.038322703829749], [6.800261693722234, 7.052344159755194], [6.796937183404339, 7.048736121974514], [6.795121331684186, 7.04448953586342], [6.792926014623902, 7.042533552681334], [6.789304517589471, 7.040786732022127], [6.785373876803021, 7.039154045223029], [6.78377283085149, 7.042785618261746], [6.78289584976369, 7.047160534930811], [6.78361902339924, 7.079922388307637], [6.786073984626739, 7.083997303732644], [6.787299744387724, 7.085701233025532], [6.788034044435676, 7.089056703404196], [6.785814763140877, 7.108023437731504], [6.793681563853113, 7.117064134302382], [6.791851556803977, 7.120235893871438], [6.789048890693778, 7.122424331118054], [6.783805805393627, 7.122739805197909], [6.775972839874726, 7.12314742471392], [6.769554813703735, 7.123046399371901], [6.753551555060255, 7.139595539302718], [6.748906181675011, 7.130433045748532], [6.742740831724063, 7.137537375149805], [6.723533561125009, 7.131172534884627], [6.723037135355582, 7.1281308163841], [6.72010326355479, 7.12373352188456], [6.715768813679858, 7.122821331439354], [6.715768814579178, 7.120723248179388], [6.714948703919617, 7.117647627036433], [6.711490154147327, 7.104677200692322], [6.710595181222686, 7.103155778916118], [6.690095424764081, 7.068306922826253], [6.683835505704053, 7.051613808630407], [6.677258967727255, 7.0340757373055], [6.679260254257372, 6.972002506210742]]]}}, {"type": "Feature", "properties": {"name": "Ibaji", "state": "ko"}, "geometry": {"type": "Polygon", "coordinates": [[[6.679260254257372, 6.972002506210742], [6.679398536713165, 6.96882247917415], [6.672980309094044, 6.93566131601699], [6.661895925656495, 6.920493103973627], [6.652655602074447, 6.907848358115302], [6.646236896915298, 6.885384561448404], [6.610790253367554, 6.822104931197657], [6.623661041124194, 6.79599618857327], [6.631689072292886, 6.769058228754318], [6.628021717028673, 6.74888753872898], [6.626187802425193, 6.731467723756509], [6.621603489409551, 6.722299098624546], [6.617936134145339, 6.704879283652076], [6.628021717028673, 6.67462348918275], [6.634967302598966, 6.663304901599986], [6.651162008020322, 6.636912787994845], [6.652776241630306, 6.634282111830032], [6.659196425274843, 6.607753262603012], [6.661944865862893, 6.572853565139951], [6.661695818407338, 6.557928405671419], [6.672033235745289, 6.5675242519427], [6.715736329268225, 6.560348269956762], [6.764108181247593, 6.56360292363604], [6.793305873867041, 6.572318553958155], [6.808122635351367, 6.580162525380274], [6.808571363777446, 6.589365769914423], [6.808993815812016, 6.598030090316456], [6.808993815812016, 6.615897178611931], [6.79897069893866, 6.679522037911795], [6.800278187288541, 6.693467139596862], [6.806379317551489, 6.70305442791954], [6.819452763034633, 6.712641716242274], [6.833833694169698, 6.722229003665632], [6.842113495041815, 6.730508803638429], [6.85300826991579, 6.744453907122193], [6.859981059977997, 6.753170013185581], [6.860965587392002, 6.753429071894175], [6.868260859950794, 6.755348681996111], [6.87828397772347, 6.760578156057079], [6.896804810193885, 6.792390822678385], [6.912057400228889, 6.800670623550502], [6.923388003653486, 6.801978111001063], [6.92543492718022, 6.792541439335992], [6.928535909204868, 6.787141381869333], [6.929928002175586, 6.786487314837757], [6.952399185873787, 6.808094117849294], [6.952182292778616, 6.827945710426263], [6.960817336650791, 6.840898991195559], [6.961418152126043, 6.848509789994864], [6.96306419385752, 6.859703064245082], [6.962735175987632, 6.87122535726445], [6.960759639745618, 6.890978335581792], [6.962076663607206, 6.897562504306165], [6.965414842720861, 6.902092550430893], [6.965937688773352, 6.909477652671569], [6.964425995863053, 6.961855952889948], [6.953757592938587, 6.953927340874145], [6.942112637788057, 6.965403953729549], [6.923207893729341, 6.975230964437515], [6.904735108438558, 6.976968780185132], [6.900608984716939, 6.981023861062397], [6.894587517300124, 6.98776769632218], [6.892612456799498, 6.994351864147234], [6.89524602878123, 6.998302459990612], [6.901830195707021, 7.001265525583563], [6.905780792449661, 7.006203650777934], [6.906439303930767, 7.0124588007331], [6.901171684225915, 7.016080378706533], [6.883394241251267, 7.015092372714889], [6.872529983971617, 7.022006035050538], [6.869237899609402, 7.02167701718065], [6.867262840008095, 7.016738415345628], [6.863970279904549, 7.011471272281426], [6.85310649926555, 7.013446330983413], [6.846851349310384, 7.013446330983413], [6.835658073261527, 7.017067908956903], [6.834548714551602, 7.040853933862024], [6.81969030006735, 7.059150634594175], [6.808808559967133, 7.060700540597509], [6.800261693722234, 7.052344159755194], [6.797337257608376, 7.038322703829749], [6.794742229670192, 7.024367697011655], [6.77066703495575, 7.033891430245376], [6.742154698580521, 7.028768376559356], [6.732905028344419, 7.025812598172934], [6.722636301224384, 7.021515267815403], [6.719320889347614, 7.014449605664822], [6.718974072995138, 7.009596212795032], [6.717169675040509, 7.008938011580028], [6.712962954077113, 7.002660919066216], [6.707666581247793, 6.99901849121045], [6.703813608611199, 6.99594302385151], [6.699494179213048, 6.988302242554482], [6.695085981333023, 6.985574091571095], [6.689557619388665, 6.984351542389845], [6.687060479057891, 6.979919747198608], [6.683959319866744, 6.974801798064561], [6.679260254257372, 6.972002506210742]]]}}, {"type": "Feature", "properties": {"name": "Mopa-Muro", "state": "ko"}, "geometry": {"type": "Polygon", "coordinates": [[[5.834894656962888, 7.92397785169652], [5.843737124968413, 7.927767277338035], [5.851870060255123, 7.933460711642567], [5.860002994642514, 7.939153672004409], [5.890908240822682, 7.981445311951632], [5.907987594951578, 7.999338149635946], [5.912054062145273, 8.011537552116408], [5.913306207115795, 8.014667914093025], [5.920186995633401, 8.03186988898426], [5.943772792780237, 8.070095062637051], [5.948652744428671, 8.08473491758241], [5.9575991632708, 8.096120833809493], [5.968841616047769, 8.102734088407487], [5.971425055322072, 8.104253769096204], [5.977118492324621, 8.106693268279741], [5.990944386174533, 8.13515949191708], [6.024289608178947, 8.153864860774775], [6.071461200673923, 8.162811279616903], [6.068207741294259, 8.167691231265337], [6.058448314638042, 8.181517600856637], [6.055195331899085, 8.19290351888236], [6.055195331899085, 8.200364189355923], [6.055195331899085, 8.210796355667355], [6.063328266286533, 8.220555304783545], [6.07308769204343, 8.227875709796194], [6.066581249025489, 8.264473915438884], [6.077154160136445, 8.292126656420123], [6.083660603154385, 8.301072121081575], [6.085287093624515, 8.307579040740166], [6.089353560818211, 8.324658394869061], [6.087030411424394, 8.354029654844737], [6.062514781831737, 8.354750633235199], [6.027543067558554, 8.344990729938274], [6.008837222959528, 8.334418297266666], [5.991129838071629, 8.324882997852114], [5.977357413413927, 8.319031512194556], [5.962478638278583, 8.313272475944075], [5.950487416261296, 8.293445960063082], [5.899457535237104, 8.257533309414725], [5.888184522597669, 8.241942600370749], [5.878712049821274, 8.228761553702782], [5.872461287658325, 8.219969233693234], [5.838341016424806, 8.191960926855359], [5.826222039415654, 8.176192847222183], [5.79633289674581, 8.094148546818019], [5.796081011929232, 8.076156745037792], [5.793778323910544, 8.066776756742001], [5.789639856094539, 8.050119627119159], [5.772496802085811, 8.025508136990993], [5.759814451076124, 8.00312453377029], [5.75996685019004, 8.002591133274223], [5.764033318283055, 7.994458198886832], [5.769726752587587, 7.975752354287749], [5.805511951315566, 7.950540065771463], [5.815271377971783, 7.946473598577768], [5.823535205085705, 7.942616886560131], [5.827470778653549, 7.940780161575219], [5.829910755377114, 7.936713696180163], [5.834894656962888, 7.92397785169652]]]}}, {"type": "Feature", "properties": {"name": "Yagba East", "state": "ko"}, "geometry": {"type": "Polygon", "coordinates": [[[5.688176632345744, 8.452851294551635], [5.690022945002966, 8.441773415011141], [5.688396455432098, 8.427134514246461], [5.688396455432098, 8.415747642939436], [5.69327640438263, 8.3978557594358], [5.695716381106138, 8.38565540277466], [5.697342873374964, 8.326284408698541], [5.698969364744414, 8.31733894313777], [5.70140933966934, 8.30513858827527], [5.70140933966934, 8.292939185794864], [5.69408941309598, 8.278300285030184], [5.686769962264009, 8.270980835097532], [5.685179328663139, 8.255072633894997], [5.685143470894502, 8.254714012142017], [5.681890010615518, 8.244141578571032], [5.644478321417466, 8.18802356633455], [5.637158393944787, 8.167691231265337], [5.633091926751092, 8.12133312232578], [5.636345387030019, 8.10750675183516], [5.636345387030019, 8.098560332993031], [5.637158393944787, 8.09124088306038], [5.643636226830438, 8.073967934572579], [5.6489491462861, 8.074360846575871], [5.656256676604414, 8.07470893906634], [5.659736156298607, 8.06983757144684], [5.653820514804977, 8.064270020644983], [5.64581728064303, 8.060790063410764], [5.64303350389315, 8.059050559635693], [5.639902114890731, 8.053831100424986], [5.64303350389315, 8.048263549623186], [5.647209166769699, 8.040956496844899], [5.6489491462861, 8.032605171091802], [5.650689124903238, 8.023557663055726], [5.656328200586017, 8.019577026258787], [5.662519932149223, 8.015206337302686], [5.667391299768724, 8.008595466807378], [5.667400178775267, 8.008515577332105], [5.668087482051703, 8.002331734621919], [5.647557259260168, 7.986158371911358], [5.647557259260168, 7.974146843202277], [5.647209166769699, 7.966143608141067], [5.645469665692588, 7.963011741598621], [5.638304508846034, 7.960100819597187], [5.634334564088931, 7.958487988030299], [5.627027034669936, 7.957096100104991], [5.614152431089849, 7.962316035956349], [5.609628676622151, 7.966143608141067], [5.60162544335958, 7.963707447240949], [5.59884166840834, 7.958487988030299], [5.59884166840834, 7.951876639994964], [5.60197353405141, 7.942829608599595], [5.604061604259698, 7.926475047785289], [5.608584881187369, 7.910816669253904], [5.610941377442657, 7.889607909777283], [5.612412453372087, 7.87636804564886], [5.614152431089849, 7.865581037434993], [5.621937975357298, 7.846116970821583], [5.623199463384594, 7.842963219277181], [5.630506991904213, 7.834959984215971], [5.642685889841971, 7.828696252030454], [5.728981495099958, 7.828348637080012], [5.737289428564338, 7.821079254204278], [5.738821030666088, 7.825291634601285], [5.751020907988561, 7.829358100895661], [5.75996685019004, 7.834238053443471], [5.770539761300995, 7.843997478301048], [5.779486179243804, 7.854570389412004], [5.789245605000701, 7.861890315985363], [5.801445484121871, 7.878969192574232], [5.811204909878711, 7.888729094971779], [5.820151328720897, 7.896048546703128], [5.826657771738837, 7.904994966444576], [5.828284264007607, 7.916381359312311], [5.834894656962888, 7.92397785169652], [5.829910755377114, 7.936713696180163], [5.827470778653549, 7.940780161575219], [5.823535205085705, 7.942616886560131], [5.815271377971783, 7.946473598577768], [5.805511951315566, 7.950540065771463], [5.769726752587587, 7.975752354287749], [5.764033318283055, 7.994458198886832], [5.75996685019004, 8.002591133274223], [5.759814451076124, 8.00312453377029], [5.772496802085811, 8.025508136990993], [5.789639856094539, 8.050119627119159], [5.793778323910544, 8.066776756742001], [5.796081011929232, 8.076156745037792], [5.79633289674581, 8.094148546818019], [5.826222039415654, 8.176192847222183], [5.838341016424806, 8.191960926855359], [5.872461287658325, 8.219969233693234], [5.878712049821274, 8.228761553702782], [5.888184522597669, 8.241942600370749], [5.899457535237104, 8.257533309414725], [5.950487416261296, 8.293445960063082], [5.962478638278583, 8.313272475944075], [5.977357413413927, 8.319031512194556], [5.991129838071629, 8.324882997852114], [6.008837222959528, 8.334418297266666], [6.027543067558554, 8.344990729938274], [6.062514781831737, 8.354750633235199], [6.087030411424394, 8.354029654844737], [6.079594135061313, 8.363697052077327], [6.077967643691863, 8.369389533999822], [6.078780650606575, 8.377522469286589], [6.082034110885559, 8.390535355322413], [6.082657814106881, 8.401763916271761], [6.081615495358847, 8.400895387012554], [6.077967643691863, 8.3978557594358], [6.060074806007549, 8.393788338061427], [6.040555953594435, 8.392975806888046], [6.020223140985195, 8.3978557594358], [6.013716697967311, 8.400295257720018], [5.990944386174533, 8.401922225730175], [5.978744984593391, 8.405175209368451], [5.956785678816061, 8.408428192107408], [5.912054062145273, 8.423880577326827], [5.849430084430878, 8.422254561698708], [5.829097747563026, 8.426321030691042], [5.782739640422108, 8.427947043621202], [5.704662323307616, 8.445839882204837], [5.688176632345744, 8.452851294551635]]]}}, {"type": "Feature", "properties": {"name": "Kabba/Bunu", "state": "ko"}, "geometry": {"type": "Polygon", "coordinates": [[[6.082657814106881, 8.401763916271761], [6.082034110885559, 8.390535355322413], [6.078780650606575, 8.377522469286589], [6.077967643691863, 8.369389533999822], [6.079594135061313, 8.363697052077327], [6.087030411424394, 8.354029654844737], [6.089353560818211, 8.324658394869061], [6.085287093624515, 8.307579040740166], [6.083660603154385, 8.301072121081575], [6.077154160136445, 8.292126656420123], [6.066581249025489, 8.264473915438884], [6.07308769204343, 8.227875709796194], [6.063328266286533, 8.220555304783545], [6.055195331899085, 8.210796355667355], [6.055195331899085, 8.200364189355923], [6.055195331899085, 8.19290351888236], [6.058448314638042, 8.181517600856637], [6.068207741294259, 8.167691231265337], [6.071461200673923, 8.162811279616903], [6.027144908910486, 8.15453720113095], [6.066581249025489, 8.056268692146489], [6.075527667867618, 8.041629791381808], [6.077154160136445, 8.023736953697494], [6.077670260374248, 8.021328621418775], [6.079594135061313, 8.012351036571147], [6.076341151423037, 8.002591132374903], [6.069834709304416, 7.987951755868892], [6.054381847444347, 7.93020725316228], [6.056008338813854, 7.918007851581137], [6.069535950923466, 7.890862392985071], [6.068613141283492, 7.874347036086874], [6.067137373590981, 7.863108977397417], [6.037037328210204, 7.87132722866869], [6.021849632354701, 7.840744494662772], [6.041368961408466, 7.802519321009925], [6.046248913056957, 7.800079346084999], [6.047865760996103, 7.797885011084418], [6.05365792377421, 7.790023919268492], [6.048257612698706, 7.757298946189451], [6.053830937148064, 7.746957475607076], [6.085706033806446, 7.738638568615102], [6.098299979660396, 7.704923153280959], [6.107246399401845, 7.695163249984034], [6.117819308714161, 7.686217307782556], [6.122308219848492, 7.682329482819398], [6.12753200479824, 7.683495044660617], [6.134211666235444, 7.688613215027885], [6.142811013317669, 7.692084967747121], [6.159705638604407, 7.70555734619461], [6.172575473979009, 7.71474981325332], [6.186364173667755, 7.718426704029241], [6.203829765031685, 7.720264911996139], [6.234164715129566, 7.718426704029241], [6.244276524042391, 7.712911128645715], [6.258984565585308, 7.706476212307393], [6.268177031744642, 7.706476212307393], [6.270015717251624, 7.716588020320955], [6.270575248449006, 7.720505360134325], [6.271853924319203, 7.72945737815553], [6.269096375397453, 7.745084763351201], [6.268177031744642, 7.753357886757101], [6.269096375397453, 7.775419711650443], [6.268177031744642, 7.782773971641518], [6.271853924319203, 7.791966438700229], [6.277369498803353, 7.801158904859619], [6.31322002428476, 7.830574988844717], [6.315334797163189, 7.833265781090972], [6.323331833197585, 7.843444347578611], [6.323331833197585, 7.855394362659752], [6.325170516905871, 7.875617981384778], [6.324251175051756, 7.887567998264558], [6.327008723973506, 7.894002913703559], [6.329766750435226, 7.90319538076227], [6.327008723973506, 7.916064738596845], [6.319654942421721, 7.928934097330796], [6.308623790755405, 7.939965248097792], [6.3012700083043, 7.94180345516537], [6.293915749212488, 7.943642138873656], [6.292996883099704, 7.953753948685858], [6.287481307716234, 7.961107732036226], [6.280127047725102, 7.964784621912827], [6.270015717251624, 7.969380856341502], [6.259903907439423, 7.980412006209178], [6.248872756672426, 7.996958733258964], [6.243357182188277, 8.01074695630706], [6.242438316075493, 8.020858765219884], [6.241518974221322, 8.033728599695166], [6.237842083445457, 8.038324355684495], [6.230487822555006, 8.04567813903492], [6.227730273633256, 8.052113532913268], [6.22037601544082, 8.068659783322403], [6.221295357294935, 8.076013565773508], [6.226810931779141, 8.080610275044194], [6.227730273633256, 8.087964058394618], [6.229568480700891, 8.095317840845723], [6.238760947759602, 8.099914551015786], [6.251630783134203, 8.1008338928699], [6.268177031744642, 8.099914551015786], [6.286561965862063, 8.095317840845723], [6.294835091066659, 8.087964058394618], [6.311381817217125, 8.075094223020017], [6.329766750435226, 8.061306000871298], [6.338959216594617, 8.042001724000386], [6.349070548866791, 8.033728599695166], [6.360101699633788, 8.027293204917498], [6.365617275017257, 8.019020080612279], [6.377567290997717, 8.00798988312664], [6.387679099910599, 8.001554489248349], [6.400614539029789, 8.01122111935922], [6.418008550654122, 8.020336508223352], [6.435594351698001, 8.015892459769248], [6.448781683727759, 8.008875976145418], [6.463976860144044, 8.006151199418355], [6.451107024769442, 8.023616790782341], [6.445591926925943, 8.035567284302772], [6.447430133993521, 8.04935550735081], [6.447430133993521, 8.063144683680264], [6.452945709377047, 8.076932906728302], [6.457541942906403, 8.093479156238118], [6.491554260420855, 8.144957541757208], [6.496150493950211, 8.163342475874629], [6.473169327202754, 8.217577933674761], [6.461218833682267, 8.229528427195191], [6.450188159555978, 8.242397308389116], [6.403306484206951, 8.31317996987974], [6.39962959343103, 8.322372436938451], [6.397314489372263, 8.326423269418399], [6.395952225115138, 8.328806876636122], [6.390437126372319, 8.335241318132375], [6.385840892842964, 8.340757370156552], [6.378486632851889, 8.349949837215263], [6.366536616871429, 8.360980033801582], [6.360101699633788, 8.364657402117473], [6.354586124250261, 8.373849869176183], [6.346312999945042, 8.386719703651465], [6.326089382119335, 8.40326595316128], [6.314139366138875, 8.412458420219991], [6.300350665550809, 8.428085326976316], [6.268177031744642, 8.449228286656137], [6.241518974221322, 8.459340095569019], [6.224052503320422, 8.462038015841813], [6.214860439157974, 8.463935851558347], [6.192798615164008, 8.464855194311838], [6.179009913676623, 8.459340095569019], [6.163383006920299, 8.451066971263742], [6.137643813711065, 8.44463157738545], [6.113124846734365, 8.441468239068001], [6.11131286569622, 8.431200981440213], [6.097486972745628, 8.414121628210637], [6.082657814106881, 8.401763916271761]]]}}, {"type": "Feature", "properties": {"name": "Omala", "state": "ko"}, "geometry": {"type": "Polygon", "coordinates": [[[7.450301833662763, 7.513271760783198], [7.477571789006902, 7.518298586110916], [7.490352247058581, 7.524437711831013], [7.516214847936908, 7.522724151698299], [7.518932342853361, 7.526121140178532], [7.524367331787005, 7.528838634195665], [7.565808773356252, 7.587264537928149], [7.566383250386764, 7.592463042935151], [7.562361623390245, 7.597290938226251], [7.554024589663129, 7.615871411036835], [7.550963833414244, 7.627146838355941], [7.551736166690773, 7.631213289361881], [7.553539221058259, 7.636986920709887], [7.555988631670061, 7.643477344104213], [7.563726933651139, 7.644464234936549], [7.57003321276261, 7.647762081255109], [7.578904159599347, 7.649990551822555], [7.581727874341993, 7.653433575699012], [7.588388388313547, 7.656249871034788], [7.595030876273995, 7.641063263358944], [7.610051393557001, 7.649283914920773], [7.615329016421015, 7.652296138356121], [7.627841722917253, 7.665529788169238], [7.640614227364722, 7.674313992696682], [7.644122159809854, 7.685281315880047], [7.651889880413705, 7.695717410430177], [7.685293355104307, 7.70021989143487], [7.707848593038193, 7.705969785177501], [7.724342282570319, 7.703205530011246], [7.729862155813862, 7.694964920694588], [7.737362052017147, 7.694514283007777], [7.742375862356198, 7.697855453266584], [7.74666290806681, 7.702599568615256], [7.752635479343951, 7.708192348098407], [7.752635479343951, 7.744198798935486], [7.750169633621738, 7.751789612100993], [7.744690417828565, 7.768656730723592], [7.728178500837203, 7.79243421566656], [7.693428473045628, 7.837876091708324], [7.692851066923254, 7.838631152605672], [7.669752598004038, 7.884828567984073], [7.663638114607352, 7.905889033751976], [7.664317608171132, 7.935101986067878], [7.677225590088938, 8.0166263578202], [7.675150042040855, 8.017114632134621], [7.665676116859345, 8.019343376096003], [7.624914168853877, 8.029534339738063], [7.583472729083212, 8.037686348746035], [7.542710304437037, 8.043121337679622], [7.505344868271095, 8.047198296364343], [7.44578695280569, 8.046949006991156], [7.430915456782941, 8.022708892801234], [7.424780845659541, 8.014568327666211], [7.418077469099956, 8.007386206907995], [7.40945863640701, 7.989669800021318], [7.39653015084582, 7.974826335866737], [7.389826775185554, 7.960940361008909], [7.38503837721936, 7.948969842284441], [7.377856254662447, 7.935562610725981], [7.371152878102919, 7.926943778932298], [7.358703135841097, 7.914015294270484], [7.350563049145478, 7.900129796053307], [7.346253872018622, 7.874752044871002], [7.347211361315317, 7.859908580716478], [7.348798287011391, 7.84919752204803], [7.349126815650095, 7.846980095155288], [7.355204104885559, 7.827082156916049], [7.388493538346154, 7.786999225833654], [7.402081012928477, 7.761862754662445], [7.41227149992983, 7.736725806850529], [7.428576469428549, 7.717024326411604], [7.436728476637938, 7.700039864248367], [7.442163467370165, 7.687811374995022], [7.443522452699085, 7.667429924351552], [7.442842960034625, 7.653842926409993], [7.440125465118172, 7.630064964826317], [7.453712939700438, 7.588623046616362], [7.454392433264218, 7.574356556010287], [7.457156484284383, 7.571131740037799], [7.461067935336985, 7.552950032917749], [7.450301833662763, 7.513271760783198]]]}}, {"type": "Feature", "properties": {"name": "Okene", "state": "ko"}, "geometry": {"type": "Polygon", "coordinates": [[[6.189314239560531, 7.575310800553041], [6.182820768363797, 7.573668726630501], [6.180179705928708, 7.572871108015249], [6.178764691937033, 7.57207834843706], [6.178531177571813, 7.566752102827309], [6.178323390112439, 7.56743767670747], [6.177424806409761, 7.569021176885826], [6.176995077960555, 7.569509973706374], [6.168183164421521, 7.562990013878107], [6.149594306332233, 7.557558537696423], [6.133570670849849, 7.552076817291322], [6.165878772187625, 7.548480033626674], [6.16460180323071, 7.538271777820341], [6.162255764292127, 7.533936977209805], [6.158284188164828, 7.528297900627649], [6.172447681215544, 7.519642354011467], [6.19807958530464, 7.496060849328785], [6.202180861657496, 7.480681895553062], [6.206281662268964, 7.47042894434037], [6.225323200405398, 7.468395709394542], [6.226923943285385, 7.47103691122453], [6.233273983407685, 7.473898887623591], [6.23788690475692, 7.475611209389854], [6.263773916832861, 7.480062961436545], [6.267814157997066, 7.481779099026255], [6.270139216651557, 7.484090805446385], [6.281152887295946, 7.501041969311473], [6.288040800242811, 7.500985703227684], [6.292051954634076, 7.500369628955241], [6.296834325343866, 7.50818117262304], [6.295628336278753, 7.518252772847234], [6.297750181425783, 7.533609143747015], [6.271560751627419, 7.548844911063838], [6.269185107007104, 7.546024485141913], [6.256227015764239, 7.548366069738393], [6.233961947685771, 7.558843739047347], [6.223361768231086, 7.551825020608248], [6.201359625946054, 7.564363838920087], [6.189314239560531, 7.575310800553041]]]}}, {"type": "Feature", "properties": {"name": "Ijumu", "state": "ko"}, "geometry": {"type": "Polygon", "coordinates": [[[5.834894656962888, 7.92397785169652], [5.828284264007607, 7.916381359312311], [5.826657771738837, 7.904994966444576], [5.820151328720897, 7.896048546703128], [5.811204909878711, 7.888729094971779], [5.801445484121871, 7.878969192574232], [5.789245605000701, 7.861890315985363], [5.779486179243804, 7.854570389412004], [5.770539761300995, 7.843997478301048], [5.75996685019004, 7.834238053443471], [5.751020907988561, 7.829358100895661], [5.738821030666088, 7.825291634601285], [5.737289428564338, 7.821079254204278], [5.741160393037774, 7.812342166957478], [5.746031761556594, 7.80503463843786], [5.750408833001302, 7.800813942909201], [5.755774975234942, 7.795639514552022], [5.767953873172758, 7.787636280390075], [5.791615485866032, 7.782068728688898], [5.773028373360773, 7.747318744964161], [5.780241965894049, 7.745772839145275], [5.801024436828357, 7.733303547420803], [5.816439152145222, 7.727849007225927], [5.819413663409875, 7.731224536982836], [5.822185040307431, 7.733086586876539], [5.827743052899621, 7.734040736990494], [5.850026130801325, 7.728624344238142], [5.908330917437922, 7.748338222730865], [5.914815902631858, 7.749297142848889], [5.919446945320317, 7.750246048116651], [5.921306610211957, 7.749332904390087], [5.92873907075159, 7.746604443140598], [5.930603979590046, 7.744768144434374], [5.921491145699861, 7.716093063144399], [5.929021834689991, 7.69582128482449], [5.937628268429876, 7.648777007552894], [5.975945949945697, 7.594511032158437], [5.996539116287238, 7.559537411322538], [6.004125594720449, 7.529235839562375], [6.010501537116284, 7.532275426669628], [6.012996197116877, 7.53340578095208], [6.017077922208387, 7.538619041135917], [6.021168232228206, 7.544414997254364], [6.023499010570902, 7.547309875350493], [6.028888225811045, 7.565337180566473], [6.043387889939197, 7.577459812420443], [6.048503875853214, 7.580123900197862], [6.069608927310185, 7.583516249075672], [6.098731040904852, 7.588197231117363], [6.099113464115135, 7.594314098616792], [6.104806422678337, 7.605700493283166], [6.104806422678337, 7.614646434585325], [6.121885776807176, 7.64717864967497], [6.121072292352437, 7.669950962367068], [6.122308219848492, 7.682329482819398], [6.117819308714161, 7.686217307782556], [6.107246399401845, 7.695163249984034], [6.098299979660396, 7.704923153280959], [6.085706033806446, 7.738638568615102], [6.053830937148064, 7.746957475607076], [6.048257612698706, 7.757298946189451], [6.05365792377421, 7.790023919268492], [6.047865760996103, 7.797885011084418], [6.046248913056957, 7.800079346084999], [6.041368961408466, 7.802519321009925], [6.021849632354701, 7.840744494662772], [6.037037328210204, 7.87132722866869], [6.067137373590981, 7.863108977397417], [6.068613141283492, 7.874347036086874], [6.069535950923466, 7.890862392985071], [6.056008338813854, 7.918007851581137], [6.054381847444347, 7.93020725316228], [6.069834709304416, 7.987951755868892], [6.076341151423037, 8.002591132374903], [6.079594135061313, 8.012351036571147], [6.077670260374248, 8.021328621418775], [6.077154160136445, 8.023736953697494], [6.075527667867618, 8.041629791381808], [6.066581249025489, 8.056268692146489], [6.027144908910486, 8.15453720113095], [5.990944386174533, 8.13515949191708], [5.977118492324621, 8.106693268279741], [5.971425055322072, 8.104253769096204], [5.968841616047769, 8.102734088407487], [5.9575991632708, 8.096120833809493], [5.948652744428671, 8.08473491758241], [5.943772792780237, 8.070095062637051], [5.920186995633401, 8.03186988898426], [5.913306207115795, 8.014667914093025], [5.912054062145273, 8.011537552116408], [5.907987594951578, 7.999338149635946], [5.890908240822682, 7.981445311951632], [5.860002994642514, 7.939153672004409], [5.851870060255123, 7.933460711642567], [5.843737124968413, 7.927767277338035], [5.834894656962888, 7.92397785169652]]]}}, {"type": "Feature", "properties": {"name": "Bassa", "state": "ko"}, "geometry": {"type": "Polygon", "coordinates": [[[7.44578695280569, 8.046949006991156], [7.432442188156529, 8.047780610986479], [7.404485226312204, 8.045053102119027], [7.393178463015715, 8.04394970141766], [7.305553913382425, 8.027669527127046], [7.289005006375987, 8.02221023491444], [7.253840922620554, 8.015047072764219], [7.195903302195688, 7.993021487851422], [7.117855072753457, 7.959024905774811], [7.072845458551114, 7.942744732383517], [7.069377774364852, 7.94092201074227], [7.056486128632002, 7.934145771110479], [7.035497190443039, 7.923113346004186], [7.006289005433302, 7.902523517946065], [6.979474545014284, 7.887680053791485], [6.966546535194482, 7.879061221997858], [6.849600791743171, 7.849878788175602], [6.84439799966799, 7.846276910750873], [6.826169345239123, 7.834269662814734], [6.79904222471896, 7.823220729752904], [6.78817194917616, 7.811444479878901], [6.788011550592614, 7.811270713772444], [6.769437789422511, 7.800436019906442], [6.76798610467506, 7.791777905725837], [6.757874296661498, 7.75041180486096], [6.744347094642762, 7.670625686826043], [6.735154629382691, 7.650402069000336], [6.720446587839831, 7.637532710266441], [6.709415912814165, 7.617309569980705], [6.699304103901341, 7.589732170603213], [6.699304103901341, 7.574104786306918], [6.71033477712831, 7.538254260825511], [6.713092803590087, 7.512515067616334], [6.712050323863423, 7.506409721331636], [6.707601921791309, 7.484356165704526], [6.727521305264077, 7.478374381772369], [6.739105226125332, 7.481158733189034], [6.754427432679904, 7.480201243892338], [6.75873708824605, 7.477328299361602], [6.765440463906316, 7.468230245829204], [6.769270896834485, 7.458653927436842], [6.774538039898687, 7.451950549977937], [6.785072326926411, 7.443810463282318], [6.794648647117413, 7.44189500804822], [6.807577132678603, 7.444767950780374], [6.813199043001475, 7.452984809901125], [6.814466265106091, 7.459186716393901], [6.800144724299628, 7.468407501305194], [6.799273941339379, 7.483502883551296], [6.80751573776115, 7.499282330615131], [6.814149379989942, 7.516068887968856], [6.817501069618743, 7.526123954157185], [6.819068909902342, 7.556812763198536], [6.825293541363919, 7.582190514380784], [6.831996917923448, 7.591288090373098], [6.841094493915818, 7.601343632302815], [6.853866262717872, 7.608950826619377], [6.876527786128463, 7.620017529385507], [6.909087657169664, 7.624327182253694], [6.918185234061355, 7.627200126784487], [6.933627982145708, 7.633132037013922], [6.949308870707853, 7.642522335137699], [6.96127939213028, 7.658323764330305], [6.969846452651723, 7.673681605621653], [6.982132220625545, 7.677045427104815], [6.994717087823403, 7.680271512920058], [7.005520835118489, 7.698107154621539], [7.01278317000731, 7.699388871998906], [7.01978303415973, 7.70376622942797], [7.030684705934505, 7.702306812309587], [7.053126021348874, 7.69706538715792], [7.084608047723293, 7.691489088650542], [7.108322566633205, 7.693181413991113], [7.121523330937009, 7.700542034887064], [7.130535726742437, 7.709391937587895], [7.1371455774065, 7.716296023043071], [7.148020744361929, 7.725358963445444], [7.176750183374338, 7.76270723155352], [7.18058061630245, 7.76845312061505], [7.18164382899954, 7.769193973123436], [7.198236995241189, 7.780756169961307], [7.206943038790257, 7.785108644048705], [7.221533186407498, 7.785096246894341], [7.24183274388605, 7.783180770076513], [7.290882894230208, 7.77654273196157], [7.302103465602499, 7.7819092959773], [7.309873234861925, 7.794807903362084], [7.311329372152841, 7.801015868587513], [7.349126815650095, 7.846980095155288], [7.348798287011391, 7.84919752204803], [7.347211361315317, 7.859908580716478], [7.346253872018622, 7.874752044871002], [7.350563049145478, 7.900129796053307], [7.358703135841097, 7.914015294270484], [7.371152878102919, 7.926943778932298], [7.377856254662447, 7.935562610725981], [7.38503837721936, 7.948969842284441], [7.389826775185554, 7.960940361008909], [7.39653015084582, 7.974826335866737], [7.40945863640701, 7.989669800021318], [7.418077469099956, 8.007386206907995], [7.424780845659541, 8.014568327666211], [7.430915456782941, 8.022708892801234], [7.44578695280569, 8.046949006991156]]]}}, {"type": "Feature", "properties": {"name": "Yagba West", "state": "ko"}, "geometry": {"type": "Polygon", "coordinates": [[[5.324504852417078, 8.333780289428887], [5.332330226758586, 8.33117198929591], [5.33580827743009, 8.32856369006231], [5.343198775603071, 8.321607591417262], [5.347546101071771, 8.315521240612838], [5.353197575707611, 8.309869765976941], [5.353197575707611, 8.305522919846908], [5.352762698639651, 8.298131943234637], [5.353197575707611, 8.286828994862276], [5.356675147939768, 8.274656296850651], [5.362761496945552, 8.273352623424898], [5.372325898421536, 8.274221419782748], [5.38102054666092, 8.278134345723515], [5.387541294295318, 8.283350945090092], [5.397105693972662, 8.292045593329533], [5.404496193044906, 8.292045593329533], [5.418407439751604, 8.283785820359356], [5.422319889051664, 8.251180649567345], [5.418842315920188, 8.235530853266312], [5.422319889051664, 8.22813987665404], [5.431884288729009, 8.224661827781176], [5.433027938588566, 8.223947131155228], [5.442317963203493, 8.218141555888167], [5.457533359976651, 8.206403732246486], [5.466228008216035, 8.202490807205038], [5.501329687115401, 8.215304261382585], [5.5103930196222, 8.208433556963143], [5.510251120093187, 8.20938186777903], [5.513922141893374, 8.212442063750302], [5.523607281850616, 8.20715812224961], [5.537089825335215, 8.205533981707958], [5.538627898958396, 8.20143207672902], [5.539698123669496, 8.19857788126427], [5.539698123669496, 8.190752983563414], [5.538393975401675, 8.178580284652469], [5.537089825335215, 8.16336441033934], [5.536654949166632, 8.15640926407633], [5.532742500765835, 8.146844864399043], [5.531981171593827, 8.145931336661931], [5.526221274692148, 8.139019966698129], [5.51796150262129, 8.131194114816594], [5.507666137582248, 8.125548658443904], [5.504484652744566, 8.123804092385], [5.497963905110169, 8.114674567976977], [5.497963905110169, 8.11066436776639], [5.506978512348496, 8.1112461104197], [5.507212373852042, 8.1112461104197], [5.513937950176285, 8.1112461104197], [5.514057098656224, 8.110173358613679], [5.514633655818614, 8.1049823764356], [5.503847122446814, 8.023557663055726], [5.505934715115075, 8.018686295436225], [5.508718490965634, 8.017642974843454], [5.516025542844602, 8.022166251771125], [5.576571940942358, 8.071229935113479], [5.643636226830438, 8.073967934572579], [5.637158393944787, 8.09124088306038], [5.636345387030019, 8.098560332993031], [5.636345387030019, 8.10750675183516], [5.633091926751092, 8.12133312232578], [5.637158393944787, 8.167691231265337], [5.644478321417466, 8.18802356633455], [5.681890010615518, 8.244141578571032], [5.685143470894502, 8.254714012142017], [5.685179328663139, 8.255072633894997], [5.686769962264009, 8.270980835097532], [5.69408941309598, 8.278300285030184], [5.70140933966934, 8.292939185794864], [5.70140933966934, 8.30513858827527], [5.698969364744414, 8.31733894313777], [5.697342873374964, 8.326284408698541], [5.695716381106138, 8.38565540277466], [5.69327640438263, 8.3978557594358], [5.688396455432098, 8.415747642939436], [5.688396455432098, 8.427134514246461], [5.690022945002966, 8.441773415011141], [5.688176632345744, 8.452851294551635], [5.658304212569419, 8.459666251796136], [5.643391529395615, 8.462805619583719], [5.64285183004796, 8.462919235434413], [5.599746703847359, 8.488945008405437], [5.588360310080304, 8.497077941893565], [5.574534416230392, 8.506024360735694], [5.554202080261859, 8.512530327112927], [5.544442176964935, 8.52310371396527], [5.5338692667533, 8.530423163897922], [5.524109840097083, 8.53693008355657], [5.513207436274229, 8.538522719947593], [5.51456403660103, 8.5351314547529], [5.510494232023234, 8.5351314547529], [5.503032207170691, 8.534453392010505], [5.49624919924122, 8.529026031126477], [5.490143777413437, 8.518173217719891], [5.476577282215828, 8.499857903719317], [5.465723514628564, 8.492395401326746], [5.453513621556453, 8.486290931881058], [5.396627426414625, 8.438260077640507], [5.341900826362121, 8.375241279561465], [5.330789565785892, 8.355672836732083], [5.327473163755542, 8.349039077591385], [5.322829723013342, 8.344395637748505], [5.321502686100132, 8.341078758178185], [5.32349300359931, 8.337099074662603], [5.324504852417078, 8.333780289428887]]]}}, {"type": "Feature", "properties": {"name": "Kogi", "state": "ko"}, "geometry": {"type": "Polygon", "coordinates": [[[6.963587761166309, 7.879294872160642], [6.952556610399313, 7.91790342320445], [6.957152843029348, 7.92985343918491], [6.960829734704532, 7.942722797019542], [6.963587761166309, 7.960188389282791], [6.968482193698321, 7.968753965023495], [6.978295326068519, 7.985927581592648], [6.979214667922633, 8.000635147394178], [6.97278022822502, 8.01993942336577], [6.972207342095203, 8.02416359027751], [6.970941543617414, 8.030051231379275], [6.977376460855055, 8.050274849204982], [6.987028599290454, 8.077852248582474], [6.987028599290454, 8.092559814384003], [6.983351230974563, 8.11554145777211], [6.997139930663309, 8.153230666961747], [7.002655506046835, 8.167018890009842], [7.0008172989792, 8.18172740909273], [6.992543697133954, 8.195515633040088], [6.979674339299379, 8.21114349397709], [6.972320556848274, 8.224931717025186], [6.970481873139988, 8.245155334850892], [6.964966296857142, 8.26537895177728], [6.959450722372992, 8.275490760690104], [6.953016280876682, 8.283763884995324], [6.941065788255571, 8.292956352054034], [6.94022725858116, 8.294034497094401], [6.934631347658637, 8.30122947815795], [6.934631347658637, 8.31042194431734], [6.941985130109742, 8.322372436938451], [6.951177597168396, 8.346272468899372], [6.955773829798432, 8.359142303374654], [6.956023870105582, 8.361267381584469], [6.957612514406037, 8.374769211929618], [6.969562531285817, 8.391315459640794], [6.980814908980904, 8.443727660703019], [6.977416200996913, 8.443944557395469], [6.947562637305907, 8.45612112069324], [6.940821987444792, 8.458870420133849], [6.827889919184486, 8.457550048995586], [6.824781417928136, 8.432682037146321], [6.832135201278561, 8.425327301413859], [6.832135201278561, 8.42493958389474], [6.832135201278561, 8.417444067389852], [6.832135201278561, 8.41705417620932], [6.824781417928136, 8.404185295914715], [6.837650775762768, 8.39683151256429], [6.83758668827511, 8.39644698404112], [6.836795521396255, 8.391699980969406], [6.836731433908597, 8.391315459640794], [6.807315349923499, 8.34259509968416], [6.790769100413684, 8.330645562143047], [6.772384167195582, 8.335241318132375], [6.766868590912793, 8.308583260609055], [6.751241206616442, 8.304905891393844], [6.751118262098146, 8.30453702366475], [6.749525944067102, 8.299759658581422], [6.749403000448183, 8.299390792651025], [6.761353016428586, 8.292956352054034], [6.761353016428586, 8.272732735127647], [6.749403000448183, 8.263540268068937], [6.749034131819769, 8.263663235070283], [6.744256290995054, 8.265255985675253], [6.743887424165337, 8.26537895177728], [6.730098723577271, 8.283763884995324], [6.729810328084227, 8.283501710135852], [6.720275315553408, 8.27483359819206], [6.719986915563766, 8.274571418835933], [6.727392525045047, 8.252448812362843], [6.724583149093121, 8.24975109084022], [6.718148707596811, 8.243316650243287], [6.712633133112661, 8.20195102691838], [6.691258429832715, 8.183006287310377], [6.720417430919724, 8.125863495803742], [6.741216907134628, 8.10882289076386], [6.761812686906012, 8.08888340024879], [6.768476595818299, 8.07204824083368], [6.779278278269999, 8.044759749562843], [6.779278278269999, 8.039195487581708], [6.779278278269999, 8.025455475389947], [6.777440071202363, 7.997877597573108], [6.792148112745281, 7.91514539674273], [6.790309429036995, 7.88572979029766], [6.769437789422511, 7.800436019906442], [6.788011550592614, 7.811270713772444], [6.78817194917616, 7.811444479878901], [6.79904222471896, 7.823220729752904], [6.826169345239123, 7.834269662814734], [6.84439799966799, 7.846276910750873], [6.849600791743171, 7.849878788175602], [6.883613110156944, 7.857233047267357], [6.916706084917905, 7.864586829718462], [6.963587761166309, 7.879294872160642]]]}}, {"type": "Feature", "properties": {"name": "Olamaboro", "state": "ko"}, "geometry": {"type": "Polygon", "coordinates": [[[7.76869506882241, 7.301886573406705], [7.767656597374128, 7.306593558446025], [7.760463962641836, 7.309509477080724], [7.756002532990578, 7.304839569290721], [7.75217527916584, 7.305658050378781], [7.742868561335058, 7.306819104817862], [7.736175938868541, 7.30928962791404], [7.727549273080513, 7.307592932767704], [7.713546693025535, 7.31441230658271], [7.699867426440619, 7.31831586698371], [7.650604243790895, 7.346782435960677], [7.640870008943807, 7.346810297857019], [7.629448116237597, 7.347226749614833], [7.628061239334784, 7.338086478308355], [7.6290726609746, 7.330355869128084], [7.62551493756439, 7.319617469270838], [7.564615005178382, 7.298836571250831], [7.559497118996887, 7.294132598041017], [7.55574516900441, 7.293448639343296], [7.552655036400836, 7.291162022209619], [7.492303371203661, 7.288592815606023], [7.482725799156356, 7.29109139485206], [7.473783565758993, 7.288641556162929], [7.439732265331827, 7.302153726912991], [7.433573395895564, 7.298075629686593], [7.429006431701509, 7.294423931619178], [7.419345855826634, 7.295680046197219], [7.408923626124476, 7.298598289579445], [7.396440585564619, 7.306638854599498], [7.395754350682807, 7.303152165040444], [7.386684544855882, 7.308836696056744], [7.380973712267064, 7.304419247750104], [7.371433554714827, 7.303597571370858], [7.355492439224747, 7.297579903589735], [7.352341211177986, 7.290613803584222], [7.35430707071481, 7.278249051752368], [7.344954491056967, 7.253444672333785], [7.346271038277848, 7.246860026968704], [7.330139637034677, 7.207354546075464], [7.324872017329767, 7.200111865869985], [7.317629337124231, 7.192868710822381], [7.312361717419378, 7.189247607691016], [7.307423592225064, 7.18332147560568], [7.301497935881059, 7.173115729807137], [7.284708023156782, 7.112540244936383], [7.28898763686999, 7.108589649093062], [7.292938231813991, 7.105626582600735], [7.313020228900484, 7.102005482167328], [7.327176571441669, 7.100359440435852], [7.337382317240213, 7.096079350081993], [7.350328752370046, 7.094373758841925], [7.367204077306383, 7.088858070143885], [7.366837025308541, 7.039865971937104], [7.370479583565952, 7.041427134754485], [7.379182339193619, 7.047325591103174], [7.384659289594595, 7.05166816815148], [7.385903452182617, 7.05519341794195], [7.3893856999901, 7.065060139114166], [7.386762054725068, 7.086116196405385], [7.394412447976151, 7.092895961379554], [7.431851734669863, 7.101550166207232], [7.44240098911439, 7.095924712555473], [7.450195548186059, 7.096775329118202], [7.45741783266692, 7.095913224615686], [7.460406832909086, 7.093152731313523], [7.461025000803204, 7.092657023203117], [7.464718951718282, 7.089233786210286], [7.470391429121207, 7.093908550339393], [7.470174015318605, 7.086845855951537], [7.502034664368296, 7.068998814443773], [7.530513762700025, 7.032278060883868], [7.543581963336976, 7.04012107812531], [7.580685615848552, 7.027197360769605], [7.5931925765762, 7.018025874894249], [7.601113796164782, 7.016357899597438], [7.605874447347901, 7.01725054327801], [7.607784271027356, 7.017608643424182], [7.610285758680845, 7.023445129289314], [7.611119270138261, 7.027197360769605], [7.599446296609358, 7.079309940101723], [7.601947784262904, 7.09056615790189], [7.637383938118319, 7.132672786619878], [7.635451450623975, 7.147128481993889], [7.643081219722546, 7.158281663567948], [7.672369009122519, 7.173702678635777], [7.68192339305017, 7.185449448733095], [7.691022244281214, 7.191829895833052], [7.702966018966663, 7.188963582903057], [7.710073687550675, 7.183112262720783], [7.718049202808515, 7.183600029817569], [7.721550695208464, 7.187063131058721], [7.729324444867302, 7.192704225719467], [7.749927141324576, 7.199318096353124], [7.767755885225995, 7.206273519607294], [7.779389874043488, 7.208916560550904], [7.784870359679417, 7.214988727247999], [7.789968967094183, 7.216886044055741], [7.79386520431575, 7.225825309690322], [7.797056197685436, 7.233145237163001], [7.794219444571752, 7.268652196441735], [7.795867408154436, 7.274342614420163], [7.801155285088385, 7.292601656041654], [7.76869506882241, 7.301886573406705]]]}}, {"type": "Feature", "properties": {"name": "Lokoja", "state": "ko"}, "geometry": {"type": "Polygon", "coordinates": [[[6.113124846734365, 8.441468239068001], [6.137643813711065, 8.44463157738545], [6.163383006920299, 8.451066971263742], [6.179009913676623, 8.459340095569019], [6.192798615164008, 8.464855194311838], [6.214860439157974, 8.463935851558347], [6.224052503320422, 8.462038015841813], [6.241518974221322, 8.459340095569019], [6.268177031744642, 8.449228286656137], [6.300350665550809, 8.428085326976316], [6.314139366138875, 8.412458420219991], [6.326089382119335, 8.40326595316128], [6.346312999945042, 8.386719703651465], [6.354586124250261, 8.373849869176183], [6.360101699633788, 8.364657402117473], [6.366536616871429, 8.360980033801582], [6.378486632851889, 8.349949837215263], [6.385840892842964, 8.340757370156552], [6.390437126372319, 8.335241318132375], [6.395952225115138, 8.328806876636122], [6.397314489372263, 8.326423269418399], [6.39962959343103, 8.322372436938451], [6.403306484206951, 8.31317996987974], [6.450188159555978, 8.242397308389116], [6.461218833682267, 8.229528427195191], [6.473169327202754, 8.217577933674761], [6.496150493950211, 8.163342475874629], [6.491554260420855, 8.144957541757208], [6.457541942906403, 8.093479156238118], [6.452945709377047, 8.076932906728302], [6.447430133993521, 8.063144683680264], [6.447430133993521, 8.04935550735081], [6.445591926925943, 8.035567284302772], [6.451107024769442, 8.023616790782341], [6.463976860144044, 8.006151199418355], [6.448781683727759, 8.008875976145418], [6.435594351698001, 8.015892459769248], [6.418008550654122, 8.020336508223352], [6.400614539029789, 8.01122111935922], [6.387679099910599, 8.001554489248349], [6.377567290997717, 8.00798988312664], [6.365617275017257, 8.019020080612279], [6.360101699633788, 8.027293204917498], [6.349070548866791, 8.033728599695166], [6.338959216594617, 8.042001724000386], [6.329766750435226, 8.061306000871298], [6.311381817217125, 8.075094223020017], [6.294835091066659, 8.087964058394618], [6.286561965862063, 8.095317840845723], [6.268177031744642, 8.099914551015786], [6.251630783134203, 8.1008338928699], [6.238760947759602, 8.099914551015786], [6.229568480700891, 8.095317840845723], [6.227730273633256, 8.087964058394618], [6.226810931779141, 8.080610275044194], [6.221295357294935, 8.076013565773508], [6.22037601544082, 8.068659783322403], [6.227730273633256, 8.052113532913268], [6.230487822555006, 8.04567813903492], [6.237842083445457, 8.038324355684495], [6.241518974221322, 8.033728599695166], [6.242438316075493, 8.020858765219884], [6.243357182188277, 8.01074695630706], [6.248872756672426, 7.996958733258964], [6.259903907439423, 7.980412006209178], [6.270015717251624, 7.969380856341502], [6.280127047725102, 7.964784621912827], [6.287481307716234, 7.961107732036226], [6.292996883099704, 7.953753948685858], [6.293915749212488, 7.943642138873656], [6.3012700083043, 7.94180345516537], [6.308623790755405, 7.939965248097792], [6.319654942421721, 7.928934097330796], [6.327008723973506, 7.916064738596845], [6.329766750435226, 7.90319538076227], [6.327008723973506, 7.894002913703559], [6.324251175051756, 7.887567998264558], [6.325170516905871, 7.875617981384778], [6.323331833197585, 7.855394362659752], [6.323331833197585, 7.843444347578611], [6.315334797163189, 7.833265781090972], [6.324251175051756, 7.82781696328226], [6.336201191032217, 7.818624496223549], [6.339878081808081, 7.811270713772444], [6.344474316236756, 7.807593346355873], [6.386759758056428, 7.811270713772444], [6.400548457745174, 7.81954383897704], [6.40882205959042, 7.824140071607076], [6.424448967246065, 7.833332538665786], [6.433641434304775, 7.843444347578611], [6.445591926925943, 7.854475020805637], [6.457541942906403, 7.857233047267357], [6.47463652075885, 7.866439764983227], [6.489105793197837, 7.873395100103835], [6.518154726259638, 7.895312073893137], [6.525854219796429, 7.899602926433943], [6.540822472978789, 7.901481753180406], [6.557437840783791, 7.901907635229236], [6.571597553983963, 7.887398046182909], [6.616351499921848, 7.859216055976276], [6.636795044255962, 7.848959922962138], [6.653341770406428, 7.848040581107966], [6.660695552857533, 7.844363689432782], [6.66975280055135, 7.8356831119861], [6.67802592575589, 7.826490644927389], [6.689976419276377, 7.817298176969359], [6.702845777110952, 7.799832109864042], [6.71033477712831, 7.786450863316759], [6.714931009758345, 7.780935287033913], [6.724976760768925, 7.785450085153343], [6.742134569055168, 7.784154627034468], [6.757874296661498, 7.75041180486096], [6.774682044740644, 7.829655646990545], [6.784369445593484, 7.862239958007706], [6.790309429036995, 7.88572979029766], [6.792148112745281, 7.91514539674273], [6.777440071202363, 7.997877597573108], [6.779278278269999, 8.025455475389947], [6.779278278269999, 8.039195487581708], [6.779278278269999, 8.044759749562843], [6.768476595818299, 8.07204824083368], [6.761812686906012, 8.08888340024879], [6.741216907134628, 8.10882289076386], [6.720417430919724, 8.125863495803742], [6.69011163684263, 8.185403824127206], [6.683676719604989, 8.212981224404018], [6.665291786386888, 8.226770400733471], [6.64139127688594, 8.255267142864398], [6.62668323534308, 8.287440300029857], [6.613813876609186, 8.299390792651025], [6.608298302124979, 8.314098357553235], [6.608036124567548, 8.314386755744238], [6.599368014422396, 8.323921767375737], [6.599105835066268, 8.32421016736538], [6.579802035735383, 8.330645562143047], [6.551305292705138, 8.369254112287479], [6.527404785002886, 8.37568855288447], [6.503504276401259, 8.412458420219991], [6.452945709377047, 8.448308945701342], [6.405604360852635, 8.61193466185523], [6.39825057930085, 8.62940025411848], [6.384096621761728, 8.644262313554975], [6.379865646082749, 8.648704529190695], [6.375269412553394, 8.661574363665977], [6.36654024833382, 8.673697742856575], [6.358722687302247, 8.684555053772783], [6.30264902063584, 8.727760314986597], [6.267717361267273, 8.738791465753593], [6.246574879127422, 8.738791465753593], [6.22451257669411, 8.735114098337021], [6.208536148424571, 8.732375145596563], [6.18369674670754, 8.686576843046907], [6.16987037711624, 8.662991524339418], [6.162550926284268, 8.637779235823132], [6.154417991896878, 8.61744689895528], [6.147911548878938, 8.596301079431328], [6.139778613592171, 8.580847740930551], [6.133272170574287, 8.56783485399535], [6.12513923618684, 8.555635452414265], [6.113124846734365, 8.441468239068001]]]}}, {"type": "Feature", "properties": {"name": "Ankpa", "state": "ko"}, "geometry": {"type": "Polygon", "coordinates": [[[7.450301833662763, 7.513271760783198], [7.446156166773733, 7.449556997157742], [7.448032333325557, 7.434546438967061], [7.452154398406833, 7.418857791953599], [7.456643133274042, 7.412148824308815], [7.459980240395851, 7.405923259350971], [7.461122653687539, 7.401062801407193], [7.455351273342615, 7.400293879259152], [7.450632571935671, 7.399286747385531], [7.443718909600022, 7.398957730414963], [7.439220480041172, 7.395981457378412], [7.435082574301418, 7.388402127656093], [7.401256000963713, 7.382120564612421], [7.394345917929797, 7.37398274240968], [7.377890041292403, 7.375136808217178], [7.368140411850561, 7.360449791924395], [7.369866435687527, 7.354573729593994], [7.372101976724878, 7.350557339349791], [7.372987818832826, 7.347742369614707], [7.376123353709829, 7.345359024099707], [7.380206667004131, 7.339319662872185], [7.382731474078298, 7.332951755019508], [7.37891418024526, 7.331471398985911], [7.379834236161116, 7.327539052185557], [7.381813187128955, 7.32507910241867], [7.385996541906934, 7.317256415251393], [7.395406812174713, 7.313906891190129], [7.396628748018372, 7.309485118043824], [7.396440585564619, 7.306638854599498], [7.408923626124476, 7.298598289579445], [7.419345855826634, 7.295680046197219], [7.429006431701509, 7.294423931619178], [7.433573395895564, 7.298075629686593], [7.439732265331827, 7.302153726912991], [7.473783565758993, 7.288641556162929], [7.482725799156356, 7.29109139485206], [7.492303371203661, 7.288592815606023], [7.552655036400836, 7.291162022209619], [7.55574516900441, 7.293448639343296], [7.559497118996887, 7.294132598041017], [7.564615005178382, 7.298836571250831], [7.62551493756439, 7.319617469270838], [7.6290726609746, 7.330355869128084], [7.628061239334784, 7.338086478308355], [7.629448116237597, 7.347226749614833], [7.640870008943807, 7.346810297857019], [7.650604243790895, 7.346782435960677], [7.699867426440619, 7.31831586698371], [7.713546693025535, 7.31441230658271], [7.727549273080513, 7.307592932767704], [7.736175938868541, 7.30928962791404], [7.742868561335058, 7.306819104817862], [7.75217527916584, 7.305658050378781], [7.756002532990578, 7.304839569290721], [7.760463962641836, 7.309509477080724], [7.767656597374128, 7.306593558446025], [7.76869506882241, 7.301886573406705], [7.802608319718217, 7.36428830705978], [7.797122582041595, 7.375952186644156], [7.798397097647978, 7.385245592709964], [7.800116631977005, 7.391777473052002], [7.799378785003, 7.401134003431537], [7.79218887971308, 7.409864057979917], [7.792887211375728, 7.414913176601885], [7.776211261640469, 7.419498920438855], [7.768290042951151, 7.427002906758787], [7.76412105574218, 7.433673383419944], [7.754532336598118, 7.512884140390838], [7.75529839260679, 7.523608621440758], [7.755783081324182, 7.530394076425523], [7.737407710597438, 7.539083313444223], [7.736204634436376, 7.59938117220338], [7.731815974327787, 7.612703556324107], [7.72625829898135, 7.614466453264242], [7.72425571113223, 7.620496190846552], [7.732554110883541, 7.63901335498241], [7.741043157016122, 7.638731556915843], [7.752448081313958, 7.63973120463146], [7.752448082213277, 7.647782803433699], [7.754673958236651, 7.647728443912627], [7.754673958236651, 7.661315917595573], [7.753994464672871, 7.679658890245662], [7.752635479343951, 7.708192348098407], [7.74666290806681, 7.702599568615256], [7.742375862356198, 7.697855453266584], [7.737362052017147, 7.694514283007777], [7.729862155813862, 7.694964920694588], [7.724342282570319, 7.703205530011246], [7.707848593038193, 7.705969785177501], [7.685293355104307, 7.70021989143487], [7.651889880413705, 7.695717410430177], [7.644122159809854, 7.685281315880047], [7.640614227364722, 7.674313992696682], [7.627841722917253, 7.665529788169238], [7.615329016421015, 7.652296138356121], [7.610051393557001, 7.649283914920773], [7.595030876273995, 7.641063263358944], [7.588388388313547, 7.656249871034788], [7.581727874341993, 7.653433575699012], [7.578904159599347, 7.649990551822555], [7.57003321276261, 7.647762081255109], [7.563726933651139, 7.644464234936549], [7.555988631670061, 7.643477344104213], [7.553539221058259, 7.636986920709887], [7.551736166690773, 7.631213289361881], [7.550963833414244, 7.627146838355941], [7.554024589663129, 7.615871411036835], [7.562361623390245, 7.597290938226251], [7.566383250386764, 7.592463042935151], [7.565808773356252, 7.587264537928149], [7.524367331787005, 7.528838634195665], [7.518932342853361, 7.526121140178532], [7.516214847936908, 7.522724151698299], [7.490352247058581, 7.524437711831013], [7.477571789006902, 7.518298586110916], [7.450301833662763, 7.513271760783198]]]}}, {"type": "Feature", "properties": {"name": "Okehi", "state": "ko"}, "geometry": {"type": "Polygon", "coordinates": [[[6.122308219848492, 7.682329482819398], [6.121072292352437, 7.669950962367068], [6.121885776807176, 7.64717864967497], [6.104806422678337, 7.614646434585325], [6.104806422678337, 7.605700493283166], [6.099113464115135, 7.594314098616792], [6.098731040904852, 7.588197231117363], [6.118761062573014, 7.59141683641792], [6.133570670849849, 7.552076817291322], [6.149594306332233, 7.557558537696423], [6.168183164421521, 7.562990013878107], [6.176995077960555, 7.569509973706374], [6.178983461017935, 7.567018469426898], [6.178764691937033, 7.57207834843706], [6.180179705928708, 7.572871108015249], [6.182820768363797, 7.573668726630501], [6.189314239560531, 7.575310800553041], [6.1773522464091, 7.586688371970865], [6.20067454939101, 7.590180524911318], [6.202737696687393, 7.588405505110018], [6.20455326062455, 7.588076369428961], [6.199865636190225, 7.596510662137405], [6.217044899602456, 7.617585231972953], [6.225466850015152, 7.620806500119954], [6.229887695960429, 7.618938353722115], [6.236388508323046, 7.614131326299741], [6.244791298679559, 7.60283602935931], [6.254793625925117, 7.606521961919043], [6.25641317722642, 7.60405699213652], [6.258292366399644, 7.602209132645385], [6.250370040644896, 7.582006796376618], [6.258337175120573, 7.578937552326238], [6.286807227171835, 7.593853653823089], [6.325578027603967, 7.627486480816458], [6.345067470387505, 7.630694188985672], [6.36135912092675, 7.640029296614784], [6.371132851300104, 7.658675670845582], [6.377567291897037, 7.664190768689082], [6.382163525426392, 7.671545028680157], [6.391355990686463, 7.682576180346473], [6.398710250677595, 7.698203087102854], [6.406983376781454, 7.703718661587004], [6.418933391862595, 7.713830471399206], [6.425368309100236, 7.723942280312031], [6.459380626614688, 7.74416542059771], [6.498908042871903, 7.777258396258048], [6.517833453351216, 7.777324454160293], [6.524146607779755, 7.791930660071955], [6.530511342824241, 7.797480639020307], [6.544195931597017, 7.808892452125008], [6.557745765954394, 7.82049890909741], [6.56735240229159, 7.826878123226834], [6.575536069234261, 7.826155579116744], [6.584013926901264, 7.824865742659938], [6.616351499921848, 7.859216055976276], [6.571597553983963, 7.887398046182909], [6.557437840783791, 7.901907635229236], [6.540822472978789, 7.901481753180406], [6.525854219796429, 7.899602926433943], [6.518154726259638, 7.895312073893137], [6.489105793197837, 7.873395100103835], [6.47463652075885, 7.866439764983227], [6.457541942906403, 7.857233047267357], [6.445591926925943, 7.854475020805637], [6.433641434304775, 7.843444347578611], [6.424448967246065, 7.833332538665786], [6.40882205959042, 7.824140071607076], [6.400548457745174, 7.81954383897704], [6.386759758056428, 7.811270713772444], [6.344474316236756, 7.807593346355873], [6.339878081808081, 7.811270713772444], [6.336201191032217, 7.818624496223549], [6.324251175051756, 7.82781696328226], [6.315334797163189, 7.833265781090972], [6.277369498803353, 7.801158904859619], [6.271853924319203, 7.791966438700229], [6.268177031744642, 7.782773971641518], [6.269096375397453, 7.775419711650443], [6.268177031744642, 7.753357886757101], [6.269096375397453, 7.745084763351201], [6.271853924319203, 7.72945737815553], [6.270575248449006, 7.720505360134325], [6.270015717251624, 7.716588020320955], [6.268177031744642, 7.706476212307393], [6.258984565585308, 7.706476212307393], [6.244276524042391, 7.712911128645715], [6.234164715129566, 7.718426704029241], [6.203829765031685, 7.720264911996139], [6.186364173667755, 7.718426704029241], [6.172575473979009, 7.71474981325332], [6.159705638604407, 7.70555734619461], [6.142811013317669, 7.692084967747121], [6.134211666235444, 7.688613215027885], [6.12753200479824, 7.683495044660617], [6.122308219848492, 7.682329482819398]]]}}, {"type": "Feature", "properties": {"name": "Adavi", "state": "ko"}, "geometry": {"type": "Polygon", "coordinates": [[[6.297750181425783, 7.533609143747015], [6.3006776878251, 7.534389877590854], [6.312870117861678, 7.543943289351375], [6.32738484023821, 7.547727042069369], [6.344850909142167, 7.545888356562443], [6.354043375301558, 7.544050150394185], [6.370224339981348, 7.542330954210229], [6.388587857643586, 7.536268924671162], [6.402734275266653, 7.5324966032357], [6.40882205959042, 7.527223110058515], [6.409740925703204, 7.546527386030107], [6.413790116021062, 7.553437034691456], [6.413418293119776, 7.568589210923392], [6.422610760178486, 7.582377912410777], [6.430883883584386, 7.593409059580495], [6.434560776158946, 7.609955310888949], [6.453865051231162, 7.626502037039415], [6.469753413389356, 7.6301350426981], [6.481241268669635, 7.628889486160915], [6.491803140602485, 7.629948094329166], [6.503900016772377, 7.629621877847455], [6.543032169299238, 7.686253071122394], [6.559578418809053, 7.699122429856288], [6.57060956957605, 7.701879978778038], [6.579802035735383, 7.71474981325332], [6.592671393570015, 7.72578048558097], [6.607379436012195, 7.727619171087952], [6.61749076828437, 7.734972954438319], [6.631279468872435, 7.746004105205316], [6.64139127688594, 7.748761654127065], [6.688272952235025, 7.780935287033913], [6.709415912814165, 7.783693314395009], [6.71033477712831, 7.786450863316759], [6.702845777110952, 7.799832109864042], [6.689976419276377, 7.817298176969359], [6.67802592575589, 7.826490644927389], [6.66975280055135, 7.8356831119861], [6.660695552857533, 7.844363689432782], [6.653341770406428, 7.848040581107966], [6.636795044255962, 7.848959922962138], [6.616351499921848, 7.859216055976276], [6.584013926901264, 7.824865742659938], [6.575536069234261, 7.826155579116744], [6.56735240229159, 7.826878123226834], [6.557745765954394, 7.82049890909741], [6.544195931597017, 7.808892452125008], [6.530511342824241, 7.797480639020307], [6.524146607779755, 7.791930660071955], [6.517833453351216, 7.777324454160293], [6.498908042871903, 7.777258396258048], [6.459380626614688, 7.74416542059771], [6.425368309100236, 7.723942280312031], [6.418933391862595, 7.713830471399206], [6.406983376781454, 7.703718661587004], [6.398710250677595, 7.698203087102854], [6.391355990686463, 7.682576180346473], [6.382163525426392, 7.671545028680157], [6.377567291897037, 7.664190768689082], [6.371132851300104, 7.658675670845582], [6.36135912092675, 7.640029296614784], [6.345067470387505, 7.630694188985672], [6.325578027603967, 7.627486480816458], [6.286807227171835, 7.593853653823089], [6.258337175120573, 7.578937552326238], [6.250370040644896, 7.582006796376618], [6.258292366399644, 7.602209132645385], [6.25641317722642, 7.60405699213652], [6.254793625925117, 7.606521961919043], [6.244791298679559, 7.60283602935931], [6.236388508323046, 7.614131326299741], [6.229887695960429, 7.618938353722115], [6.225466850015152, 7.620806500119954], [6.217044899602456, 7.617585231972953], [6.199865636190225, 7.596510662137405], [6.20455326062455, 7.588076369428961], [6.202737696687393, 7.588405505110018], [6.20067454939101, 7.590180524911318], [6.1773522464091, 7.586688371970865], [6.196280477162361, 7.567945314324845], [6.223361768231086, 7.551825020608248], [6.233961947685771, 7.558843739047347], [6.256227015764239, 7.548366069738393], [6.269185107007104, 7.546024485141913], [6.271560751627419, 7.548844911063838], [6.297750181425783, 7.533609143747015]]]}}, {"type": "Feature", "properties": {"name": "Ogori/Magongo", "state": "ko"}, "geometry": {"type": "Polygon", "coordinates": [[[6.158284188164828, 7.528297900627649], [6.146535873032178, 7.515995024850554], [6.110102176774092, 7.494141101630589], [6.110681955308053, 7.453675055759277], [6.112411976631449, 7.448655128231621], [6.118698119922328, 7.446270942749834], [6.142848015023901, 7.44957208598305], [6.170909881885564, 7.444097042144847], [6.173170090427391, 7.441164018404777], [6.174274921050824, 7.437656879161693], [6.175953865378631, 7.434145927692441], [6.179922104121829, 7.430033206567259], [6.182785033802304, 7.429427147145191], [6.186272144244128, 7.432896137147054], [6.186306953403232, 7.435811044044499], [6.186916827749428, 7.438720226757084], [6.219553444236112, 7.457786794824756], [6.221047878257025, 7.460009097841635], [6.223393916296232, 7.464070796829844], [6.225323200405398, 7.468395709394542], [6.206281662268964, 7.47042894434037], [6.202180861657496, 7.480681895553062], [6.19807958530464, 7.496060849328785], [6.172447681215544, 7.519642354011467], [6.158284188164828, 7.528297900627649]]]}}, {"type": "Feature", "properties": {"name": "Ajaokuta", "state": "ko"}, "geometry": {"type": "Polygon", "coordinates": [[[6.292051954634076, 7.500369628955241], [6.295480889731323, 7.499175627852992], [6.356912778302103, 7.414877315235969], [6.379771711895046, 7.398233711416708], [6.423872950576254, 7.417540847232374], [6.428203108886407, 7.415325460901329], [6.427671908132083, 7.410523890565173], [6.432164191724098, 7.402327061145002], [6.432106018178217, 7.397664070040832], [6.422241210763332, 7.388999939395717], [6.434144020430267, 7.376661776919491], [6.434676169969293, 7.373159885220559], [6.434604168447663, 7.367331981585721], [6.435657977833444, 7.359745025612483], [6.438507080437432, 7.357973098579691], [6.442511081621149, 7.35677385263125], [6.450531959582293, 7.355543136706444], [6.466869830778137, 7.36531877544121], [6.485763073407156, 7.341996192770125], [6.497326851253206, 7.33301019656335], [6.499695778837179, 7.292187215167871], [6.511441232327059, 7.26702499370856], [6.544260025379913, 7.274919033086974], [6.547352468341785, 7.274893585870359], [6.556313038016356, 7.274819851355119], [6.569521904312467, 7.275294782428318], [6.601942990176894, 7.283839002867751], [6.632309913871495, 7.292330837797977], [6.637670039640682, 7.294242953849277], [6.645201093755531, 7.281267399570879], [6.669155121012068, 7.239996051276819], [6.674722195173217, 7.232915018813117], [6.678113937008618, 7.231113051726027], [6.683232783666085, 7.229867076104711], [6.685336431930864, 7.223010159191517], [6.69015741323409, 7.219050979319263], [6.693788527618494, 7.243175982985292], [6.69286918576438, 7.257883548786822], [6.691030979596064, 7.276268482004866], [6.69286918576438, 7.294653416122287], [6.699304103901341, 7.32039260933152], [6.702980994677205, 7.348889350563127], [6.708496570960051, 7.369112491748126], [6.703900337430696, 7.395771026811474], [6.703806022829724, 7.401523533084628], [6.702980994677205, 7.451844691679241], [6.707601921791309, 7.484356165704526], [6.712050323863423, 7.506409721331636], [6.713092803590087, 7.512515067616334], [6.71033477712831, 7.538254260825511], [6.699304103901341, 7.574104786306918], [6.699304103901341, 7.589732170603213], [6.709415912814165, 7.617309569980705], [6.720446587839831, 7.637532710266441], [6.735154629382691, 7.650402069000336], [6.744347094642762, 7.670625686826043], [6.757874296661498, 7.75041180486096], [6.742134569055168, 7.784154627034468], [6.724976760768925, 7.785450085153343], [6.714931009758345, 7.780935287033913], [6.71033477712831, 7.786450863316759], [6.709415912814165, 7.783693314395009], [6.688272952235025, 7.780935287033913], [6.64139127688594, 7.748761654127065], [6.631279468872435, 7.746004105205316], [6.61749076828437, 7.734972954438319], [6.607379436012195, 7.727619171087952], [6.592671393570015, 7.72578048558097], [6.579802035735383, 7.71474981325332], [6.57060956957605, 7.701879978778038], [6.559578418809053, 7.699122429856288], [6.543032169299238, 7.686253071122394], [6.503900016772377, 7.629621877847455], [6.491803140602485, 7.629948094329166], [6.481241268669635, 7.628889486160915], [6.469753413389356, 7.6301350426981], [6.453865051231162, 7.626502037039415], [6.434560776158946, 7.609955310888949], [6.430883883584386, 7.593409059580495], [6.422610760178486, 7.582377912410777], [6.413418293119776, 7.568589210923392], [6.413790116021062, 7.553437034691456], [6.409740925703204, 7.546527386030107], [6.40882205959042, 7.527223110058515], [6.402734275266653, 7.5324966032357], [6.388587857643586, 7.536268924671162], [6.370224339981348, 7.542330954210229], [6.354043375301558, 7.544050150394185], [6.344850909142167, 7.545888356562443], [6.32738484023821, 7.547727042069369], [6.312870117861678, 7.543943289351375], [6.3006776878251, 7.534389877590854], [6.297750181425783, 7.533609143747015], [6.295628336278753, 7.518252772847234], [6.296834325343866, 7.50818117262304], [6.292051954634076, 7.500369628955241]]]}}, {"type": "Feature", "properties": {"name": "Dekina", "state": "ko"}, "geometry": {"type": "Polygon", "coordinates": [[[7.349126815650095, 7.846980095155288], [7.311329372152841, 7.801015868587513], [7.309873234861925, 7.794807903362084], [7.302103465602499, 7.7819092959773], [7.290882894230208, 7.77654273196157], [7.24183274388605, 7.783180770076513], [7.221533186407498, 7.785096246894341], [7.206943038790257, 7.785108644048705], [7.198236995241189, 7.780756169961307], [7.18164382899954, 7.769193973123436], [7.18058061630245, 7.76845312061505], [7.176750183374338, 7.76270723155352], [7.148020744361929, 7.725358963445444], [7.1371455774065, 7.716296023043071], [7.130535726742437, 7.709391937587895], [7.121523330937009, 7.700542034887064], [7.108322566633205, 7.693181413991113], [7.084608047723293, 7.691489088650542], [7.053126021348874, 7.69706538715792], [7.030684705934505, 7.702306812309587], [7.01978303415973, 7.70376622942797], [7.01278317000731, 7.699388871998906], [7.005520835118489, 7.698107154621539], [6.994717087823403, 7.680271512920058], [6.982132220625545, 7.677045427104815], [6.969846452651723, 7.673681605621653], [6.96127939213028, 7.658323764330305], [6.949308870707853, 7.642522335137699], [6.933627982145708, 7.633132037013922], [6.918185234061355, 7.627200126784487], [6.909087657169664, 7.624327182253694], [6.876527786128463, 7.620017529385507], [6.853866262717872, 7.608950826619377], [6.841094493915818, 7.601343632302815], [6.831996917923448, 7.591288090373098], [6.825293541363919, 7.582190514380784], [6.821463108435751, 7.571177483154372], [6.817501069618743, 7.526123954157185], [6.814149379989942, 7.516068887968856], [6.80751573776115, 7.499282330615131], [6.799273941339379, 7.483502883551296], [6.800144724299628, 7.468407501305194], [6.814466265106091, 7.459186716393901], [6.813199043001475, 7.452984809901125], [6.818110943065619, 7.451950550877257], [6.822899341931134, 7.448598862147833], [6.827208995698641, 7.442852973985623], [6.83295488386085, 7.439501286155462], [6.83726406098765, 7.435191630589316], [6.84223691889872, 7.422569309326207], [6.846062123168508, 7.414640301608699], [6.870136055234809, 7.411431470186244], [6.875881943397019, 7.413346926319662], [6.878119456647653, 7.415979369652234], [6.908327914401752, 7.416058417362137], [6.942838875413827, 7.420716117754694], [6.953553661772105, 7.419728734093837], [6.962463693144969, 7.415778292034588], [6.967025280292489, 7.413165569035812], [6.975644112086172, 7.413644791673846], [6.982826710384415, 7.416996478604631], [6.992881774774162, 7.416038512667285], [7.002937316703878, 7.412208080638436], [7.012879295842879, 7.412622260708815], [7.014429092128921, 7.412686824837124], [7.020653725389138, 7.417475223702638], [7.028314590346099, 7.432797432955226], [7.029751301381509, 7.44572591761704], [7.034340167664652, 7.455495305164277], [7.042129132953164, 7.47411549203639], [7.048621471004139, 7.48190024579975], [7.062787135917631, 7.481290186193178], [7.082409795275908, 7.481707030954738], [7.103612505912452, 7.4812589716243], [7.121075973977042, 7.472454904670144], [7.124172419821377, 7.467836447993704], [7.125644608212156, 7.455564420761448], [7.131229701189795, 7.447756507656777], [7.135797856086242, 7.442366378705458], [7.137653864334425, 7.438250341779906], [7.13507211758423, 7.432040986202594], [7.13137851110946, 7.427129767824567], [7.130057915140696, 7.422016994288924], [7.136789577177296, 7.396034690948284], [7.132698536008661, 7.375817299129096], [7.148083210371908, 7.355830668850331], [7.164544106125618, 7.351550579395791], [7.213268280107116, 7.351880074805649], [7.235733522883834, 7.359156255656728], [7.251176487704811, 7.359825913335271], [7.267959311073412, 7.358535234213718], [7.285395678967461, 7.356738237679565], [7.310121197735157, 7.35333455374672], [7.331939618418687, 7.358280312386569], [7.341441595253457, 7.36344894371382], [7.351305669720944, 7.36433645406413], [7.35991387692394, 7.363057343821424], [7.361626591693891, 7.369305163402601], [7.369514621802409, 7.376636122858827], [7.377890041292403, 7.375136808217178], [7.394345917929797, 7.37398274240968], [7.401256000963713, 7.382120564612421], [7.435082574301418, 7.388402127656093], [7.439220480041172, 7.395981457378412], [7.443718909600022, 7.398957730414963], [7.450632571935671, 7.399286747385531], [7.455351273342615, 7.400293879259152], [7.461122653687539, 7.401062801407193], [7.459980240395851, 7.405923259350971], [7.456643133274042, 7.412148824308815], [7.452154398406833, 7.418857791953599], [7.448032333325557, 7.434546438967061], [7.446156166773733, 7.449556997157742], [7.450301833662763, 7.513271760783198], [7.461067935336985, 7.552950032917749], [7.457156484284383, 7.571131740037799], [7.454392433264218, 7.574356556010287], [7.453712939700438, 7.588623046616362], [7.440125465118172, 7.630064964826317], [7.442842960034625, 7.653842926409993], [7.443522452699085, 7.667429924351552], [7.442163467370165, 7.687811374995022], [7.436728476637938, 7.700039864248367], [7.428576469428549, 7.717024326411604], [7.41227149992983, 7.736725806850529], [7.402081012928477, 7.761862754662445], [7.388493538346154, 7.786999225833654], [7.355204104885559, 7.827082156916049], [7.349126815650095, 7.846980095155288]]]}}, {"type": "Feature", "properties": {"name": "Ofu", "state": "ko"}, "geometry": {"type": "Polygon", "coordinates": [[[6.707601921791309, 7.484356165704526], [6.702980994677205, 7.451844691679241], [6.703806022829724, 7.401523533084628], [6.703900337430696, 7.395771026811474], [6.708496570960051, 7.369112491748126], [6.691030979596064, 7.276268482004866], [6.69286918576438, 7.257883548786822], [6.693788527618494, 7.243175982985292], [6.69015741323409, 7.219050979319263], [6.693305016113641, 7.216476058423382], [6.714468054057477, 7.219664200942191], [6.729198721643741, 7.228911671436549], [6.737773132324264, 7.241608194862351], [6.74037167661163, 7.260836443047481], [6.745665959416556, 7.27788553498948], [6.752991199184521, 7.289628982991246], [6.761104231575075, 7.288655573895653], [6.764961719707628, 7.288192748596543], [6.77022886277183, 7.280531406099556], [6.790242593221137, 7.27810687523214], [6.809803943996883, 7.251941835947036], [6.811886310704722, 7.246534824022945], [6.817153453768924, 7.245577334726249], [6.827687739897328, 7.242225646896145], [6.834139710978945, 7.238193031982917], [6.839179516221748, 7.235043048597845], [6.84444665928595, 7.23552227033656], [6.864078044766018, 7.22977638307367], [6.875569820191117, 7.224987984208155], [6.918185234061355, 7.199610233025908], [6.949308871607172, 7.192428112267635], [6.990008831142688, 7.194821835059713], [6.998148917838364, 7.19913148882722], [7.009161949064719, 7.200088978123915], [7.019695758552473, 7.201525688259949], [7.03166675571623, 7.205834866286125], [7.03741264297912, 7.211102009350327], [7.041243075907289, 7.217326640811848], [7.042679310301992, 7.22403049491146], [7.044116020438025, 7.236001015434567], [7.045552253933408, 7.24126815759945], [7.04315853114133, 7.248450279257042], [7.044116020438025, 7.259942054682142], [7.046492262208176, 7.262318297351612], [7.047946453366194, 7.263772487610254], [7.051298141196298, 7.261857509916183], [7.064705371855496, 7.252759933024549], [7.099180698130738, 7.247014045761659], [7.10444784209426, 7.244141102130186], [7.111795778952057, 7.241820681279478], [7.11354541808663, 7.24126815759945], [7.136889935222371, 7.239288329792657], [7.140840530166372, 7.238300800441664], [7.145090004000508, 7.233802178427823], [7.162079982605178, 7.228492404800704], [7.165531634577349, 7.239617347662488], [7.178041935387057, 7.240605353654189], [7.189564705047133, 7.241263390293284], [7.202404021928146, 7.238958836181382], [7.210815897235932, 7.236074695091133], [7.213926314947514, 7.235008240338061], [7.216560363569954, 7.231716155975846], [7.221169471793758, 7.227436543162014], [7.223253953707058, 7.225126680352048], [7.223986251864062, 7.211446291413267], [7.223799152409015, 7.198103100577669], [7.227375070902838, 7.173208075792104], [7.242269905231979, 7.168344477415758], [7.261939718743065, 7.165883970069217], [7.272522849749748, 7.169315203833662], [7.287330150366188, 7.171764823088154], [7.307423592225064, 7.18332147560568], [7.330139637034677, 7.207354546075464], [7.346271038277848, 7.246860026968704], [7.344954491056967, 7.253444672333785], [7.35430707071481, 7.278249051752368], [7.352341211177986, 7.290613803584222], [7.355492439224747, 7.297579903589735], [7.371433554714827, 7.303597571370858], [7.380973712267064, 7.304419247750104], [7.386684544855882, 7.308836696056744], [7.395754350682807, 7.303152165040444], [7.396440585564619, 7.306638854599498], [7.396628748018372, 7.309485118043824], [7.395406812174713, 7.313906891190129], [7.385996541906934, 7.317256415251393], [7.381813187128955, 7.32507910241867], [7.379834236161116, 7.327539052185557], [7.37891418024526, 7.331471398985911], [7.382731474078298, 7.332951755019508], [7.368140411850561, 7.360449791924395], [7.377890041292403, 7.375136808217178], [7.369514621802409, 7.376636122858827], [7.361626591693891, 7.369305163402601], [7.35991387692394, 7.363057343821424], [7.351305669720944, 7.36433645406413], [7.341441595253457, 7.36344894371382], [7.331939618418687, 7.358280312386569], [7.310121197735157, 7.35333455374672], [7.285395678967461, 7.356738237679565], [7.267959311073412, 7.358535234213718], [7.251176487704811, 7.359825913335271], [7.196807384353349, 7.350563049145478], [7.179687977118476, 7.350892067015309], [7.172146616772977, 7.351219994007579], [7.164544106125618, 7.351550579395791], [7.148083210371908, 7.355830668850331], [7.132698536008661, 7.375817299129096], [7.136789577177296, 7.396034690948284], [7.130057915140696, 7.422016994288924], [7.13137851110946, 7.427129767824567], [7.13507211758423, 7.432040986202594], [7.137653864334425, 7.438250341779906], [7.135797856086242, 7.442366378705458], [7.131229701189795, 7.447756507656777], [7.125644608212156, 7.455564420761448], [7.124172419821377, 7.467836447993704], [7.121075973977042, 7.472454904670144], [7.103612505912452, 7.4812589716243], [7.082409795275908, 7.481707030954738], [7.062787135917631, 7.481290186193178], [7.048621471004139, 7.48190024579975], [7.042129132953164, 7.47411549203639], [7.034340167664652, 7.455495305164277], [7.029751301381509, 7.44572591761704], [7.028314590346099, 7.432797432955226], [7.020653725389138, 7.417475223702638], [7.014429092128921, 7.412686824837124], [7.012879295842879, 7.412622260708815], [7.002937316703878, 7.412208080638436], [6.992881774774162, 7.416038512667285], [6.982826710384415, 7.416996478604631], [6.975644112086172, 7.413644791673846], [6.967025280292489, 7.413165569035812], [6.962463693144969, 7.415778292034588], [6.953553661772105, 7.419728734093837], [6.942838875413827, 7.420716117754694], [6.908327914401752, 7.416058417362137], [6.878119456647653, 7.415979369652234], [6.875881943397019, 7.413346926319662], [6.870136055234809, 7.411431470186244], [6.846062123168508, 7.414640301608699], [6.84223691889872, 7.422569309326207], [6.83726406098765, 7.435191630589316], [6.818110943065619, 7.451950550877257], [6.813199043001475, 7.452984809901125], [6.807577132678603, 7.444767950780374], [6.794648647117413, 7.44189500804822], [6.785072326926411, 7.443810463282318], [6.774538039898687, 7.451950549977937], [6.769270896834485, 7.458653927436842], [6.765440463906316, 7.468230245829204], [6.75873708824605, 7.477328299361602], [6.754427432679904, 7.480201243892338], [6.739105226125332, 7.481158733189034], [6.727521305264077, 7.478374381772369], [6.707601921791309, 7.484356165704526]]]}}, {"type": "Feature", "properties": {"name": "Igalamela-Odolu", "state": "ko"}, "geometry": {"type": "Polygon", "coordinates": [[[7.351371635892349, 7.033356743718798], [7.35248484010333, 7.033782392843193], [7.353936672339614, 7.034337520959866], [7.366837025308541, 7.039865971937104], [7.367204077306383, 7.088858070143885], [7.350328752370046, 7.094373758841925], [7.337382317240213, 7.096079350081993], [7.327176571441669, 7.100359440435852], [7.313020228900484, 7.102005482167328], [7.292938231813991, 7.105626582600735], [7.28898763686999, 7.108589649093062], [7.284708023156782, 7.112540244936383], [7.29820585331754, 7.165215014761145], [7.301497935881059, 7.173115729807137], [7.307423592225064, 7.18332147560568], [7.287330150366188, 7.171764823088154], [7.272522849749748, 7.169315203833662], [7.261939718743065, 7.165883970069217], [7.242269905231979, 7.168344477415758], [7.227375070902838, 7.173208075792104], [7.223799152409015, 7.198103100577669], [7.223986251864062, 7.211446291413267], [7.223253953707058, 7.225126680352048], [7.221169471793758, 7.227436543162014], [7.216560363569954, 7.231716155975846], [7.213926314947514, 7.235008240338061], [7.210815897235932, 7.236074695091133], [7.202404021928146, 7.238958836181382], [7.189564705047133, 7.241263390293284], [7.178041935387057, 7.240605353654189], [7.165531634577349, 7.239617347662488], [7.162079982605178, 7.228492404800704], [7.145090004000508, 7.233802178427823], [7.140840530166372, 7.238300800441664], [7.136889935222371, 7.239288329792657], [7.11354541808663, 7.24126815759945], [7.111795778952057, 7.241820681279478], [7.10444784209426, 7.244141102130186], [7.099180698130738, 7.247014045761659], [7.064705371855496, 7.252759933024549], [7.051298141196298, 7.261857509916183], [7.047946453366194, 7.263772487610254], [7.046492262208176, 7.262318297351612], [7.044116020438025, 7.259942054682142], [7.04315853114133, 7.248450279257042], [7.045552253933408, 7.24126815759945], [7.044116020438025, 7.236001015434567], [7.042679310301992, 7.22403049491146], [7.041243075907289, 7.217326640811848], [7.03741264297912, 7.211102009350327], [7.03166675571623, 7.205834866286125], [7.019695758552473, 7.201525688259949], [7.009161949064719, 7.200088978123915], [6.998148917838364, 7.19913148882722], [6.990008831142688, 7.194821835059713], [6.949308871607172, 7.192428112267635], [6.918185234061355, 7.199610233025908], [6.875569820191117, 7.224987984208155], [6.864078044766018, 7.22977638307367], [6.84444665928595, 7.23552227033656], [6.839179516221748, 7.235043048597845], [6.834139710978945, 7.238193031982917], [6.827687739897328, 7.242225646896145], [6.817153453768924, 7.245577334726249], [6.811886310704722, 7.246534824022945], [6.809803943996883, 7.251941835947036], [6.790242593221137, 7.27810687523214], [6.77022886277183, 7.280531406099556], [6.764961719707628, 7.288192748596543], [6.761104231575075, 7.288655573895653], [6.752991199184521, 7.289628982991246], [6.745665959416556, 7.27788553498948], [6.74037167661163, 7.260836443047481], [6.737773132324264, 7.241608194862351], [6.729198721643741, 7.228911671436549], [6.714468054057477, 7.219664200942191], [6.693305016113641, 7.216476058423382], [6.699958250073223, 7.185859474834956], [6.700792788556384, 7.178488255428704], [6.715768813679858, 7.135699272403542], [6.715768813679858, 7.122821331439354], [6.72010326355479, 7.12373352188456], [6.723037135355582, 7.1281308163841], [6.723533561125009, 7.131172534884627], [6.742740831724063, 7.137537375149805], [6.748906181675011, 7.130433045748532], [6.753551555060255, 7.139595539302718], [6.769554813703735, 7.123046399371901], [6.775972839874726, 7.12314742471392], [6.783805805393627, 7.122739805197909], [6.789048890693778, 7.122424331118054], [6.791851556803977, 7.120235893871438], [6.793681563853113, 7.117064134302382], [6.785814763140877, 7.108023437731504], [6.788034044435676, 7.089056703404196], [6.787299744387724, 7.085701233025532], [6.786073984626739, 7.083997303732644], [6.78361902339924, 7.079922388307637], [6.781989230618535, 7.063776935157478], [6.785373876803021, 7.039154045223029], [6.789304517589471, 7.040786732022127], [6.792926014623902, 7.042533552681334], [6.795121331684186, 7.04448953586342], [6.796937183404339, 7.048736121974514], [6.800261693722234, 7.052344159755194], [6.808808559967133, 7.060700540597509], [6.81969030006735, 7.059150634594175], [6.834548714551602, 7.040853933862024], [6.835658073261527, 7.017067908956903], [6.846851349310384, 7.013446330983413], [6.85310649926555, 7.013446330983413], [6.863970279904549, 7.011471272281426], [6.867262840008095, 7.016738415345628], [6.869237899609402, 7.02167701718065], [6.872529983971617, 7.022006035050538], [6.883394241251267, 7.015092372714889], [6.901171684225915, 7.016080378706533], [6.906439303930767, 7.0124588007331], [6.905780792449661, 7.006203650777934], [6.901830195707021, 7.001265525583563], [6.89524602878123, 6.998302459990612], [6.892612456799498, 6.994351864147234], [6.894587517300124, 6.98776769632218], [6.900608984716939, 6.981023861062397], [6.904735108438558, 6.976968780185132], [6.923207893729341, 6.975230964437515], [6.942112637788057, 6.965403953729549], [6.953757592938587, 6.953927340874145], [6.964425995863053, 6.961855952889948], [6.965937688773352, 6.909477652671569], [6.965414842720861, 6.902092550430893], [6.962076663607206, 6.897562504306165], [6.960759639745618, 6.890978335581792], [6.962735175987632, 6.87122535726445], [6.96306419385752, 6.859703064245082], [6.961418152126043, 6.848509789994864], [6.960817336650791, 6.840898991195559], [6.963210582802219, 6.844488620753282], [6.97817802389676, 6.850002767114063], [6.986843108722553, 6.844488620753282], [6.989994525626912, 6.833460330729736], [6.989994525626912, 6.823219299131381], [6.98772943196775, 6.812959028336536], [6.987000849809419, 6.806676387905043], [6.985336650765873, 6.798799038145148], [6.986094808928328, 6.788585116609909], [6.990782260692811, 6.785407066283142], [6.999981550008556, 6.785407066283142], [7.004961490980065, 6.785407066283142], [7.020716667140505, 6.789345740713429], [7.030169963672961, 6.785407066283142], [7.041985988762406, 6.783043861085389], [7.043778623584672, 6.783465643124998], [7.055377959725092, 6.786194801349041], [7.060104370120655, 6.794860362815541], [7.07428407704856, 6.798799038145148], [7.081373691742556, 6.800374508277002], [7.093190192573388, 6.819280623801774], [7.101067543232602, 6.828733443693523], [7.112884044962755, 6.837399006059343], [7.119973659656694, 6.848427296082889], [7.134153365685336, 6.854729652351637], [7.146757603380763, 6.864182472243328], [7.152271747942848, 6.875998973973537], [7.156210423272455, 6.883088588667476], [7.170144404840471, 6.883862673823387], [7.171997536157392, 6.887652226269267], [7.173163106092545, 6.890642854284351], [7.175904273863182, 6.896480559630163], [7.18229529519175, 6.899036864559719], [7.187720775593391, 6.901206970025669], [7.202820903561872, 6.902305179840198], [7.210115060961357, 6.903500398624544], [7.215421347017582, 6.915456644208803], [7.217777169680687, 6.92533943266875], [7.228156576364938, 6.929007028951276], [7.232916608814492, 6.929730423820047], [7.235174501601989, 6.933351681634861], [7.238924502763666, 6.941382408071718], [7.238136767697711, 6.957925320197432], [7.24128818460207, 6.971317291160119], [7.29327964773762, 6.994162083813194], [7.31014394788491, 7.003999710118592], [7.312185764161711, 7.005190372038101], [7.316390393302072, 7.010501446984222], [7.327153206155572, 7.024096489361568], [7.351371635892349, 7.033356743718798]]]}}]}