{"type": "FeatureCollection", "features": [{"type": "Feature", "properties": {"name": "Oyun", "state": "kw"}, "geometry": {"type": "Polygon", "coordinates": [[[4.799294949002729, 8.065057754811562], [4.819352617629249, 8.081719890960244], [4.816680939573757, 8.083914311396427], [4.817004611873415, 8.088692936429936], [4.81915941627409, 8.101552297400644], [4.814655751761563, 8.118032361304472], [4.814984517821301, 8.131130532747932], [4.810516874754001, 8.14334753675945], [4.805983423796022, 8.148360455870375], [4.799518122063716, 8.16373798871723], [4.791996501837161, 8.171760391928615], [4.785875347269496, 8.180083935825053], [4.772659360141404, 8.186733969996794], [4.759480974567396, 8.194097807767662], [4.739299130250686, 8.197135152865087], [4.735305009918306, 8.203248373613576], [4.737636909715661, 8.207644149158227], [4.747418879677582, 8.20971870435477], [4.744415283438627, 8.215726851912734], [4.742851895698493, 8.219146542878718], [4.737548828315823, 8.230746268425605], [4.712099133168522, 8.250644255228224], [4.705716370314292, 8.25511445776607], [4.692638775359228, 8.277936220580159], [4.688286481136231, 8.286039917108553], [4.68783757824167, 8.29326334192973], [4.688742610982786, 8.300910072242061], [4.691202163249272, 8.31528663626932], [4.684711702083405, 8.314651429819662], [4.678999071749786, 8.311471930685116], [4.67143569060471, 8.3017420431608], [4.667054885174878, 8.30850228025605], [4.656229472312361, 8.31736063568485], [4.650237052997625, 8.323711842227794], [4.641379072586176, 8.328098801718397], [4.637989520599945, 8.326872826120052], [4.628977775903707, 8.308849334029617], [4.627690314556446, 8.303270340254073], [4.624257087894364, 8.288680076624303], [4.622111795622914, 8.281384467719079], [4.617850805070645, 8.277732215669289], [4.601084231552079, 8.263360977427226], [4.59078502730722, 8.25134467961334], [4.584776877950617, 8.24018764534361], [4.583060264619576, 8.235037802652528], [4.583060264619576, 8.229458807977664], [4.583060264619576, 8.220018387038976], [4.584776877950617, 8.212722778133752], [4.597651004889997, 8.186116219388055], [4.594646931111015, 8.171096801975864], [4.591642857332033, 8.166805266849622], [4.584347725067516, 8.159081459241975], [4.578373840780159, 8.156143497324592], [4.568399865561389, 8.152459163759431], [4.57291482286081, 8.126360087947774], [4.568256299588597, 8.125701267999148], [4.54931798024063, 8.108778600951723], [4.544469313308184, 8.107366778653954], [4.541474549311033, 8.105954950960268], [4.539335430885501, 8.104260749633909], [4.527365324050493, 8.076054432765886], [4.533486842843558, 8.071575165061859], [4.557268141811335, 8.05866527478264], [4.568998335604761, 8.05475616466532], [4.598083019415867, 8.063862801327275], [4.603038786610739, 8.0680561071037], [4.612950324597875, 8.073011397657922], [4.617896712763127, 8.074516726965442], [4.621718406978971, 8.075679778798815], [4.62896108628513, 8.07453632409215], [4.633916854379379, 8.071486473022333], [4.634137629847771, 8.06817627001891], [4.632392404585858, 8.061194420186382], [4.637353216078111, 8.053585696123037], [4.642684935861155, 8.053188324381722], [4.648403167172489, 8.05356979431059], [4.653358936166001, 8.050519943240829], [4.659458159866233, 8.045564650887968], [4.665557383566465, 8.043276787293962], [4.673563002730418, 8.045946120816893], [4.675087928265327, 8.049757955765074], [4.687286376565055, 8.057001112611317], [4.704441069599739, 8.048233031129541], [4.70558834102917, 8.051510810875243], [4.711684226445925, 8.05966949465153], [4.721214293604817, 8.064244270356824], [4.779158114855193, 8.068437576133306], [4.785638809383613, 8.068437576133306], [4.795029421370771, 8.065749470161961], [4.799294949002729, 8.065057754811562]], [[4.650434493756904, 8.162513732622699], [4.654726027983827, 8.169380187745503], [4.658587932686999, 8.174959183319686], [4.663737773579442, 8.18182563844249], [4.667337445866508, 8.192625054602615], [4.668006455133821, 8.19466809935335], [4.669745445396018, 8.198132515403302], [4.687340260344797, 8.214868546146533], [4.693777084145154, 8.217443465243775], [4.711567883850819, 8.210653180000293], [4.723483316401996, 8.193581720120335], [4.725801620248603, 8.17559845920158], [4.729770458839653, 8.173661940046543], [4.726703873185272, 8.168580994417425], [4.728541024448759, 8.167473275171574], [4.727253819408304, 8.16492086520583], [4.728422499199041, 8.164192658964112], [4.729423458126121, 8.163235092325692], [4.731473496005094, 8.161804119864314], [4.734301743330832, 8.164182080238845], [4.737258248369528, 8.167042320946393], [4.737806668443056, 8.167129134302172], [4.73805235513214, 8.166955279162835], [4.739081201136571, 8.16454621213802], [4.740468292078049, 8.15882990807387], [4.738649090383262, 8.158226439598536], [4.734197046956183, 8.159087583625137], [4.733208685732336, 8.15504159309512], [4.734306459375659, 8.154540659923555], [4.738551111944332, 8.148307305038145], [4.743352174163533, 8.152371052681985], [4.749836626958825, 8.151912970407295], [4.753795921944288, 8.152647838826738], [4.757347663963571, 8.150495556125065], [4.754090287137103, 8.143752943943241], [4.754533033272935, 8.14079477875606], [4.758401780018175, 8.13772102460564], [4.72776174840601, 8.123550848692787], [4.717588860237754, 8.123197200190702], [4.715001863245448, 8.123190957996371], [4.697219652065314, 8.131531722111333], [4.694700651913593, 8.130793938089823], [4.688570276597034, 8.125834053798599], [4.684548415776817, 8.124558939243684], [4.681508010286507, 8.127615842796956], [4.679237617821855, 8.131974810888835], [4.674144046610536, 8.130734269870686], [4.672089671301364, 8.133033975737419], [4.672375421888262, 8.135254412661084], [4.671804443220537, 8.13829746395686], [4.659285534999469, 8.144512941219318], [4.650574477730004, 8.144354082275129], [4.650434493756904, 8.162513732622699]]]}}, {"type": "Feature", "properties": {"name": "Baruten", "state": "kw"}, "geometry": {"type": "Polygon", "coordinates": [[[2.756388662406891, 8.575206047321274], [2.785398357148495, 8.597389790606428], [2.802357195827994, 8.610358232146723], [2.88843512288264, 8.608820911256089], [2.920714375767886, 8.611895555735373], [2.931538542170017, 8.625039160029246], [2.942233799750113, 8.638026232824416], [2.947701025781782, 8.643493422883182], [3.005345881807045, 8.70113789939461], [3.014477966584934, 8.710269923917906], [3.051368474375636, 8.72871589322392], [3.103630065075492, 8.750234600446504], [3.131298063055226, 8.777902600224877], [3.163577315940415, 8.808645245381797], [3.183559654654402, 8.811718938378363], [3.197393654093901, 8.796348568631572], [3.237358330622499, 8.782514568292754], [3.281934498578323, 8.8040332764146], [3.284419354169927, 8.804973501425991], [3.338807343284316, 8.825552936918541], [3.387994765246276, 8.842461584434602], [3.416131495272339, 8.860165594166858], [3.419186072279444, 8.862087567687126], [3.524797200430498, 8.928539274068271], [3.599984013751282, 8.956908512118162], [3.601044979941946, 8.963438058719476], [3.599815952943914, 8.976571224582415], [3.594447886161049, 8.989114108729211], [3.593255469664257, 8.995438495690053], [3.595700863903801, 8.999334614201132], [3.607926198335406, 8.999329428710212], [3.617450008910851, 9.003244890739154], [3.638431669785803, 8.998915615563249], [3.654112545757414, 9.001479268853245], [3.660477585672083, 8.99845554668616], [3.673755352627495, 9.004608671253209], [3.687058409418114, 9.003429016136238], [3.691454540194911, 8.996621755289823], [3.720384973188004, 9.016023610401362], [3.735949567718421, 9.036459005978372], [3.743066311361247, 9.04689693424615], [3.74627344036702, 9.060794301715703], [3.752289055895289, 9.086861608976108], [3.752545349188551, 9.092500135173168], [3.753826140264209, 9.120677947129593], [3.7707343102403, 9.146808623319373], [3.755760592777165, 9.204465932256994], [3.746883046715254, 9.2595780168121], [3.724016260242252, 9.364848976399173], [3.718631494847671, 9.416919891939528], [3.717068449749206, 9.530305705943647], [3.67670162787789, 9.632488847782156], [3.699109735825687, 9.698893310078233], [3.719432086621566, 9.766043929983425], [3.798747620906056, 10.028124203269442], [3.796932934707229, 10.066102979768743], [3.794020890351874, 10.062462805614018], [3.784556388266765, 10.062462805614018], [3.780188320834384, 10.052269935409242], [3.784556388266765, 10.04571819084191], [3.78819656332081, 10.03843784073382], [3.78819656332081, 10.034069059239755], [3.783828495888429, 10.03115749242437], [3.775092125401329, 10.033341406980412], [3.772180080146654, 10.040621757088445], [3.771451949447965, 10.047174452239233], [3.750339030721761, 10.068286895224105], [3.7459709641887, 10.077023504031558], [3.743058919833345, 10.084303854139591], [3.735050439026566, 10.087943075912278], [3.734322548446926, 10.079935071746206], [3.736506700423945, 10.074838636194158], [3.736506700423945, 10.068286895224105], [3.730682371594241, 10.068286895224105], [3.715393780798365, 10.089399337309601], [3.714665650099732, 10.101776121171099], [3.71248173644301, 10.108327864839111], [3.709280156254238, 10.113816459661905], [3.684285566625647, 10.15666566039198], [3.684444425569836, 10.151109694656725], [3.679974305769633, 10.12017361701885], [3.675833223624409, 10.103333471762369], [3.60944414063465, 9.94805526463881], [3.606388568077989, 9.943887709150488], [3.558888434353833, 9.880277632007164], [3.525277614670244, 9.844165800411417], [3.52111101066464, 9.844444272784983], [3.512221812087034, 9.849443434067268], [3.501944063867484, 9.853332518081288], [3.483888625159977, 9.856666563011515], [3.476943967690033, 9.856943127923046], [3.471388815841237, 9.855833049755518], [3.366577676918325, 9.837271317917043], [3.352871981057149, 9.82413669335375], [3.341165032939955, 9.80786118024929], [3.33345557941152, 9.791300130596596], [3.331171296917887, 9.781020858925558], [3.331456831667481, 9.774168012343921], [3.330832956675636, 9.768888471226035], [3.331110953307871, 9.755832668642768], [3.337222098421137, 9.734998699830157], [3.352777480296538, 9.703054424622053], [3.320987204096241, 9.672612616179322], [3.285580824095803, 9.636444808980798], [3.254708522780163, 9.597927936625013], [3.245605879108098, 9.586571305921098], [3.205122121988381, 9.531376343443526], [3.171388624885196, 9.496387478199608], [3.141666411675601, 9.44111060726874], [3.141944407408516, 9.429164881953795], [3.144999979965178, 9.41888808791498], [3.166944026045996, 9.365833278982677], [3.166710518875391, 9.339327732089203], [3.166388509422234, 9.302776332561734], [3.130411676857477, 9.192254854777786], [3.094999789408803, 9.090555186672589], [3.004999635624756, 9.065277093862846], [2.987499712641693, 9.061109538374524], [2.967930003566835, 9.081300724848631], [2.905071310892311, 9.079170126600104], [2.814221715060171, 9.065156215986633], [2.794722077561858, 9.056943886751014], [2.789443969063996, 9.043888085966444], [2.783055303959145, 9.016666407129037], [2.742957589820946, 8.770763390618015], [2.746944424745436, 8.719444268738073], [2.756388662406891, 8.581943506387745], [2.756388662406891, 8.575206047321274]]]}}, {"type": "Feature", "properties": {"name": "Kaiama", "state": "kw"}, "geometry": {"type": "Polygon", "coordinates": [[[3.7707343102403, 9.146808623319373], [3.795327901161784, 9.16525363664607], [3.808626402886205, 9.172568206857306], [3.810251235006547, 9.173461912637208], [3.826070068778677, 9.182162284162132], [3.862960575670058, 9.188310621637925], [3.898133044704309, 9.179054573409871], [3.910963165118005, 9.175678175807207], [3.921370743964701, 9.172939300408416], [3.944427252315904, 9.148345946008646], [3.952017587042064, 9.128948362676852], [3.972095251194958, 9.077638625222448], [3.979052720406742, 9.066622503925487], [3.990596574672225, 9.04839725702783], [4.012060165144533, 9.034599303315247], [4.210460186288628, 8.970032691055906], [4.253385544307491, 8.966966627907595], [4.27336835786349, 8.979264258838498], [4.290276526940204, 8.99156093468946], [4.316407204029304, 8.997709273064572], [4.325629711142312, 8.994634626786649], [4.329013347388127, 8.989559174216538], [4.334852218255321, 8.98080062914579], [4.428131579908552, 9.036071775891799], [4.443685055221181, 9.041971206206256], [4.459239006275141, 9.046798705795709], [4.471038341746123, 9.053234099674], [4.488201140370393, 9.059670446833707], [4.502146243854099, 9.068251608724836], [4.524136066326435, 9.074151992320651], [4.549880026841834, 9.074687957683125], [4.58796024237131, 9.082733154211724], [4.603514194324646, 9.084342001782034], [4.607569405603613, 9.082652255697099], [4.609950065742964, 9.081660271104681], [4.629794597742546, 9.081660271104681], [4.636433637702282, 9.08137156084888], [4.669454297078175, 9.071609715915713], [4.670349859058774, 9.064741631221352], [4.679488123977762, 9.05893497406987], [4.683135417165829, 9.073378354127783], [4.721105679783363, 9.065513096652126], [4.723126819746994, 9.075352577359581], [4.736021652677152, 9.084706937675094], [4.748791934899941, 9.087962692124563], [4.752640392040519, 9.106733862577755], [4.756572666895124, 9.134564085664067], [4.764554977430294, 9.14993190763147], [4.751920699680568, 9.179856300128222], [4.751920699680568, 9.199497222918524], [4.757158279331179, 9.224376677741532], [4.754539488606554, 9.247945786169169], [4.737516879900113, 9.268896102972803], [4.722918563740791, 9.274573701115457], [4.713947295731145, 9.278062819743411], [4.685140131911623, 9.292466163782478], [4.639310360284924, 9.308178900935559], [4.617050171028609, 9.3304395677319], [4.609726906171829, 9.361758232256648], [4.578422546263539, 9.388053893572362], [4.501166820092749, 9.440430639762269], [4.489284952038929, 9.454742751177093], [4.444304787036344, 9.508922876389704], [4.44355201671226, 9.509829519816549], [4.387247085784452, 9.562206267805038], [4.350583553388333, 9.588395119339339], [4.282493590706679, 9.694458008430388], [4.171192646223687, 9.820162771794514], [4.152861117446662, 9.862063407200537], [4.143142663003516, 9.860983622696097], [4.141076086592193, 9.860754012287885], [4.127982140163681, 9.851588247899372], [4.118815898235141, 9.85551643263733], [4.122744082973099, 9.860754012287885], [4.124053477885752, 9.875158308709047], [4.114887714396559, 9.881705284171574], [4.095246314066173, 9.877777099433615], [4.095246314066173, 9.867301940132506], [4.083461759852355, 9.851588247899372], [4.080842970926426, 9.851588247899372], [4.07822418200044, 9.854207037724677], [4.070367334984553, 9.856825829348622], [4.057273386757458, 9.856825829348622], [4.052035808905487, 9.863373755394548], [4.038941383138365, 9.8646831503072], [4.027156829823866, 9.856825829348622], [4.021918772633285, 9.856825828449246], [4.020609378619952, 9.860754012287885], [4.01668119388205, 9.868611335045102], [4.012753009144092, 9.885633468010212], [4.011443614231439, 9.898727416237307], [4.002277849842926, 9.906583784813847], [3.994421004625735, 9.90003681114996], [3.985255240237223, 9.893489836586753], [3.982636212990883, 9.898727416237307], [3.980017424064897, 9.906583784813847], [3.967250585346278, 9.902983663765099], [3.962340355323192, 9.9078931797265], [3.95415639789951, 9.9078931797265], [3.945972443173787, 9.9078931797265], [3.936151980429599, 9.91607761289157], [3.934515236788798, 9.927535055798216], [3.942698955892126, 9.932445525040976], [3.959066868041589, 9.93408203036148], [3.960703610783071, 9.937355994283735], [3.96888732808776, 9.942265509345816], [3.970524071728562, 9.948813437190438], [3.965613840806157, 9.956996916174774], [3.959066868041589, 9.960269926815727], [3.949246166977048, 9.961907386316852], [3.941062211352005, 9.961907386316852], [3.934515236788798, 9.966817854660292], [3.934515236788798, 9.970090865301245], [3.936151980429599, 9.973364829223556], [3.941062211352005, 9.976637838965132], [3.952519654258708, 9.978275297566995], [3.95415639789951, 9.983184812629077], [3.949246166977048, 9.99136924579409], [3.934515236788798, 9.999552725677802], [3.921420811920996, 9.999552725677802], [3.919814263017884, 9.998175751209999], [3.909963607334646, 9.989732741372961], [3.887048720622033, 9.988095281871836], [3.887048720622033, 10.004463194920561], [3.890322207903637, 10.015920636927888], [3.903416395350405, 10.019194601749518], [3.864133833909364, 10.050292968345843], [3.855438451823147, 10.053553835441221], [3.851039647361858, 10.055203436689283], [3.833034990672331, 10.047019002624893], [3.823319196423824, 10.05430602840056], [3.818045616012398, 10.066830633826726], [3.799117086684248, 10.071198462039433], [3.796932934707229, 10.066102979768743], [3.798747620906056, 10.028124203269442], [3.719432086621566, 9.766043929983425], [3.699109735825687, 9.698893310078233], [3.67670162787789, 9.632488847782156], [3.717068449749206, 9.530305705943647], [3.718631494847671, 9.416919891939528], [3.724016260242252, 9.364848976399173], [3.746883046715254, 9.2595780168121], [3.755760592777165, 9.204465932256994], [3.7707343102403, 9.146808623319373]]]}}, {"type": "Feature", "properties": {"name": "Ilorin East", "state": "kw"}, "geometry": {"type": "MultiPolygon", "coordinates": [[[[4.54875256208112, 8.49432288589253], [4.552703792845818, 8.500241927722811], [4.555702843011829, 8.497539278814713], [4.561513895150199, 8.499537121840774], [4.568028665890267, 8.492851539267178], [4.561213910093898, 8.48802470697467], [4.561931164391751, 8.48562002774213], [4.560764051220019, 8.483569458363888], [4.560544788411278, 8.482609754036957], [4.566517458613873, 8.47229440156542], [4.570917242436849, 8.472697155749188], [4.582679876575071, 8.474021758197637], [4.587500747261743, 8.468296020245191], [4.591149458680604, 8.471362214694523], [4.59266764919272, 8.472553975585527], [4.594384642037653, 8.473994417908102], [4.595255873759641, 8.472887127638899], [4.596245888836734, 8.47177489559499], [4.597774496196109, 8.473050432831258], [4.59811861817974, 8.473322643225458], [4.598715646609833, 8.473926969653974], [4.591583807846519, 8.477762785923858], [4.592715876236753, 8.482176009215493], [4.588331475317375, 8.482920196409964], [4.588561700861874, 8.484060784977316], [4.591348466058889, 8.486503713275795], [4.59338085833997, 8.488339809634567], [4.594182340442728, 8.490282009806947], [4.594279042743665, 8.493752876693975], [4.593949927747019, 8.49448181138655], [4.573827487248764, 8.501745808222495], [4.574774765642985, 8.505222369616718], [4.573841197413401, 8.505602373650675], [4.569845971814175, 8.506602173351666], [4.572923148784355, 8.527150110089565], [4.56760994514292, 8.533984926163441], [4.569114215049012, 8.543705234109325], [4.557932503382347, 8.550805880786811], [4.553751951791185, 8.548157168718433], [4.553150263973578, 8.528314706958213], [4.541211756617315, 8.529010185971345], [4.537298434974844, 8.527343832152155], [4.532912373906981, 8.524473396729945], [4.534935404245573, 8.520372462119497], [4.531901722986163, 8.518160030061381], [4.532344982634868, 8.517003545976934], [4.532549736681062, 8.516359815752935], [4.548287397645311, 8.504010775077234], [4.543035062817921, 8.503254530672109], [4.541358460324716, 8.497391030072038], [4.54875256208112, 8.49432288589253]]], [[[4.768411841433362, 8.47901336967135], [4.751644450431115, 8.487417446058316], [4.750964982048345, 8.502201671869727], [4.745806822426971, 8.510774280308851], [4.747850940968192, 8.516289626365221], [4.75110301898917, 8.52292076937806], [4.751759119387884, 8.530818236072776], [4.764248665643436, 8.542777567230985], [4.770433819565142, 8.545874703754635], [4.791634752242089, 8.54894590203179], [4.815147049596703, 8.54742909377768], [4.831351785156812, 8.547341408978866], [4.854439836329448, 8.55400503100742], [4.865059645286465, 8.572882007598594], [4.875528691895681, 8.565205956689624], [4.892808447352024, 8.554009306384444], [4.914556280248178, 8.572509270086812], [4.921820695268934, 8.586666582996429], [4.920425243330385, 8.597890072668747], [4.925723942705815, 8.60126092415237], [4.93335902409973, 8.60478967860081], [4.944020412312227, 8.639771414019606], [4.949935286684195, 8.650314654697581], [4.974117744438388, 8.667163464022678], [4.966302918245106, 8.690300363670872], [4.943890571792508, 8.698625564118515], [4.932281970836357, 8.708575248648856], [4.917356491209148, 8.716037750142107], [4.910647259163738, 8.723052611388937], [4.907065333198602, 8.728247016386717], [4.906231495287329, 8.7419855752741], [4.895572180012152, 8.747365859346985], [4.886004993335803, 8.746702117408859], [4.880776405107042, 8.746441841018225], [4.869801521323211, 8.741346357848158], [4.860983371885141, 8.73727703081039], [4.854877949158094, 8.731849669926362], [4.845381260336922, 8.724388122613789], [4.825031279669872, 8.693184852798765], [4.741595267607579, 8.630777358987984], [4.679187774696118, 8.57447528790425], [4.652555425192759, 8.570821397289706], [4.648640329187913, 8.561221730698378], [4.640921078445047, 8.553815417947249], [4.616796034309573, 8.54286644722879], [4.604486711292736, 8.540890943362399], [4.602087997263311, 8.536491101982847], [4.601566263672169, 8.5240536381649], [4.634168490083823, 8.509479476896388], [4.658414460658889, 8.518718218570996], [4.668445040106576, 8.51732449782736], [4.679351329000667, 8.502188682961389], [4.692054749327269, 8.48846912405088], [4.698660373177745, 8.485928534774132], [4.768411841433362, 8.47901336967135]]]]}}, {"type": "Feature", "properties": {"name": "Ifelodun", "state": "kw"}, "geometry": {"type": "Polygon", "coordinates": [[[4.747418879677582, 8.20971870435477], [4.755438805256688, 8.210750580175159], [4.767176627999049, 8.215967176843776], [4.775871277137753, 8.222923279086103], [4.789348125215838, 8.23379135128988], [4.798042774354599, 8.248137474165162], [4.816939409226393, 8.30258567019257], [4.81692529706487, 8.314704972756317], [4.819813343011447, 8.334079007340392], [4.815721260427893, 8.344229217304587], [4.820214271571444, 8.35899448360857], [4.837168693680326, 8.362907410448656], [4.856731891663514, 8.36768913274733], [4.907160759361602, 8.369863509993024], [4.920637607439687, 8.365515708782993], [4.930202007116975, 8.359864235046473], [4.941504954590016, 8.356386185274289], [4.997585296923944, 8.346387862709719], [5.035407065283891, 8.349864960099865], [5.087140559689146, 8.364212036256504], [5.101921557833691, 8.36464595824441], [5.121919155344813, 8.36508083261441], [5.134526730424341, 8.364212036256504], [5.142351627225878, 8.359429358877833], [5.146481030775021, 8.353863809966924], [5.152350426431099, 8.345952988339775], [5.177999973420071, 8.292480468598797], [5.176695823353612, 8.279004097161419], [5.176260948084348, 8.264223099016874], [5.175826072815084, 8.25205040010593], [5.186694621659512, 8.247268676907936], [5.197997570031873, 8.24944210087233], [5.209300518404234, 8.248572350333745], [5.245818137597041, 8.257266997673867], [5.255816935902942, 8.265526772442627], [5.263207435874506, 8.268135070776964], [5.274510859988254, 8.270744324191242], [5.281031609421291, 8.273787497794842], [5.30624628024168, 8.300740241568917], [5.311462878708937, 8.308566094349828], [5.321027278386225, 8.325085640290126], [5.324504852417078, 8.333780289428887], [5.32349300359931, 8.337099074662603], [5.321502686100132, 8.341078758178185], [5.322829723013342, 8.344395637748505], [5.347705363811542, 8.382704735235393], [5.396627426414625, 8.438260077640507], [5.412382125934414, 8.452356339173775], [5.433111668168976, 8.466452598908347], [5.446378708011025, 8.479719162109689], [5.440574168762907, 8.485524177998457], [5.435599326947454, 8.4921569820591], [5.425649165776406, 8.516203879605428], [5.420673847320245, 8.53361701980964], [5.420673847320245, 8.548542022796141], [5.420399455170752, 8.551971844624973], [5.419015408434404, 8.569272040772091], [5.420673847320245, 8.591659546151163], [5.423990725091926, 8.613218308278363], [5.423161506997985, 8.640582085394954], [5.420673847320245, 8.658823967951832], [5.413625715654291, 8.686187744169104], [5.402435625004159, 8.688563764706032], [5.392370005271573, 8.685430177760566], [5.380813484954388, 8.677683723425162], [5.355652617874057, 8.676795898312093], [5.349012810792658, 8.696681898950544], [5.338998795058387, 8.709404945182143], [5.334376128655435, 8.707863820159218], [5.326560974209656, 8.705258369078535], [5.274322032935515, 8.656336784015423], [5.257738111724507, 8.655507088381455], [5.237008571288584, 8.660482406837673], [5.208816050920063, 8.678724289394495], [5.193061828940301, 8.689503669558746], [5.162381648894041, 8.694478988914284], [5.15657758718595, 8.700283050622318], [5.139993666874261, 8.709404945182143], [5.120922087784152, 8.716867446675394], [5.10931348772732, 8.725988387953805], [5.098534106663749, 8.729305266624806], [5.097888865578739, 8.729950470837593], [5.090242386177238, 8.73759651226925], [5.081121443999507, 8.756668091359359], [5.079778409945732, 8.76248766457411], [5.078633785221086, 8.767447472422987], [5.057074547352499, 8.80724906858967], [5.051270484745146, 8.81719875312001], [5.029711722617947, 8.826319695297741], [5.011469364319737, 8.829636573069422], [4.997373103685845, 8.828807830716869], [4.992964308655985, 8.824767014885879], [4.989809114598984, 8.823093732689642], [4.98653508142894, 8.823847797138171], [4.982590770048034, 8.82233545491738], [4.976099743208636, 8.82138182910819], [4.975907841373839, 8.826740973716994], [4.9738944814452, 8.82922015998247], [4.971147466282616, 8.830317027109174], [4.970800373838244, 8.837942296000222], [4.972009507832581, 8.84097399695247], [4.968351840964715, 8.847879409806978], [4.960059642938234, 8.852853774981781], [4.950109480867923, 8.856170652753462], [4.939753374718521, 8.860658312031546], [4.925233840069723, 8.866950034716353], [4.907071989980409, 8.86622693392593], [4.896240244991361, 8.860261191201062], [4.887348708176376, 8.866418325845132], [4.877979861581423, 8.869885024374412], [4.874622246319632, 8.877057793082713], [4.87248202082867, 8.888718054694493], [4.863602712994862, 8.90139395486716], [4.871207521410042, 8.926586212783548], [4.893151922723121, 8.947524799729763], [4.897041319701202, 8.975573540086828], [4.902845859848583, 8.986353874431813], [4.907820701664093, 8.993816375925064], [4.907820701664093, 9.003766059556028], [4.907820701664093, 9.019520759075817], [4.902845859848583, 9.027812958001675], [4.896212100707942, 9.042737960988177], [4.890408038999851, 9.056834220722749], [4.884603499751734, 9.057663918155356], [4.88128709772144, 9.054347037685716], [4.877555369884476, 9.047713280343658], [4.880043029562216, 9.042737960988177], [4.878384589777056, 9.033617019709766], [4.878384589777056, 9.029471396887516], [4.877555369884476, 9.021179198860978], [4.851850510093016, 9.013716697367727], [4.851850510093016, 9.007082939126406], [4.851021290200435, 8.997961997847995], [4.839412689244284, 8.992157936139904], [4.830291747965816, 8.990499496354744], [4.827804089187396, 8.984695434646653], [4.812878608660924, 8.974744796834955], [4.804586886375773, 8.962306975986223], [4.802099227597296, 8.951527595821915], [4.800180086941509, 8.953115651965788], [4.796006863026378, 8.953466250866825], [4.795487560302718, 8.949524979194507], [4.790714493079463, 8.950838302345801], [4.781302247001122, 8.921640051247437], [4.791684705984437, 8.891648006350465], [4.808732984939354, 8.879387855565142], [4.812878608660924, 8.86114597300832], [4.814119716251923, 8.853699875149175], [4.815366268338664, 8.846220970021818], [4.826145649402235, 8.83046626960271], [4.829196773012711, 8.824918854621501], [4.835267066422034, 8.81388187444901], [4.837287545383958, 8.811457402936867], [4.847704887270766, 8.798956870563188], [4.862629890257267, 8.7832021710434], [4.870092869290545, 8.764960287587257], [4.880776405107042, 8.746441841018225], [4.886004993335803, 8.746702117408859], [4.895572180012152, 8.747365859346985], [4.906231495287329, 8.7419855752741], [4.907065333198602, 8.728247016386717], [4.910647259163738, 8.723052611388937], [4.917356491209148, 8.716037750142107], [4.932281970836357, 8.708575248648856], [4.943890571792508, 8.698625564118515], [4.966302918245106, 8.690300363670872], [4.974117744438388, 8.667163464022678], [4.949935286684195, 8.650314654697581], [4.944020412312227, 8.639771414019606], [4.93335902409973, 8.60478967860081], [4.925723942705815, 8.60126092415237], [4.920425243330385, 8.597890072668747], [4.921820695268934, 8.586666582996429], [4.914556280248178, 8.572509270086812], [4.892808447352024, 8.554009306384444], [4.875528691895681, 8.565205956689624], [4.865059645286465, 8.572882007598594], [4.854439836329448, 8.55400503100742], [4.831351785156812, 8.547341408978866], [4.815147049596703, 8.54742909377768], [4.791634752242089, 8.54894590203179], [4.770433819565142, 8.545874703754635], [4.764248665643436, 8.542777567230985], [4.751759119387884, 8.530818236072776], [4.75110301898917, 8.52292076937806], [4.747850940968192, 8.516289626365221], [4.745806822426971, 8.510774280308851], [4.750964982048345, 8.502201671869727], [4.749508694570636, 8.497711098788216], [4.751812001322833, 8.494240623106293], [4.750473724682706, 8.489576422414018], [4.760966418965097, 8.48196980186492], [4.762087969784034, 8.4826096569102], [4.766147472627836, 8.481573667590737], [4.768411841433362, 8.47901336967135], [4.769655283664463, 8.474300244061055], [4.763997690041435, 8.464466956085232], [4.765285938295449, 8.461237238807598], [4.767909708566265, 8.459122895805024], [4.764676669192966, 8.456860989343227], [4.76657400308784, 8.455230152449644], [4.767652339683764, 8.453058044193426], [4.761526729874731, 8.439170251805706], [4.766188534773107, 8.426375149193802], [4.783186040703242, 8.412892171336694], [4.771467309668651, 8.41233373011761], [4.757641468878717, 8.406516575179865], [4.74583185505611, 8.394531017092788], [4.736729338188468, 8.387150487904762], [4.730280513834714, 8.383387550894781], [4.723855380321595, 8.381431344680834], [4.700003302910147, 8.403471182948806], [4.679957311081068, 8.415799356655043], [4.672715525700994, 8.399013871293164], [4.669871694023527, 8.39564818371673], [4.668253719233803, 8.395915104298695], [4.658436314184598, 8.398405052751059], [4.653316897357001, 8.40248244131169], [4.631080169614165, 8.412906336558251], [4.632215569093262, 8.425738202556033], [4.626966523985914, 8.429544437425875], [4.621116821684041, 8.422674361632517], [4.616114675551898, 8.42348271095841], [4.609188584585581, 8.42745840957798], [4.613057980641315, 8.432489405062029], [4.593637193901429, 8.43617475216314], [4.600520057154938, 8.424168596903257], [4.599164796817945, 8.422749437036941], [4.598393744176008, 8.421679608027546], [4.598219123713648, 8.420390103420573], [4.598915289808815, 8.413743007333949], [4.599577342820169, 8.409607013552886], [4.599769153823445, 8.408241872364556], [4.614762873108134, 8.395386456719677], [4.617768241910881, 8.381310879593457], [4.629157766217986, 8.371597289583292], [4.636891952901351, 8.378967925329562], [4.643781661794321, 8.376679419619563], [4.649371147060833, 8.373122215118201], [4.661853769435936, 8.358917641935648], [4.650437320326148, 8.3514043035658], [4.648345738265277, 8.348535350226257], [4.641851901943767, 8.336314201239418], [4.637989520599945, 8.326872826120052], [4.641379072586176, 8.328098801718397], [4.650237052997625, 8.323711842227794], [4.656229472312361, 8.31736063568485], [4.667054885174878, 8.30850228025605], [4.67143569060471, 8.3017420431608], [4.678999071749786, 8.311471930685116], [4.684711702083405, 8.314651429819662], [4.691202163249272, 8.31528663626932], [4.688742610982786, 8.300910072242061], [4.68783757824167, 8.29326334192973], [4.688286481136231, 8.286039917108553], [4.692638775359228, 8.277936220580159], [4.705716370314292, 8.25511445776607], [4.712099133168522, 8.250644255228224], [4.737548828315823, 8.230746268425605], [4.742851895698493, 8.219146542878718], [4.744415283438627, 8.215726851912734], [4.747418879677582, 8.20971870435477]]]}}, {"type": "Feature", "properties": {"name": "Pategi", "state": "kw"}, "geometry": {"type": "Polygon", "coordinates": [[[5.446378708011025, 8.479719162109689], [5.453513621556453, 8.486290931881058], [5.465723514628564, 8.492395401326746], [5.476577282215828, 8.499857903719317], [5.490143777413437, 8.518173217719891], [5.49624919924122, 8.529026031126477], [5.503032207170691, 8.534453392010505], [5.510494232023234, 8.5351314547529], [5.51456403660103, 8.5351314547529], [5.513207436274229, 8.538522719947593], [5.524109840097083, 8.53693008355657], [5.5338692667533, 8.530423163897922], [5.544442176964935, 8.52310371396527], [5.554202080261859, 8.512530327112927], [5.574534416230392, 8.506024360735694], [5.588360310080304, 8.497077941893565], [5.599746703847359, 8.488945008405437], [5.64285183004796, 8.462919235434413], [5.643391529395615, 8.462805619583719], [5.658304212569419, 8.459666251796136], [5.688176632345744, 8.452851294551635], [5.704662323307616, 8.445839882204837], [5.782739640422108, 8.427947043621202], [5.790872573910178, 8.427134514246461], [5.805511951315566, 8.425507545336984], [5.81852483735139, 8.427134514246461], [5.829097747563026, 8.426321030691042], [5.849430084430878, 8.422254561698708], [5.912054062145273, 8.423880577326827], [5.956785678816061, 8.408428192107408], [5.978744984593391, 8.405175209368451], [5.990944386174533, 8.401922225730175], [6.013716697967311, 8.400295257720018], [6.020223140985195, 8.3978557594358], [6.040555953594435, 8.392975806888046], [6.060074806007549, 8.393788338061427], [6.077967643691863, 8.3978557594358], [6.081615495358847, 8.400895387012554], [6.082657814106881, 8.401763916271761], [6.097486972745628, 8.414121628210637], [6.11131286569622, 8.431200981440213], [6.12513923618684, 8.555635452414265], [6.133272170574287, 8.56783485399535], [6.139778613592171, 8.580847740930551], [6.147911548878938, 8.596301079431328], [6.154417991896878, 8.61744689895528], [6.162550926284268, 8.637779235823132], [6.16987037711624, 8.662991524339418], [6.18369674670754, 8.686576843046907], [6.208536148424571, 8.732375145596563], [6.203216075761361, 8.734561919996679], [6.192743552373088, 8.731705727137637], [6.185323238077046, 8.729681969247508], [6.169057369302209, 8.721549033960798], [6.149538039349068, 8.72073555040538], [6.144658088599954, 8.729681969247508], [6.131645202564073, 8.751641273226255], [6.127210834412551, 8.75333048601317], [6.114566325975204, 8.758147239603488], [6.084474086709804, 8.760587692068384], [6.058448314638042, 8.758960724058227], [6.033236026121756, 8.758960724058227], [5.999890804117342, 8.751641273226255], [5.978744983694071, 8.75001430611536], [5.974678515601056, 8.756521224874689], [5.943772792780237, 8.748388289587922], [5.928320407560818, 8.742694856182709], [5.901481151933638, 8.75001430611536], [5.886841773628987, 8.746761321577765], [5.795752048018642, 8.74188137082865], [5.77460622759537, 8.753267287954998], [5.760780333745458, 8.773600579003585], [5.742074490045752, 8.797999382165813], [5.728248118655813, 8.819958687043822], [5.712795734335714, 8.828905105885951], [5.693461937218672, 8.828161329681677], [5.691649913912443, 8.828091622330533], [5.642038344693901, 8.835411073162561], [5.619266032901123, 8.85249042459344], [5.60543966330988, 8.86794280981286], [5.601373196116128, 8.876889228655045], [5.563148021564018, 8.898848534432375], [5.548557480043712, 8.912223611630395], [5.447819956126125, 8.858615171952692], [5.430492112121328, 8.8486921226434], [5.423211786294928, 8.829359821998253], [5.430352388052313, 8.784742028921528], [5.441395620311653, 8.766327229218291], [5.455900353918253, 8.75458888396986], [5.462146463888246, 8.740009385224994], [5.451896767322012, 8.720927633003896], [5.442480884385361, 8.710621691038284], [5.433614187744638, 8.69191228062732], [5.418641941572389, 8.682082387592175], [5.413625715654291, 8.686187744169104], [5.420673847320245, 8.658823967951832], [5.423161506997985, 8.640582085394954], [5.423990725091926, 8.613218308278363], [5.420673847320245, 8.591659546151163], [5.419015408434404, 8.569272040772091], [5.420399455170752, 8.551971844624973], [5.420673847320245, 8.548542022796141], [5.420673847320245, 8.53361701980964], [5.425649165776406, 8.516203879605428], [5.435599326947454, 8.4921569820591], [5.440574168762907, 8.485524177998457], [5.446378708011025, 8.479719162109689]]]}}, {"type": "Feature", "properties": {"name": "Edu", "state": "kw"}, "geometry": {"type": "Polygon", "coordinates": [[[5.413625715654291, 8.686187744169104], [5.418641941572389, 8.682082387592175], [5.433614187744638, 8.69191228062732], [5.442480884385361, 8.710621691038284], [5.451896767322012, 8.720927633003896], [5.462146463888246, 8.740009385224994], [5.455900353918253, 8.75458888396986], [5.441395620311653, 8.766327229218291], [5.430352388052313, 8.784742028921528], [5.423211786294928, 8.829359821998253], [5.430492112121328, 8.8486921226434], [5.447819956126125, 8.858615171952692], [5.548557480043712, 8.912223611630395], [5.543629169150904, 8.91674137121737], [5.539562701957152, 8.930567740808613], [5.52541780508767, 8.940100669610274], [5.511850834148731, 8.944170951728097], [5.497605799568021, 8.944170951728097], [5.485395431653899, 8.944849013571172], [5.473863602223503, 8.947562217822167], [5.46640205401161, 8.954345703291608], [5.460975169768346, 8.962486266627934], [5.457583427033569, 8.96859073607368], [5.445373534860778, 8.972661018191502], [5.436554908782057, 8.97537422244244], [5.425023079351661, 8.978766440918548], [5.408064842318652, 8.978766440918548], [5.391106128644992, 8.982835769755013], [5.375504493737424, 8.990297317966906], [5.37007761039348, 8.996402739794632], [5.348370551859546, 8.998437881303232], [5.332090377568932, 8.995724677951557], [5.323272228130861, 8.99233245767681], [5.272396562851156, 9.014718055593846], [5.254759788233685, 9.016753197102389], [5.237801074559968, 9.018788337711669], [5.225591183286554, 9.026927947766637], [5.208971977175054, 9.035068512002283], [5.196761608361612, 9.054061889644515], [5.171663283733608, 9.087300300968138], [5.159452914920109, 9.10697269373486], [5.065163611911203, 9.16259670297552], [5.048204899136806, 9.187694550063497], [5.032603263329975, 9.197870254908366], [5.016323089039361, 9.20533180222094], [4.996651172913346, 9.20736694283022], [4.987123280315188, 9.204791778218066], [4.971552849184718, 9.200583458260041], [4.962055682823575, 9.193121910048148], [4.941705703955108, 9.184303283070108], [4.923390388155951, 9.176162719733782], [4.91118049598316, 9.171414374873564], [4.898970127169662, 9.170058250288093], [4.886081695613825, 9.167345046936418], [4.876585005893332, 9.161239624209315], [4.884046555004545, 9.140889167800879], [4.889473438348546, 9.13614082294066], [4.887438296840003, 9.131392478080443], [4.886081695613825, 9.124608994409641], [4.891508578957826, 9.119182586806971], [4.897613525044221, 9.117147446197748], [4.900326729295159, 9.086622238225743], [4.898292065326586, 9.08255195610792], [4.897613525044221, 9.075090407896084], [4.892186641700221, 9.069664001192734], [4.890830039574723, 9.063558577566369], [4.892865180183946, 9.059488297247185], [4.890408038999851, 9.056834220722749], [4.896212100707942, 9.042737960988177], [4.902845859848583, 9.027812958001675], [4.907820701664093, 9.019520759075817], [4.907820701664093, 9.003766059556028], [4.907820701664093, 8.993816375925064], [4.902845859848583, 8.986353874431813], [4.897041319701202, 8.975573540086828], [4.893151922723121, 8.947524799729763], [4.871207521410042, 8.926586212783548], [4.863602712994862, 8.90139395486716], [4.87248202082867, 8.888718054694493], [4.874622246319632, 8.877057793082713], [4.877979861581423, 8.869885024374412], [4.887348708176376, 8.866418325845132], [4.896240244991361, 8.860261191201062], [4.907071989980409, 8.86622693392593], [4.925233840069723, 8.866950034716353], [4.939753374718521, 8.860658312031546], [4.950109480867923, 8.856170652753462], [4.960059642938234, 8.852853774981781], [4.968351840964715, 8.847879409806978], [4.972009507832581, 8.84097399695247], [4.970800373838244, 8.837942296000222], [4.971147466282616, 8.830317027109174], [4.9738944814452, 8.82922015998247], [4.975907841373839, 8.826740973716994], [4.976099743208636, 8.82138182910819], [4.982590770048034, 8.82233545491738], [4.98653508142894, 8.823847797138171], [4.989809114598984, 8.823093732689642], [4.992964308655985, 8.824767014885879], [4.997373103685845, 8.828807830716869], [5.011469364319737, 8.829636573069422], [5.029711722617947, 8.826319695297741], [5.051270484745146, 8.81719875312001], [5.057074547352499, 8.80724906858967], [5.078633785221086, 8.767447472422987], [5.079778409945732, 8.76248766457411], [5.081121443999507, 8.756668091359359], [5.090242386177238, 8.73759651226925], [5.097888865578739, 8.729950470837593], [5.098534106663749, 8.729305266624806], [5.10931348772732, 8.725988387953805], [5.120922087784152, 8.716867446675394], [5.139993666874261, 8.709404945182143], [5.15657758718595, 8.700283050622318], [5.162381648894041, 8.694478988914284], [5.193061828940301, 8.689503669558746], [5.208816050920063, 8.678724289394495], [5.237008571288584, 8.660482406837673], [5.257738111724507, 8.655507088381455], [5.274322032935515, 8.656336784015423], [5.326560974209656, 8.705258369078535], [5.334376128655435, 8.707863820159218], [5.338998795058387, 8.709404945182143], [5.349012810792658, 8.696681898950544], [5.355652617874057, 8.676795898312093], [5.380813484954388, 8.677683723425162], [5.392370005271573, 8.685430177760566], [5.402435625004159, 8.688563764706032], [5.413625715654291, 8.686187744169104]]]}}, {"type": "Feature", "properties": {"name": "Ilorin South", "state": "kw"}, "geometry": {"type": "MultiPolygon", "coordinates": [[[[4.54875256208112, 8.49432288589253], [4.552959943146902, 8.482691900810607], [4.558528672959937, 8.480272263154461], [4.561213910093898, 8.48802470697467], [4.568028665890267, 8.492851539267178], [4.561513895150199, 8.499537121840774], [4.555702843011829, 8.497539278814713], [4.552703792845818, 8.500241927722811], [4.54875256208112, 8.49432288589253]]], [[[4.566517458613873, 8.47229440156542], [4.593637193901429, 8.43617475216314], [4.613057980641315, 8.432489405062029], [4.609188584585581, 8.42745840957798], [4.616114675551898, 8.42348271095841], [4.621116821684041, 8.422674361632517], [4.626966523985914, 8.429544437425875], [4.632215569093262, 8.425738202556033], [4.631080169614165, 8.412906336558251], [4.653316897357001, 8.40248244131169], [4.658436314184598, 8.398405052751059], [4.668253719233803, 8.395915104298695], [4.669871694023527, 8.39564818371673], [4.672715525700994, 8.399013871293164], [4.679957311081068, 8.415799356655043], [4.700003302910147, 8.403471182948806], [4.723855380321595, 8.381431344680834], [4.730280513834714, 8.383387550894781], [4.736729338188468, 8.387150487904762], [4.74583185505611, 8.394531017092788], [4.757641468878717, 8.406516575179865], [4.771467309668651, 8.41233373011761], [4.783186040703242, 8.412892171336694], [4.766188534773107, 8.426375149193802], [4.761526729874731, 8.439170251805706], [4.767652339683764, 8.453058044193426], [4.76657400308784, 8.455230152449644], [4.764676669192966, 8.456860989343227], [4.767909708566265, 8.459122895805024], [4.765285938295449, 8.461237238807598], [4.763997690041435, 8.464466956085232], [4.769655283664463, 8.474300244061055], [4.768411841433362, 8.47901336967135], [4.698660373177745, 8.485928534774132], [4.692054749327269, 8.48846912405088], [4.679351329000667, 8.502188682961389], [4.668445040106576, 8.51732449782736], [4.658414460658889, 8.518718218570996], [4.634168490083823, 8.509479476896388], [4.612264088816687, 8.520528397367684], [4.60978860056349, 8.52115362493987], [4.607572361675182, 8.519394924236394], [4.605855912020786, 8.520501159600883], [4.606390774814429, 8.52293193356195], [4.605682323980091, 8.52359070224918], [4.604397097448157, 8.52249339625331], [4.602982380232731, 8.52338726930708], [4.601566263672169, 8.5240536381649], [4.602087997263311, 8.536491101982847], [4.597056535930449, 8.541608062761952], [4.595427354688695, 8.549467570871741], [4.583207843367347, 8.565903514935314], [4.58418603955414, 8.568404611383755], [4.585962742886295, 8.572226123037183], [4.582719867627816, 8.57176923686086], [4.580894817641763, 8.572495119254427], [4.578305450935886, 8.573179965582995], [4.576971493739507, 8.574798284813028], [4.57309511804533, 8.577744489016993], [4.54855793709919, 8.580247929997995], [4.543004929234144, 8.575006110044], [4.533245355089093, 8.572266364101495], [4.498454570022432, 8.566721915983692], [4.492864609014532, 8.560625074587563], [4.485242842982871, 8.55910014995203], [4.479101180275279, 8.561439514122355], [4.471153591664972, 8.536871261599515], [4.47123042164668, 8.53603740929907], [4.472850386636082, 8.535908331404414], [4.473014103717958, 8.53436469907166], [4.468045075120187, 8.529322017796915], [4.469372477158117, 8.52777024839827], [4.470746132228271, 8.52588083123544], [4.477278764403479, 8.522071586334675], [4.476387674751436, 8.520507376614205], [4.474506365876152, 8.515946707674459], [4.473435049388058, 8.512190005664252], [4.478642617762659, 8.508486761155154], [4.478574046255289, 8.507550459885863], [4.497645807008439, 8.505988769166436], [4.499019260630405, 8.5088988116309], [4.508204462066317, 8.509444019326054], [4.513107531687297, 8.517141278047575], [4.510366503311502, 8.521365721051211], [4.512781120952013, 8.526470726243076], [4.521515006612333, 8.520682554656219], [4.521642159058445, 8.515335354842819], [4.541211756617315, 8.529010185971345], [4.553150263973578, 8.528314706958213], [4.553751951791185, 8.548157168718433], [4.557932503382347, 8.550805880786811], [4.569114215049012, 8.543705234109325], [4.56760994514292, 8.533984926163441], [4.572923148784355, 8.527150110089565], [4.569845971814175, 8.506602173351666], [4.573841197413401, 8.505602373650675], [4.574774765642985, 8.505222369616718], [4.573827487248764, 8.501745808222495], [4.593949927747019, 8.49448181138655], [4.594279042743665, 8.493752876693975], [4.594182340442728, 8.490282009806947], [4.59338085833997, 8.488339809634567], [4.591348466058889, 8.486503713275795], [4.588561700861874, 8.484060784977316], [4.588331475317375, 8.482920196409964], [4.592715876236753, 8.482176009215493], [4.591583807846519, 8.477762785923858], [4.598715646609833, 8.473926969653974], [4.59811861817974, 8.473322643225458], [4.597774496196109, 8.473050432831258], [4.596245888836734, 8.47177489559499], [4.595255873759641, 8.472887127638899], [4.594384642037653, 8.473994417908102], [4.59266764919272, 8.472553975585527], [4.591149458680604, 8.471362214694523], [4.587500747261743, 8.468296020245191], [4.582679876575071, 8.474021758197637], [4.570917242436849, 8.472697155749188], [4.566517458613873, 8.47229440156542]]]]}}, {"type": "Feature", "properties": {"name": "Irepodun", "state": "kw"}, "geometry": {"type": "Polygon", "coordinates": [[[4.799294949002729, 8.065057754811562], [4.805271149044358, 8.063862801327275], [4.808808985746168, 8.061739966026664], [4.812895298279443, 8.059288024722605], [4.818613528691458, 8.05356979431059], [4.830049992213446, 8.055476187975728], [4.843392371860546, 8.061956405863498], [4.850381374001245, 8.06661605778487], [4.852541446630482, 8.0680561071037], [4.857497213825411, 8.072630881909731], [4.856734753306284, 8.079111097998805], [4.854828835382477, 8.085972785815443], [4.851778984312716, 8.091691017126777], [4.854066372165391, 8.095502852974334], [4.913153648122432, 8.085591315886575], [4.926877498597719, 8.07987308457524], [4.939457416826372, 8.0680561071037], [4.945175648137706, 8.060812950257514], [4.949749947202349, 8.055476187975728], [4.960805415637481, 8.052426337805286], [4.961066676785777, 8.052181396654191], [4.962958672304921, 8.050407587340317], [4.966904640237033, 8.046708107393272], [4.970716475185213, 8.032603263629767], [4.969192027190331, 8.02421665207686], [4.974106868037552, 8.021382839746309], [4.98336396037854, 8.032349306775131], [4.998952800631287, 8.030323020890762], [5.001976012882722, 8.034128189164619], [5.0054068572407, 8.043276787293962], [5.009981632046731, 8.050139426593319], [5.03971576666936, 8.071867942951258], [5.044290542374654, 8.0699615483868], [5.04962730375712, 8.064624786105071], [5.053439617144647, 8.057763100087072], [5.054930210161103, 8.049190521325556], [5.062942981633341, 8.052833557122995], [5.066485403978277, 8.054468154981407], [5.069503384873371, 8.057051794804522], [5.078830922009502, 8.064142331303572], [5.085760934919278, 8.087630587981323], [5.090427352440429, 8.094465843823684], [5.132855770277615, 8.123269431938809], [5.159190606061657, 8.122825389879893], [5.184591980635446, 8.144613576255608], [5.188806839564052, 8.152131749380771], [5.190678331439869, 8.158524823861569], [5.190678331439869, 8.164177250879447], [5.187589896756378, 8.172482991796699], [5.184814531365589, 8.181533349784331], [5.166016243654781, 8.188096816115205], [5.163032651036076, 8.19365702395254], [5.157816051669499, 8.194988686978377], [5.153220176070306, 8.199882507072118], [5.147881293187197, 8.202010248174474], [5.132519896875806, 8.209287712358105], [5.122628071128645, 8.207794773909711], [5.118601321593758, 8.20326709659929], [5.110285623382879, 8.195373931361871], [5.108992246295202, 8.18644824009425], [5.105588101909404, 8.18091943568345], [5.100431084427044, 8.17135946336856], [5.095881285592895, 8.162864668769487], [5.089314461193453, 8.1546697620999], [5.081054209783986, 8.14858341219474], [5.073229312982448, 8.14510631570397], [5.061925887070061, 8.14510631570397], [5.045927649341593, 8.144325643014042], [5.044102191962622, 8.144236565165386], [5.021495818577193, 8.14858341219474], [5.011931894641293, 8.150322914171227], [4.964110851334794, 8.18423175838899], [4.925987867646029, 8.226712934954037], [4.9275072902293, 8.235331785633434], [4.933148539573494, 8.24834610428934], [4.931371000771094, 8.2605323038228], [4.930160013274019, 8.270734909188775], [4.936967697701164, 8.277831930699108], [4.938187890658696, 8.293854963635738], [4.934214360304509, 8.315970112930415], [4.932904086754263, 8.32817508311365], [4.930213083167303, 8.337200614416872], [4.907160759361602, 8.369863509993024], [4.856731891663514, 8.36768913274733], [4.837168693680326, 8.362907410448656], [4.820214271571444, 8.35899448360857], [4.815721260427893, 8.344229217304587], [4.819813343011447, 8.334079007340392], [4.81692529706487, 8.314704972756317], [4.816939409226393, 8.30258567019257], [4.798042774354599, 8.248137474165162], [4.789348125215838, 8.23379135128988], [4.775871277137753, 8.222923279086103], [4.767176627999049, 8.215967176843776], [4.755438805256688, 8.210750580175159], [4.747418879677582, 8.20971870435477], [4.737636909715661, 8.207644149158227], [4.735305009918306, 8.203248373613576], [4.739299130250686, 8.197135152865087], [4.759480974567396, 8.194097807767662], [4.772659360141404, 8.186733969996794], [4.785875347269496, 8.180083935825053], [4.791996501837161, 8.171760391928615], [4.799518122063716, 8.16373798871723], [4.805983423796022, 8.148360455870375], [4.810516874754001, 8.14334753675945], [4.814984517821301, 8.131130532747932], [4.814655751761563, 8.118032361304472], [4.81915941627409, 8.101552297400644], [4.817004611873415, 8.088692936429936], [4.816680939573757, 8.083914311396427], [4.819352617629249, 8.081719890960244], [4.799294949002729, 8.065057754811562]]]}}, {"type": "Feature", "properties": {"name": "Offa", "state": "kw"}, "geometry": {"type": "Polygon", "coordinates": [[[4.650434493756904, 8.162513732622699], [4.650574477730004, 8.144354082275129], [4.659285534999469, 8.144512941219318], [4.671804443220537, 8.13829746395686], [4.672375421888262, 8.135254412661084], [4.672089671301364, 8.133033975737419], [4.674144046610536, 8.130734269870686], [4.679237617821855, 8.131974810888835], [4.681508010286507, 8.127615842796956], [4.684548415776817, 8.124558939243684], [4.688570276597034, 8.125834053798599], [4.694700651913593, 8.130793938089823], [4.697219652065314, 8.131531722111333], [4.715001863245448, 8.123190957996371], [4.717588860237754, 8.123197200190702], [4.72776174840601, 8.123550848692787], [4.758401780018175, 8.13772102460564], [4.754533033272935, 8.14079477875606], [4.754090287137103, 8.143752943943241], [4.757347663963571, 8.150495556125065], [4.753795921944288, 8.152647838826738], [4.749836626958825, 8.151912970407295], [4.743352174163533, 8.152371052681985], [4.738551111944332, 8.148307305038145], [4.734306459375659, 8.154540659923555], [4.733208685732336, 8.15504159309512], [4.734197046956183, 8.159087583625137], [4.738649090383262, 8.158226439598536], [4.740468292078049, 8.15882990807387], [4.739081201136571, 8.16454621213802], [4.73805235513214, 8.166955279162835], [4.737806668443056, 8.167129134302172], [4.737258248369528, 8.167042320946393], [4.734301743330832, 8.164182080238845], [4.731473496005094, 8.161804119864314], [4.729423458126121, 8.163235092325692], [4.728422499199041, 8.164192658964112], [4.727253819408304, 8.16492086520583], [4.728541024448759, 8.167473275171574], [4.726703873185272, 8.168580994417425], [4.729770458839653, 8.173661940046543], [4.725801620248603, 8.17559845920158], [4.723483316401996, 8.193581720120335], [4.711567883850819, 8.210653180000293], [4.693777084145154, 8.217443465243775], [4.687340260344797, 8.214868546146533], [4.669745445396018, 8.198132515403302], [4.668006455133821, 8.19466809935335], [4.667337445866508, 8.192625054602615], [4.663737773579442, 8.18182563844249], [4.658587932686999, 8.174959183319686], [4.654726027983827, 8.169380187745503], [4.650434493756904, 8.162513732622699]]]}}, {"type": "Feature", "properties": {"name": "Ekiti", "state": "kw"}, "geometry": {"type": "Polygon", "coordinates": [[[5.365753315663028, 8.091933445572124], [5.371161938272905, 8.096487999121905], [5.387344359854353, 8.102132797190905], [5.497963905110169, 8.11066436776639], [5.497963905110169, 8.114674567976977], [5.504484652744566, 8.123804092385], [5.507666137582248, 8.125548658443904], [5.51796150262129, 8.131194114816594], [5.526221274692148, 8.139019966698129], [5.531981171593827, 8.145931336661931], [5.532742500765835, 8.146844864399043], [5.536654949166632, 8.15640926407633], [5.537089825335215, 8.16336441033934], [5.538393975401675, 8.178580284652469], [5.539698123669496, 8.190752983563414], [5.539698123669496, 8.19857788126427], [5.538627898958396, 8.20143207672902], [5.537089825335215, 8.205533981707958], [5.523607281850616, 8.20715812224961], [5.513922141893374, 8.212442063750302], [5.510251120093187, 8.20938186777903], [5.5103930196222, 8.208433556963143], [5.501329687115401, 8.215304261382585], [5.494920730607305, 8.214663506115983], [5.477531433229103, 8.205099106438638], [5.471879481952556, 8.204229355000791], [5.466228008216035, 8.202490807205038], [5.457533359976651, 8.206403732246486], [5.451046192128103, 8.200368838850864], [5.431887826661921, 8.187505580218385], [5.401818444565606, 8.183516486196936], [5.367314402937382, 8.180446448944508], [5.346241474364604, 8.171190262220875], [5.33386407266886, 8.16952403340747], [5.323138156300899, 8.168020750057622], [5.296323246220879, 8.161089835127825], [5.287707061132039, 8.157774985327364], [5.276684283952591, 8.15336608867409], [5.249085026552791, 8.148274396146519], [5.232549514948232, 8.14557439214451], [5.224701993901931, 8.14486237909557], [5.183715110164258, 8.072579679908358], [5.165479772873255, 8.0556570002704], [5.162611485032073, 8.049506186961025], [5.164929866220405, 8.047187804873317], [5.176972865805169, 8.038908958181935], [5.181865214608024, 8.03627395627808], [5.195789336908433, 8.018210411081668], [5.202939986791023, 8.01708126099146], [5.220251082721347, 8.020844459704108], [5.230788708032492, 8.021973609794316], [5.244451522419865, 8.02053546883684], [5.248223478730608, 8.019822709350592], [5.256755829018346, 8.018210411081668], [5.262400627087345, 8.012941359656054], [5.269551276969878, 8.011059761199078], [5.282862185741351, 8.008471488968098], [5.332399368436143, 8.009554862666846], [5.340302466685557, 8.015575409177814], [5.3459472647545, 8.020092011337283], [5.351968765446202, 8.025736809406283], [5.357989787698614, 8.03401660937908], [5.359210013031714, 8.036108016971468], [5.360624312961704, 8.038532257357815], [5.358742713605409, 8.073907851766023], [5.365753315663028, 8.091933445572124]]]}}, {"type": "Feature", "properties": {"name": "Isin", "state": "kw"}, "geometry": {"type": "Polygon", "coordinates": [[[4.907160759361602, 8.369863509993024], [4.930213083167303, 8.337200614416872], [4.932904086754263, 8.32817508311365], [4.934214360304509, 8.315970112930415], [4.938187890658696, 8.293854963635738], [4.936967697701164, 8.277831930699108], [4.930160013274019, 8.270734909188775], [4.931371000771094, 8.2605323038228], [4.933148539573494, 8.24834610428934], [4.9275072902293, 8.235331785633434], [4.925987867646029, 8.226712934954037], [4.964110851334794, 8.18423175838899], [5.011931894641293, 8.150322914171227], [5.021495818577193, 8.14858341219474], [5.044102191962622, 8.144236565165386], [5.045927649341593, 8.144325643014042], [5.061925887070061, 8.14510631570397], [5.073229312982448, 8.14510631570397], [5.081054209783986, 8.14858341219474], [5.089314461193453, 8.1546697620999], [5.095881285592895, 8.162864668769487], [5.100431084427044, 8.17135946336856], [5.105588101909404, 8.18091943568345], [5.108992246295202, 8.18644824009425], [5.110285623382879, 8.195373931361871], [5.118601321593758, 8.20326709659929], [5.122628071128645, 8.207794773909711], [5.132519896875806, 8.209287712358105], [5.147881293187197, 8.202010248174474], [5.153220176070306, 8.199882507072118], [5.157816051669499, 8.194988686978377], [5.163032651036076, 8.19365702395254], [5.166016243654781, 8.188096816115205], [5.184814531365589, 8.181533349784331], [5.189801835086655, 8.18560995863271], [5.192336704675256, 8.190433815967879], [5.194510130438232, 8.193911865740063], [5.194510130438232, 8.199998215645167], [5.197997570031873, 8.214228629947343], [5.23989657316838, 8.25506782522001], [5.23408031395536, 8.25465869933953], [5.220603943417302, 8.24944210087233], [5.209300518404234, 8.248572350333745], [5.197997570031873, 8.24944210087233], [5.186694621659512, 8.247268676907936], [5.175826072815084, 8.25205040010593], [5.176260948084348, 8.264223099016874], [5.176695823353612, 8.279004097161419], [5.177999973420071, 8.292480468598797], [5.152350426431099, 8.345952988339775], [5.146481030775021, 8.353863809966924], [5.142351627225878, 8.359429358877833], [5.134526730424341, 8.364212036256504], [5.121919155344813, 8.36508083261441], [5.101921557833691, 8.36464595824441], [5.087140559689146, 8.364212036256504], [5.035407065283891, 8.349864960099865], [4.997585296923944, 8.346387862709719], [4.941504954590016, 8.356386185274289], [4.930202007116975, 8.359864235046473], [4.920637607439687, 8.365515708782993], [4.907160759361602, 8.369863509993024]]]}}, {"type": "Feature", "properties": {"name": "Oke Ero", "state": "kw"}, "geometry": {"type": "Polygon", "coordinates": [[[5.05763292202181, 8.039464951446405], [5.061467257108291, 8.038264096610817], [5.061813830643814, 8.038155555634432], [5.072351455055639, 8.0310058590332], [5.075738429584931, 8.024984360140138], [5.079212792136673, 8.024682324629623], [5.084393977999753, 8.02423191087405], [5.117887973051552, 8.062618255628024], [5.12139041333694, 8.062752754635994], [5.127672671556581, 8.062994003170786], [5.142349719763786, 8.061864853080579], [5.162611485032073, 8.049506186961025], [5.165479772873255, 8.0556570002704], [5.183715110164258, 8.072579679908358], [5.224701993901931, 8.14486237909557], [5.232549514948232, 8.14557439214451], [5.249085026552791, 8.148274396146519], [5.276684283952591, 8.15336608867409], [5.287707061132039, 8.157774985327364], [5.296323246220879, 8.161089835127825], [5.323138156300899, 8.168020750057622], [5.33386407266886, 8.16952403340747], [5.346241474364604, 8.171190262220875], [5.367314402937382, 8.180446448944508], [5.401818444565606, 8.183516486196936], [5.431887826661921, 8.187505580218385], [5.451046192128103, 8.200368838850864], [5.457533359976651, 8.206403732246486], [5.442317963203493, 8.218141555888167], [5.433027938588566, 8.223947131155228], [5.431884288729009, 8.224661827781176], [5.422319889051664, 8.22813987665404], [5.418842315920188, 8.235530853266312], [5.422319889051664, 8.251180649567345], [5.418407439751604, 8.283785820359356], [5.404496193044906, 8.292045593329533], [5.397105693972662, 8.292045593329533], [5.387541294295318, 8.283350945090092], [5.38102054666092, 8.278134345723515], [5.372325898421536, 8.274221419782748], [5.362761496945552, 8.273352623424898], [5.356675147939768, 8.274656296850651], [5.353197575707611, 8.286828994862276], [5.352762698639651, 8.298131943234637], [5.353197575707611, 8.305522919846908], [5.353197575707611, 8.309869765976941], [5.347546101071771, 8.315521240612838], [5.343198775603071, 8.321607591417262], [5.33580827743009, 8.32856369006231], [5.332330226758586, 8.33117198929591], [5.324504852417078, 8.333780289428887], [5.321027278386225, 8.325085640290126], [5.311462878708937, 8.308566094349828], [5.30624628024168, 8.300740241568917], [5.281031609421291, 8.273787497794842], [5.274510859988254, 8.270744324191242], [5.263207435874506, 8.268135070776964], [5.255816935902942, 8.265526772442627], [5.245818137597041, 8.257266997673867], [5.23989657316838, 8.25506782522001], [5.197997570031873, 8.214228629947343], [5.194510130438232, 8.199998215645167], [5.194510130438232, 8.193911865740063], [5.192336704675256, 8.190433815967879], [5.189801835086655, 8.18560995863271], [5.184814531365589, 8.181533349784331], [5.187589896756378, 8.172482991796699], [5.190678331439869, 8.164177250879447], [5.190678331439869, 8.158524823861569], [5.188806839564052, 8.152131749380771], [5.184591980635446, 8.144613576255608], [5.18111440660465, 8.140266729226198], [5.159190606061657, 8.122825389879893], [5.132855770277615, 8.123269431938809], [5.12370115118722, 8.119124001571436], [5.119668704447179, 8.112883835220885], [5.105817265354574, 8.104190265268585], [5.090427352440429, 8.094465843823684], [5.085760934919278, 8.087630587981323], [5.078830922009502, 8.064142331303572], [5.054930210161103, 8.049190521325556], [5.05763292202181, 8.039464951446405]]]}}, {"type": "Feature", "properties": {"name": "Ifelodun", "state": "kw"}, "geometry": {"type": "Polygon", "coordinates": [[[4.671853605559477, 7.859054704111372], [4.661001517905788, 7.875312333297586], [4.674633763437498, 7.888744948220847], [4.670822981595393, 7.895919303333244], [4.664971042679497, 7.897776122769926], [4.665520021232055, 7.904084743715998], [4.659171459595257, 7.909425900085296], [4.674660446322605, 7.914168732101359], [4.675667589887439, 7.917760315885914], [4.684080966163719, 7.92092887566713], [4.686352997193126, 7.923116029581138], [4.69370892542662, 7.930341093866446], [4.69155785411175, 7.947495731143135], [4.700162875016701, 7.949245235379351], [4.707304548765933, 7.950337539346037], [4.717108112349536, 7.954412078854432], [4.729850612715666, 7.950646936706789], [4.747885489323949, 7.949765694631139], [4.744899741030281, 7.954339142037838], [4.769084502847591, 7.9654259779266], [4.76990042266641, 7.966609092735496], [4.775284989310876, 7.96831889010474], [4.761188110842681, 8.01614899138292], [4.758209763969489, 8.01522120939137], [4.750785888358109, 8.012047042337201], [4.741450365242201, 7.996650051758536], [4.717057744019712, 8.006681731976414], [4.700816227087273, 8.006884319555752], [4.694598954777973, 7.974153026041392], [4.688147468430998, 7.965940454888141], [4.682444335837488, 7.963409611564373], [4.645760764747536, 7.958288665889256], [4.636887862784704, 7.960846837811346], [4.632677254951375, 7.960801228693811], [4.621762811004999, 7.967468557727784], [4.616992029858352, 7.969493877740319], [4.61194509838765, 7.967947045619724], [4.598337289234564, 7.977006223258627], [4.594057886862061, 7.977068546276428], [4.579649136098794, 7.97201067005642], [4.575949396247665, 7.967380568058843], [4.576766779263494, 7.964056010976151], [4.56746650777319, 7.943577384089053], [4.568711283698804, 7.937773608365376], [4.582693750416297, 7.927944731564139], [4.591618106190708, 7.924870084386953], [4.599979584390383, 7.923663628573649], [4.609580948002417, 7.924365286828561], [4.619866638134908, 7.917909474742487], [4.623166650020949, 7.912996534162744], [4.623697333665064, 7.911271840423126], [4.623650601294287, 7.911163344412842], [4.604034760595766, 7.88774186959165], [4.612616121237068, 7.873950230918467], [4.613945115075069, 7.872750619845306], [4.623504117021412, 7.855743969608568], [4.630312693576002, 7.85754830101331], [4.634077670248359, 7.861048242982065], [4.648223763216151, 7.842762193820249], [4.664004802080001, 7.841098897696043], [4.671853605559477, 7.859054704111372]]]}}, {"type": "Feature", "properties": {"name": "Moro", "state": "kw"}, "geometry": {"type": "Polygon", "coordinates": [[[4.334852218255321, 8.98080062914579], [4.334852218255321, 8.957744597435294], [4.321018218815766, 8.942373276205785], [4.292989610682014, 8.923915302749094], [4.257997035734661, 8.900871276088594], [4.221106528843279, 8.860906599559996], [4.194975852653499, 8.816330910043519], [4.234586174712263, 8.804730208732224], [4.25787466678247, 8.734192900282153], [4.301136498050994, 8.74659313576467], [4.340947851861927, 8.71781485816922], [4.342456339588466, 8.690199850942406], [4.368879317026881, 8.673938750373054], [4.394794464393044, 8.656154631730942], [4.406727134249877, 8.635618635291848], [4.418904176886315, 8.61318784824067], [4.419343393183112, 8.597934947040244], [4.428131719303451, 8.583445753718593], [4.47258070243754, 8.567003300362046], [4.475951149226205, 8.565806163323828], [4.478637218233075, 8.564689635218542], [4.479101180275279, 8.561439514122355], [4.485242842982871, 8.55910014995203], [4.492864609014532, 8.560625074587563], [4.498454570022432, 8.566721915983692], [4.533245355089093, 8.572266364101495], [4.543004929234144, 8.575006110044], [4.54855793709919, 8.580247929997995], [4.57309511804533, 8.577744489016993], [4.576971493739507, 8.574798284813028], [4.578305450935886, 8.573179965582995], [4.580894817641763, 8.572495119254427], [4.582719867627816, 8.57176923686086], [4.585962742886295, 8.572226123037183], [4.58418603955414, 8.568404611383755], [4.583207843367347, 8.565903514935314], [4.602087997263311, 8.536491101982847], [4.604486711292736, 8.540890943362399], [4.637809539278862, 8.551774428147382], [4.640921078445047, 8.553815417947249], [4.648640329187913, 8.561221730698378], [4.652555425192759, 8.570821397289706], [4.679187774696118, 8.57447528790425], [4.741595267607579, 8.630777358987984], [4.825031279669872, 8.693184852798765], [4.845381260336922, 8.724388122613789], [4.854877949158094, 8.731849669926362], [4.860983371885141, 8.73727703081039], [4.869801521323211, 8.741346357848158], [4.880776405107042, 8.746441841018225], [4.870092869290545, 8.764960287587257], [4.862629890257267, 8.7832021710434], [4.847704887270766, 8.798956870563188], [4.837287545383958, 8.811457402936867], [4.835267066422034, 8.81388187444901], [4.829196773012711, 8.824918854621501], [4.826145649402235, 8.83046626960271], [4.815366268338664, 8.846220970021818], [4.814119716251923, 8.853699875149175], [4.812878608660924, 8.86114597300832], [4.808732984939354, 8.879387855565142], [4.791684705984437, 8.891648006350465], [4.781302247001122, 8.921640051247437], [4.790714493079463, 8.950838302345801], [4.795487560302718, 8.949524979194507], [4.796006863026378, 8.953466250866825], [4.800180086941509, 8.953115651965788], [4.802099227597296, 8.951527595821915], [4.804586886375773, 8.962306975986223], [4.812878608660924, 8.974744796834955], [4.827804089187396, 8.984695434646653], [4.830291747965816, 8.990499496354744], [4.839412689244284, 8.992157936139904], [4.851021290200435, 8.997961997847995], [4.851850510093016, 9.007082939126406], [4.851850510093016, 9.013716697367727], [4.877555369884476, 9.021179198860978], [4.878384589777056, 9.029471396887516], [4.878384589777056, 9.033617019709766], [4.880043029562216, 9.042737960988177], [4.877555369884476, 9.047713280343658], [4.88128709772144, 9.054347037685716], [4.884603499751734, 9.057663918155356], [4.890408038999851, 9.056834220722749], [4.892865180183946, 9.059488297247185], [4.890830039574723, 9.063558577566369], [4.892186641700221, 9.069664001192734], [4.897613525044221, 9.075090407896084], [4.900326729295159, 9.09951019314093], [4.899648665653444, 9.106293677711108], [4.897613525044221, 9.117147446197748], [4.891508578957826, 9.119182586806971], [4.886081695613825, 9.124608994409641], [4.887438296840003, 9.131392478080443], [4.889473438348546, 9.13614082294066], [4.884046555004545, 9.140889167800879], [4.881333350753607, 9.146316527785586], [4.879298210144327, 9.152420998130594], [4.876071453434861, 9.157646178828145], [4.848084449737598, 9.141194343744019], [4.815155235225973, 9.131622475197105], [4.807594258867994, 9.136369975593936], [4.805804903873252, 9.136366844154566], [4.800886631213132, 9.136366844154566], [4.785332679259795, 9.135293961047523], [4.772460937322421, 9.147629736723047], [4.768706321739387, 9.153530120318862], [4.764554977430294, 9.14993190763147], [4.756572666895124, 9.134564085664067], [4.752640392040519, 9.106733862577755], [4.748791934899941, 9.087962692124563], [4.736021652677152, 9.084706937675094], [4.723126819746994, 9.075352577359581], [4.721105679783363, 9.065513096652126], [4.683135417165829, 9.073378354127783], [4.679488123977762, 9.05893497406987], [4.670349859058774, 9.064741631221352], [4.669454297078175, 9.071609715915713], [4.636433637702282, 9.08137156084888], [4.629794597742546, 9.081660271104681], [4.609950065742964, 9.081660271104681], [4.607569405603613, 9.082652255697099], [4.603514194324646, 9.084342001782034], [4.58796024237131, 9.082733154211724], [4.549880026841834, 9.074687957683125], [4.524136066326435, 9.074151992320651], [4.502146243854099, 9.068251608724836], [4.488201140370393, 9.059670446833707], [4.471038341746123, 9.053234099674], [4.459239006275141, 9.046798705795709], [4.443685055221181, 9.041971206206256], [4.428131579908552, 9.036071775891799], [4.334852218255321, 8.98080062914579]]]}}, {"type": "Feature", "properties": {"name": "Irepodun", "state": "kw"}, "geometry": {"type": "Polygon", "coordinates": [[[4.522222518554429, 7.955598829622318], [4.525378804388367, 7.940675333899605], [4.523559173716933, 7.93469339618332], [4.496821599936936, 7.897511255340191], [4.496407688763895, 7.880549690815656], [4.4827837592631, 7.867445614423616], [4.48466218671058, 7.863480552085832], [4.481364847609655, 7.857570987311249], [4.482181882587838, 7.843962512659857], [4.479235062348323, 7.837353823919898], [4.486047067118477, 7.827016231214145], [4.502154872849133, 7.831295279253766], [4.500835967605894, 7.834431683775222], [4.502734654980372, 7.836395968599106], [4.506244790764526, 7.838770337980748], [4.511682832896497, 7.839318216662434], [4.514199428261065, 7.846876041795952], [4.520212784692319, 7.856119793593621], [4.535564680565585, 7.860060433042577], [4.533351741289891, 7.866458176803462], [4.532746840194591, 7.871032396727799], [4.532550388689515, 7.871528745155501], [4.537847664438232, 7.88208545857708], [4.544805069798201, 7.886109409421749], [4.556267263823202, 7.908018579793691], [4.558800290700901, 7.909700821036097], [4.559611363173929, 7.910605701791781], [4.567635601002223, 7.911178357695121], [4.563428362029356, 7.918375702176945], [4.563951176605542, 7.92367072872122], [4.566594982872232, 7.929241293151222], [4.569160683019163, 7.932419203183713], [4.568711283698804, 7.937773608365376], [4.56746650777319, 7.943577384089053], [4.576766779263494, 7.964056010976151], [4.567524927733302, 7.969457355372697], [4.559595669104908, 7.973229907034636], [4.553082568405841, 7.975284208599419], [4.549669266223702, 7.970847129891183], [4.54268836877327, 7.966130256805968], [4.535564899100848, 7.961317060933652], [4.529846667789514, 7.958866118776427], [4.525915145667511, 7.95718145296172], [4.522222518554429, 7.955598829622318]]]}}, {"type": "Feature", "properties": {"name": "Ilorin West", "state": "kw"}, "geometry": {"type": "Polygon", "coordinates": [[[4.532912373906981, 8.524473396729945], [4.521642159058445, 8.515335354842819], [4.521515006612333, 8.520682554656219], [4.512781120952013, 8.526470726243076], [4.510366503311502, 8.521365721051211], [4.512059888952763, 8.513379084777], [4.497645807008439, 8.505988769166436], [4.478574046255289, 8.507550459885863], [4.478642617762659, 8.508486761155154], [4.473435049388058, 8.512190005664252], [4.470222054104568, 8.502731061389397], [4.460304680416698, 8.498107505556959], [4.443624199896931, 8.490059475264616], [4.44002753044623, 8.482130139294554], [4.442836463931712, 8.46869193958139], [4.449377937341978, 8.453851936018054], [4.453334955244031, 8.430446202030623], [4.474515285352197, 8.408577816812851], [4.484782676979023, 8.407598216784322], [4.491829194361856, 8.403371028150502], [4.50236428808148, 8.407631265070847], [4.509418839108207, 8.40794173532288], [4.513152261267919, 8.40959277818422], [4.519521600841244, 8.409973031330367], [4.525506508118895, 8.408658714428157], [4.531053626323853, 8.406433081221792], [4.552316666181241, 8.412248611084578], [4.568068980698968, 8.410216330319429], [4.57483909235026, 8.408450300141283], [4.583573437564155, 8.414326937138469], [4.589890819705602, 8.425589639050656], [4.598034599017581, 8.4267048190722], [4.562825896298136, 8.480060453926853], [4.552959943146902, 8.482691900810607], [4.548576539575663, 8.496031765953262], [4.541358460324716, 8.497391030072038], [4.543035062817921, 8.503254530672109], [4.548287397645311, 8.504010775077234], [4.532549736681062, 8.516359815752935], [4.532344982634868, 8.517003545976934], [4.531901722986163, 8.518160030061381], [4.534935404245573, 8.520372462119497], [4.532912373906981, 8.524473396729945]]]}}, {"type": "Feature", "properties": {"name": "Asa", "state": "kw"}, "geometry": {"type": "Polygon", "coordinates": [[[4.637989520599945, 8.326872826120052], [4.641851901943767, 8.336314201239418], [4.648345738265277, 8.348535350226257], [4.650437320326148, 8.3514043035658], [4.661853769435936, 8.358917641935648], [4.649371147060833, 8.373122215118201], [4.643781661794321, 8.376679419619563], [4.636891952901351, 8.378967925329562], [4.629157766217986, 8.371597289583292], [4.617768241910881, 8.381310879593457], [4.614762873108134, 8.395386456719677], [4.599769153823445, 8.408241872364556], [4.599577342820169, 8.409607013552886], [4.598915289808815, 8.413743007333949], [4.598219123713648, 8.420390103420573], [4.598393744176008, 8.421679608027546], [4.599164796817945, 8.422749437036941], [4.600520057154938, 8.424168596903257], [4.599824088910623, 8.424962649706572], [4.599159355919596, 8.425532030279044], [4.598034599017581, 8.4267048190722], [4.589890819705602, 8.425589639050656], [4.583573437564155, 8.414326937138469], [4.57483909235026, 8.408450300141283], [4.568068980698968, 8.410216330319429], [4.552316666181241, 8.412248611084578], [4.531053626323853, 8.406433081221792], [4.525506508118895, 8.408658714428157], [4.519521600841244, 8.409973031330367], [4.513152261267919, 8.40959277818422], [4.509418839108207, 8.40794173532288], [4.50236428808148, 8.407631265070847], [4.491829194361856, 8.403371028150502], [4.484782676979023, 8.407598216784322], [4.474515285352197, 8.408577816812851], [4.453334955244031, 8.430446202030623], [4.449377937341978, 8.453851936018054], [4.442836463931712, 8.46869193958139], [4.44002753044623, 8.482130139294554], [4.443624199896931, 8.490059475264616], [4.460304680416698, 8.498107505556959], [4.470222054104568, 8.502731061389397], [4.477278764403479, 8.522071586334675], [4.470746132228271, 8.52588083123544], [4.469372477158117, 8.52777024839827], [4.468045075120187, 8.529322017796915], [4.473014103717958, 8.53436469907166], [4.472850386636082, 8.535908331404414], [4.47123042164668, 8.53603740929907], [4.471153591664972, 8.536871261599515], [4.472521436215345, 8.539350936196797], [4.474665201437972, 8.541832324901918], [4.478637218233075, 8.564689635218542], [4.475951149226205, 8.565806163323828], [4.47258070243754, 8.567003300362046], [4.428131719303451, 8.583445753718593], [4.419343393183112, 8.597934947040244], [4.418904176886315, 8.61318784824067], [4.406727134249877, 8.635618635291848], [4.394794464393044, 8.656154631730942], [4.368879317026881, 8.673938750373054], [4.342456339588466, 8.690199850942406], [4.340947851861927, 8.71781485816922], [4.301136498050994, 8.74659313576467], [4.25787466678247, 8.734192900282153], [4.234586174712263, 8.804730208732224], [4.194975852653499, 8.816330910043519], [4.191267112387379, 8.765646445127402], [4.190364361226329, 8.753309249422387], [4.213420867778893, 8.682601927736812], [4.209143639067747, 8.680658339910508], [4.391735076912312, 8.304002761618221], [4.402330365853743, 8.29163786859283], [4.417978287068365, 8.273376463553006], [4.459682309091363, 8.23355517043484], [4.460922505669146, 8.229602938724668], [4.461601740228161, 8.227438370384561], [4.471919082899433, 8.216350082090685], [4.480495623174534, 8.210510320894628], [4.483886240857373, 8.202712058414818], [4.490001201794087, 8.182328222769286], [4.494078157780791, 8.166700362731603], [4.495437144009031, 8.117099761644738], [4.504320097694404, 8.095187867226343], [4.505629061831769, 8.091958999808071], [4.527365324050493, 8.076054432765886], [4.539335430885501, 8.104260749633909], [4.541474549311033, 8.105954950960268], [4.544469313308184, 8.107366778653954], [4.54931798024063, 8.108778600951723], [4.568256299588597, 8.125701267999148], [4.57291482286081, 8.126360087947774], [4.568399865561389, 8.152459163759431], [4.578373840780159, 8.156143497324592], [4.584347725067516, 8.159081459241975], [4.591642857332033, 8.166805266849622], [4.594646931111015, 8.171096801975864], [4.597651004889997, 8.186116219388055], [4.584776877950617, 8.212722778133752], [4.583060264619576, 8.220018387038976], [4.583060264619576, 8.229458807977664], [4.583060264619576, 8.235037802652528], [4.584776877950617, 8.24018764534361], [4.59078502730722, 8.25134467961334], [4.601084231552079, 8.263360977427226], [4.617850805070645, 8.277732215669289], [4.622111795622914, 8.281384467719079], [4.624257087894364, 8.288680076624303], [4.627690314556446, 8.303270340254073], [4.628977775903707, 8.308849334029617], [4.637989520599945, 8.326872826120052]]]}}]}