{"type": "FeatureCollection", "features": [{"type": "Feature", "properties": {"name": "Lagos Mainland", "state": "LA"}, "geometry": {"type": "Polygon", "coordinates": [[[3.379361278100532, 6.466226934225688], [3.393739022038289, 6.484783438305101], [3.389893602807547, 6.492842442125038], [3.397116736248449, 6.4910861318196], [3.397867026242295, 6.490917046684388], [3.405084522732579, 6.515358537066902], [3.400320160946706, 6.523885985150116], [3.382045169848766, 6.524038119863405], [3.376076182369957, 6.528977825166521], [3.367503741204757, 6.524388646818636], [3.365475556851493, 6.517268106238134], [3.37206335973633, 6.506423904739449], [3.369145226970716, 6.505637175115567], [3.368709632243792, 6.505286879286075], [3.367600150326723, 6.4959437883752], [3.366895052164978, 6.495101816095996], [3.365345008565328, 6.490614798933848], [3.363292387833496, 6.490003560316097], [3.369098765295803, 6.482244137756823], [3.364460226758126, 6.476264005879216], [3.379361278100532, 6.466226934225688]]]}}, {"type": "Feature", "properties": {"name": "Lagos Island", "state": "LA"}, "geometry": {"type": "Polygon", "coordinates": [[[3.403009752598052, 6.439335522416457], [3.407181067252509, 6.446193932204267], [3.407136210867463, 6.457144298670471], [3.398721221207438, 6.459547853750507], [3.39207776557646, 6.465867444626895], [3.380564823707687, 6.462970989119924], [3.381469291674534, 6.454097027755665], [3.403009752598052, 6.439335522416457]]]}}, {"type": "Feature", "properties": {"name": "Apapa", "state": "LA"}, "geometry": {"type": "Polygon", "coordinates": [[[3.364495326398242, 6.476246227181662], [3.356227864224593, 6.47319191007864], [3.352840853722455, 6.478337770571727], [3.348017322841201, 6.479099337164712], [3.33877777267611, 6.474598510013266], [3.345966864978891, 6.471067717701033], [3.350463364592656, 6.472901560358764], [3.350908198054924, 6.467430635415553], [3.35552390730254, 6.466604299648736], [3.356148276022168, 6.455160985990744], [3.351033641789172, 6.454849209023848], [3.349059825050915, 6.436973870347913], [3.33172460031011, 6.437407102555767], [3.33188235308819, 6.434203631092771], [3.332050874348397, 6.429896301173414], [3.342527718979113, 6.42755361760544], [3.354275072736471, 6.424711587269996], [3.354455468645028, 6.424548690369818], [3.359591686607075, 6.397662151986765], [3.377091507067462, 6.398044023013313], [3.380097831849525, 6.407384181235045], [3.384384480959056, 6.409898164968411], [3.397515325671804, 6.409448030002636], [3.400271547194222, 6.4104270562637], [3.403009752598052, 6.439335522416457], [3.381107816372662, 6.45451088137213], [3.381493660604008, 6.463544713417832], [3.377762054175491, 6.469418166814989], [3.37607396014522, 6.46981002391351], [3.374150070169662, 6.46974251270683], [3.372323610046635, 6.469404945881593], [3.37203134387147, 6.470249557671025], [3.371297620288999, 6.472105473288991], [3.370517971926915, 6.473995885102056], [3.364495326398242, 6.476246227181662]]]}}, {"type": "Feature", "properties": {"name": "Mushin", "state": "LA"}, "geometry": {"type": "Polygon", "coordinates": [[[3.367503741204757, 6.524388646818636], [3.366925915098932, 6.558478963433458], [3.357253935820552, 6.558057709295895], [3.341098258278066, 6.551283097437022], [3.337625322950316, 6.547303915743157], [3.334369288811672, 6.51700760321836], [3.325296549396285, 6.509868356739332], [3.322288649002019, 6.501563548419085], [3.326623777865109, 6.498641597132064], [3.337661645668447, 6.51110977999241], [3.348614369257803, 6.512583251715739], [3.352280596772175, 6.518192798159134], [3.358548668186529, 6.51278377894829], [3.362529928213689, 6.519399786371082], [3.363985385617127, 6.520049747997518], [3.364647604103709, 6.520376926753841], [3.365475556851493, 6.517268106238134], [3.36733558596859, 6.519653789091137], [3.367503741204757, 6.524388646818636]]]}}, {"type": "Feature", "properties": {"name": "Surulere", "state": "LA"}, "geometry": {"type": "Polygon", "coordinates": [[[3.365475556851493, 6.517268106238134], [3.364647604103709, 6.520376926753841], [3.363985385617127, 6.520049747997518], [3.362529928213689, 6.519399786371082], [3.358548668186529, 6.51278377894829], [3.352280596772175, 6.518192798159134], [3.348614369257803, 6.512583251715739], [3.337661645668447, 6.51110977999241], [3.326623777865109, 6.498641597132064], [3.322288649002019, 6.501563548419085], [3.327311841068649, 6.477952098110904], [3.315469131295401, 6.459792832673145], [3.345712182371358, 6.478641375399206], [3.352297403302543, 6.478644506838577], [3.355531165730781, 6.473337917710808], [3.363353890669543, 6.4738936852454], [3.369098765295803, 6.482244137756823], [3.363292387833496, 6.490003560316097], [3.365345008565328, 6.490614798933848], [3.366895052164978, 6.495101816095996], [3.367600150326723, 6.4959437883752], [3.368709632243792, 6.505286879286075], [3.369145226970716, 6.505637175115567], [3.37206335973633, 6.506423904739449], [3.365475556851493, 6.517268106238134]]]}}, {"type": "Feature", "properties": {"name": "Shomolu", "state": "LA"}, "geometry": {"type": "Polygon", "coordinates": [[[3.399848308252899, 6.523963336738632], [3.40142478292745, 6.531220504123041], [3.39696107979006, 6.550072866269829], [3.380115000806711, 6.548258517316754], [3.366925915098932, 6.558478963433458], [3.367503741204757, 6.524388646818636], [3.376076182369957, 6.528977825166521], [3.382045169848766, 6.524038119863405], [3.399848308252899, 6.523963336738632]]]}}, {"type": "Feature", "properties": {"name": "Agege", "state": "LA"}, "geometry": {"type": "Polygon", "coordinates": [[[3.315837909991615, 6.605385264018764], [3.326572612735959, 6.608228860073893], [3.333082450694576, 6.601756581401162], [3.33667874422872, 6.62653436516888], [3.322574685573329, 6.627355057689783], [3.314487191230967, 6.647884274139983], [3.306024227236321, 6.64782754490534], [3.298327080030788, 6.622656364399745], [3.306266054934554, 6.610407852640321], [3.315837909991615, 6.605385264018764]]]}}, {"type": "Feature", "properties": {"name": "Oshodi/Isolo", "state": "LA"}, "geometry": {"type": "Polygon", "coordinates": [[[3.351813450230566, 6.555701927102291], [3.337599370314763, 6.59028770091669], [3.335492380169285, 6.589428067751157], [3.334745609222523, 6.589390273742197], [3.334182436670176, 6.589321696838908], [3.333924585751106, 6.582823288364125], [3.330452235882035, 6.58053615142228], [3.321354997135472, 6.582732538675771], [3.315655504098288, 6.580645277857343], [3.31505501687559, 6.587875704800012], [3.308792337796206, 6.588147725437238], [3.305681554959847, 6.568183038616382], [3.300021295746262, 6.572082960360376], [3.288108470329689, 6.570580250777994], [3.285730812127326, 6.557778390660246], [3.288593566439999, 6.533266540018872], [3.287136316687736, 6.525356408171774], [3.281847893865233, 6.5214507208741], [3.292480813139036, 6.506849470226939], [3.290324363878312, 6.482814275558439], [3.317316301006542, 6.489846412781787], [3.325296549396285, 6.509868356739332], [3.334369288811672, 6.51700760321836], [3.338039442766103, 6.548518371925354], [3.351813450230566, 6.555701927102291]]]}}, {"type": "Feature", "properties": {"name": "Ajeromi/Ifelodun", "state": "LA"}, "geometry": {"type": "Polygon", "coordinates": [[[3.33877777267611, 6.474598510013266], [3.315561577105143, 6.459793440614817], [3.315505790359964, 6.456258853163604], [3.322604776888966, 6.442615390388028], [3.347724835432871, 6.436510071982298], [3.351033641789172, 6.454849209023848], [3.356148276022168, 6.455160985990744], [3.35552390730254, 6.466604299648736], [3.350908198054924, 6.467430635415553], [3.350463364592656, 6.472901560358764], [3.345966864978891, 6.471067717701033], [3.33877777267611, 6.474598510013266]]]}}, {"type": "Feature", "properties": {"name": "Epe", "state": "LA"}, "geometry": {"type": "Polygon", "coordinates": [[[4.085006975891247, 6.679777243025399], [3.982532114665389, 6.682713381117708], [3.981811651586497, 6.684391906361441], [3.978807413231607, 6.691934445718118], [3.912122878667958, 6.681201142318912], [3.699014341138991, 6.684149117287973], [3.683762807807398, 6.640020042790809], [3.699709750904333, 6.618497713099032], [3.700604891102898, 6.60966238121398], [3.698649238871326, 6.607769651848002], [3.696959210399314, 6.606864487805922], [3.70070277421371, 6.597577137774749], [3.669534980854735, 6.572814701837046], [3.664199574750626, 6.565402216139432], [3.662293367245127, 6.562150210064203], [3.657166098436733, 6.55765754426028], [3.650365903563625, 6.554842302930012], [3.641794191748602, 6.551502700189531], [3.635467687783603, 6.544665860641032], [3.634074262017634, 6.540359650377638], [3.63292474408172, 6.539690969362766], [3.62898151728325, 6.524809461187715], [3.616190593820875, 6.513378871138059], [3.62402721508397, 6.508602286666246], [3.626957527368063, 6.505316216070582], [3.628993999873217, 6.498905954646148], [3.619858647858337, 6.492422690754609], [3.618968568144965, 6.488604038945311], [3.639943676559483, 6.480210634812977], [3.654317411319539, 6.493403397848567], [3.682139080953846, 6.487454068650379], [3.721157110412378, 6.494976934438], [3.78827963369821, 6.500125449729751], [3.804477928313815, 6.504467349588538], [3.822334186973194, 6.508076325362197], [3.846796663035605, 6.512774479958352], [3.849619552200636, 6.512386826291049], [3.866354436308256, 6.511528051078756], [3.853351089381306, 6.536861811923131], [3.877311896626793, 6.537329876672516], [3.884473879765778, 6.5370704168663], [3.886425791716988, 6.536664926944866], [3.894947392408255, 6.532859053602465], [3.893304990233162, 6.52048521142342], [3.894674048868296, 6.515284802551662], [3.895259122610469, 6.503422321183223], [3.903088873952413, 6.507300178960122], [3.910499710293436, 6.508866372585089], [3.916324737896389, 6.506788150852515], [3.92090521980009, 6.506335862010474], [3.929009077307114, 6.510025639171943], [3.940602312446799, 6.510456336190998], [3.948125195321552, 6.506542462364791], [3.948647831832034, 6.500383247588843], [3.966337223983771, 6.502654621213821], [3.988611779909775, 6.4906191903234], [3.993032562902499, 6.49020850321989], [3.999066208039096, 6.492350441020108], [4.001984678949839, 6.487233000003016], [4.004134123391111, 6.480423391926024], [4.006668160207482, 6.477776575628525], [4.012113354647624, 6.472835961110775], [4.016780360325413, 6.471701386309974], [4.01986397464276, 6.472246119163117], [4.021948076142849, 6.471633586420921], [4.024985446421283, 6.468698323368983], [4.025843502175917, 6.467088435283131], [4.027315568258928, 6.465769763863534], [4.04104729859398, 6.465215365097094], [4.070568110429974, 6.434503473156838], [4.07320164913682, 6.435455172618163], [4.076685717172154, 6.438147516194988], [4.078070531929541, 6.436852344959789], [4.081275916250604, 6.436701988206266], [4.082617024855836, 6.437369202426794], [4.109953717090434, 6.422952347872581], [4.143866111831642, 6.433818205945499], [4.159612461146196, 6.421236280430037], [4.201780738390426, 6.425107336634312], [4.224405832063553, 6.401353804234702], [4.230521713006681, 6.398132659294845], [4.242919764935266, 6.396607740954551], [4.255723533414368, 6.394099460721577], [4.278975245011623, 6.378159915447782], [4.359663678935704, 6.367825533321763], [4.362509352424695, 6.386637690377142], [4.367156179114431, 6.407146073132822], [4.3686295177381, 6.438459141176452], [4.353724428439648, 6.451056359663312], [4.328378915254802, 6.448060210710196], [4.321038983262497, 6.451448403820848], [4.312220063105485, 6.445345477611738], [4.303115859109653, 6.447359675708526], [4.293936362073509, 6.449909920106791], [4.291334057720633, 6.450069662185228], [4.284765426583192, 6.455905739758123], [4.28039280318535, 6.455165318924401], [4.279864048587001, 6.455075785119448], [4.276268262270548, 6.455927102254009], [4.265924135090813, 6.452047709334352], [4.264146198788069, 6.445084003324155], [4.260086784077885, 6.444175170048084], [4.250683702990557, 6.449328705355526], [4.247559350283836, 6.455155923706968], [4.243810547019166, 6.45608397099852], [4.238376267650665, 6.456480079192374], [4.234937720599362, 6.45909192894942], [4.230750267610802, 6.468597202698788], [4.224790637577883, 6.473435745962945], [4.219355940024684, 6.473755115006611], [4.21414704964667, 6.4724658334315], [4.204882914714801, 6.472105014634792], [4.202134878821653, 6.47548079889981], [4.1693195580512, 6.487503161741586], [4.163622323211712, 6.506966422562414], [4.181723165991343, 6.520707903347102], [4.18524707129535, 6.521541957095678], [4.191611261350658, 6.525508836963297], [4.197897154630027, 6.528710061919867], [4.208619093296591, 6.529909637919502], [4.210754619829913, 6.531143792851822], [4.225640365610445, 6.539746500700517], [4.232702014986046, 6.54692713937601], [4.239324706170294, 6.562302049799825], [4.240955593425952, 6.571563357263187], [4.235895857407968, 6.578183962919582], [4.224011258113137, 6.59373482030577], [4.222408089761586, 6.595729662294104], [4.21666896000454, 6.597351741589648], [4.213609710120068, 6.598890673166068], [4.206331025556437, 6.597223713203846], [4.193155570872932, 6.59534105624482], [4.177784630956012, 6.604107106158096], [4.16329071979095, 6.595181877141954], [4.156231035433962, 6.588842539851385], [4.144423231946632, 6.58220766375274], [4.135845009939317, 6.581384900093099], [4.131782934135174, 6.579786018809784], [4.128171862041825, 6.57443385293999], [4.121270134609063, 6.569931367438699], [4.119663300620857, 6.564849142973628], [4.118802361639723, 6.562126097441478], [4.116797345621023, 6.555774723624666], [4.109519558580814, 6.554182759926505], [4.101334211704568, 6.557723325171366], [4.100973723858317, 6.567908835324545], [4.098761843084617, 6.571895690034125], [4.090486868873938, 6.569616473421547], [4.077395892906168, 6.571099782828753], [4.07172972964338, 6.571265101603217], [4.069640786193361, 6.572552573742314], [4.070226959806405, 6.576181758181633], [4.061196912107846, 6.585169589005375], [4.054730320747751, 6.622011111623578], [4.057555780175164, 6.620760814759819], [4.05956189156808, 6.624071662577194], [4.062381101606604, 6.628588190092955], [4.05851663113765, 6.634483355822283], [4.062815834783009, 6.636449925823456], [4.064332483857072, 6.636146544927158], [4.066693305851459, 6.634893893638321], [4.070596940896166, 6.631849005926938], [4.076152676404945, 6.633416392052879], [4.079221022931904, 6.635707039947988], [4.083290749268713, 6.636248562221397], [4.088087174583507, 6.640760883607925], [4.093292661027533, 6.646229449629459], [4.090016645751632, 6.647504977872472], [4.09510342798086, 6.651555500985637], [4.09517937302968, 6.651615974097979], [4.096370124881389, 6.652564150914884], [4.09579949425131, 6.654264461335856], [4.09487558743848, 6.65855001686981], [4.093887719043039, 6.666377387706348], [4.096914880217582, 6.671539591578949], [4.091332317032879, 6.679688255108942], [4.085006975891247, 6.679777243025399]]]}}, {"type": "Feature", "properties": {"name": "Amuwo Odofin", "state": "LA"}, "geometry": {"type": "Polygon", "coordinates": [[[3.337079658399546, 6.438062606703966], [3.321313339638948, 6.443621446672466], [3.315505790359964, 6.456258853163604], [3.316594405307626, 6.462509928290615], [3.327311841068649, 6.477952098110904], [3.321505119165977, 6.495769703908763], [3.315245758584922, 6.488811349764035], [3.290324363878312, 6.482814275558439], [3.29004223306265, 6.491590370898962], [3.270153190017766, 6.478077237874288], [3.246353579953791, 6.477089897380893], [3.243996609755811, 6.472179682646299], [3.239470335387693, 6.474404869788941], [3.237207096130646, 6.481482876033965], [3.233668075921003, 6.478604721730562], [3.237753321858349, 6.470576159961865], [3.237870032276192, 6.458153151846545], [3.230856720561235, 6.459259281091022], [3.230180985264326, 6.442034421151675], [3.21582589704758, 6.435147022617059], [3.200987033824617, 6.434532690331423], [3.199435570195476, 6.431994317883493], [3.201732267829925, 6.402062740702945], [3.30223744829965, 6.402015350028421], [3.359591686607075, 6.397662151986765], [3.354455468645028, 6.424548690369818], [3.354275072736471, 6.424711587269996], [3.342527718979113, 6.42755361760544], [3.332050874348397, 6.429896301173414], [3.33188235308819, 6.434203631092771], [3.33172460031011, 6.437407102555767], [3.337079658399546, 6.438062606703966]]]}}, {"type": "Feature", "properties": {"name": "Ibeju Lekki", "state": "LA"}, "geometry": {"type": "Polygon", "coordinates": [[[3.667007243789328, 6.49151175036701], [3.670029712301414, 6.488725090390631], [3.673441592655422, 6.482332138217657], [3.673803575174929, 6.478150074866107], [3.673445859039191, 6.473999601100786], [3.642478942749051, 6.444158684575655], [3.630498591736682, 6.430177440036857], [3.628980145817138, 6.425009716125544], [3.628235537739897, 6.421851465272937], [3.714778377420203, 6.4241486170651], [3.805445607828574, 6.435305796125647], [3.896424393970676, 6.433735506988114], [3.97551005794287, 6.425839295746925], [4.07701061524773, 6.410626673382296], [4.192200731878302, 6.388067498216515], [4.278975245011623, 6.378159915447782], [4.255723533414368, 6.394099460721577], [4.242919764935266, 6.396607740954551], [4.230521713006681, 6.398132659294845], [4.224405832063553, 6.401353804234702], [4.201780738390426, 6.425107336634312], [4.159612461146196, 6.421236280430037], [4.143866111831642, 6.433818205945499], [4.109953717090434, 6.422952347872581], [4.082617024855836, 6.437369202426794], [4.081275916250604, 6.436701988206266], [4.078070531929541, 6.436852344959789], [4.076685717172154, 6.438147516194988], [4.07320164913682, 6.435455172618163], [4.070568110429974, 6.434503473156838], [4.04104729859398, 6.465215365097094], [4.027315568258928, 6.465769763863534], [4.025843502175917, 6.467088435283131], [4.024985446421283, 6.468698323368983], [4.021948076142849, 6.471633586420921], [4.01986397464276, 6.472246119163117], [4.016780360325413, 6.471701386309974], [4.012113354647624, 6.472835961110775], [4.006668160207482, 6.477776575628525], [4.004134123391111, 6.480423391926024], [4.001984678949839, 6.487233000003016], [3.999066208039096, 6.492350441020108], [3.993032562902499, 6.49020850321989], [3.988611779909775, 6.4906191903234], [3.966337223983771, 6.502654621213821], [3.948647831832034, 6.500383247588843], [3.948125195321552, 6.506542462364791], [3.940602312446799, 6.510456336190998], [3.929009077307114, 6.510025639171943], [3.92090521980009, 6.506335862010474], [3.916324737896389, 6.506788150852515], [3.910499710293436, 6.508866372585089], [3.903088873952413, 6.507300178960122], [3.895259122610469, 6.503422321183223], [3.894674048868296, 6.515284802551662], [3.893304990233162, 6.52048521142342], [3.894947392408255, 6.532859053602465], [3.886425791716988, 6.536664926944866], [3.884473879765778, 6.5370704168663], [3.877311896626793, 6.537329876672516], [3.853351089381306, 6.536861811923131], [3.866354436308256, 6.511528051078756], [3.849619552200636, 6.512386826291049], [3.846796663035605, 6.512774479958352], [3.822334186973194, 6.508076325362197], [3.804477928313815, 6.504467349588538], [3.78827963369821, 6.500125449729751], [3.721157110412378, 6.494976934438], [3.682139080953846, 6.487454068650379], [3.672470391395507, 6.490234338943651], [3.667007243789328, 6.49151175036701]]]}}, {"type": "Feature", "properties": {"name": "Eti Osa", "state": "LA"}, "geometry": {"type": "Polygon", "coordinates": [[[3.403009752598052, 6.439335522416457], [3.400271547194222, 6.4104270562637], [3.397515325671804, 6.409448030002636], [3.384384480959056, 6.409898164968411], [3.380097831849525, 6.407384181235045], [3.377091507067462, 6.398044023013313], [3.401716955573079, 6.398581385922284], [3.404617598323568, 6.411924796192466], [3.405199896757892, 6.412468118908635], [3.407582917617617, 6.414917087053993], [3.408751440027004, 6.416107119448043], [3.430424059023153, 6.423817334702278], [3.439951745676581, 6.418639484424716], [3.460916052333971, 6.420120381850211], [3.467794528694583, 6.417299515260481], [3.628235537739897, 6.421851465272937], [3.628980145817138, 6.425009716125544], [3.630498591736682, 6.430177440036857], [3.642478942749051, 6.444158684575655], [3.673445859039191, 6.473999601100786], [3.673803575174929, 6.478150074866107], [3.673441592655422, 6.482332138217657], [3.670029712301414, 6.488725090390631], [3.667007243789328, 6.49151175036701], [3.654317411319539, 6.493403397848567], [3.639943676559483, 6.480210634812977], [3.618968568144965, 6.488604038945311], [3.619858647858337, 6.492422690754609], [3.628977640305891, 6.498063526410647], [3.628993999873217, 6.498905954646148], [3.626957527368063, 6.505316216070582], [3.62402721508397, 6.508602286666246], [3.616190593820875, 6.513378871138059], [3.606744494562804, 6.516055524243086], [3.586925040158519, 6.514531900926556], [3.578346764191849, 6.512918154749116], [3.572755503663586, 6.511791038026047], [3.579506365326552, 6.495761331220535], [3.565489831390664, 6.478122347868123], [3.551588040155991, 6.46707840784228], [3.538297796905852, 6.469541516028187], [3.534575001135465, 6.468074960091371], [3.533808686122029, 6.46747838132228], [3.531463411607206, 6.465305746063393], [3.534046169195392, 6.460294202915179], [3.523668604322665, 6.465175971194185], [3.517600673432355, 6.461536595637426], [3.522076342049616, 6.465529911975921], [3.51279957883753, 6.468863266226776], [3.509051807095261, 6.457669863373553], [3.504468888028782, 6.454223745829268], [3.491975462097969, 6.45664849073529], [3.493391357425253, 6.44810753303625], [3.492816489189693, 6.447464747100469], [3.491904975034629, 6.447075026791083], [3.491154605001043, 6.447052773067071], [3.486333300841181, 6.457565309991139], [3.484675970819467, 6.453921285838703], [3.476274825323003, 6.460286046064198], [3.479509236162357, 6.463714169073683], [3.483151262920501, 6.460922909065062], [3.486893508328819, 6.466893229339121], [3.482677570213752, 6.47008332068873], [3.475647035582256, 6.460363221385592], [3.462796872877448, 6.461240669221581], [3.46023942401024, 6.465413234832965], [3.445897214984541, 6.468906966083694], [3.443701182963252, 6.466266576341468], [3.446225942373417, 6.463943729119876], [3.44051924127001, 6.465717902659151], [3.440001919752831, 6.465166912323184], [3.439277436704401, 6.464122099755173], [3.43839236891273, 6.46331868231141], [3.422110011068185, 6.468054157873155], [3.411366434713216, 6.461651995743068], [3.403747557303973, 6.461351739990846], [3.408511742822725, 6.453773277215021], [3.403009752598052, 6.439335522416457]]]}}, {"type": "Feature", "properties": {"name": "Kosofe", "state": "LA"}, "geometry": {"type": "Polygon", "coordinates": [[[3.366925915098932, 6.558478963433458], [3.380115000806711, 6.548258517316754], [3.396775741207534, 6.550221389305705], [3.401208778362502, 6.535581460615958], [3.404821328941239, 6.533035817149312], [3.407570604100158, 6.551996999961602], [3.401835109402839, 6.564539218610093], [3.397895231679627, 6.566657941311007], [3.403490834134743, 6.568668819110769], [3.406492055264209, 6.574200260333782], [3.418648812792526, 6.577802732210387], [3.418835726087934, 6.581509465189697], [3.418608658063192, 6.584726377920049], [3.40766048234542, 6.583100511579403], [3.407634062062357, 6.583196594247454], [3.40564360336964, 6.584209185005932], [3.405223501263606, 6.59503917271968], [3.418978817218715, 6.59067486535281], [3.42469448096557, 6.593197457396798], [3.429827712279121, 6.595245632779779], [3.431595683194246, 6.602657869365203], [3.441761982029902, 6.607057575846511], [3.442611090429523, 6.613777920814471], [3.452423951204423, 6.622706991734333], [3.445165925866831, 6.626083430705819], [3.431207829877508, 6.640632217602786], [3.392538762553897, 6.638496015678641], [3.372670081059425, 6.64110208369425], [3.364607869357712, 6.629776905879567], [3.365734665922162, 6.616624152782492], [3.358641588838282, 6.610784242299019], [3.365669091855125, 6.605560917802165], [3.366563910995751, 6.605027889625433], [3.369491963283508, 6.607523428263676], [3.383009806057771, 6.593480401199599], [3.368154412396279, 6.572713978667252], [3.366925915098932, 6.558478963433458]]]}}, {"type": "Feature", "properties": {"name": "Alimosho", "state": "LA"}, "geometry": {"type": "Polygon", "coordinates": [[[3.199649774317663, 6.531850140171855], [3.214227717235417, 6.506585280886043], [3.213275923345236, 6.501285630927157], [3.216720203574596, 6.497393377702281], [3.216797808771901, 6.499798281765322], [3.223276828762664, 6.501296635031736], [3.233314326694881, 6.494262075934103], [3.237349744794926, 6.485854419346026], [3.241043890862898, 6.484684674758], [3.237207096130646, 6.481482876033965], [3.241594447725618, 6.472783979397207], [3.242474913686351, 6.472544214743778], [3.243460586836648, 6.47214164492101], [3.243996609755811, 6.472179682646299], [3.246353579953791, 6.477089897380893], [3.270153190017766, 6.478077237874288], [3.29004223306265, 6.491590370898962], [3.292480813139036, 6.506849470226939], [3.281847893865233, 6.5214507208741], [3.287136316687736, 6.525356408171774], [3.288593566439999, 6.533266540018872], [3.286355092713393, 6.568034647780792], [3.294721756403987, 6.57267371781785], [3.305681554959847, 6.568183038616382], [3.309860772856439, 6.600609835175817], [3.315565406418443, 6.601410444936107], [3.31603845431124, 6.604580948152261], [3.306266054934554, 6.610407852640321], [3.298327080030788, 6.622656364399745], [3.305545983060711, 6.64863202894503], [3.294366927092085, 6.655933946594416], [3.290023912073934, 6.662791268202511], [3.283187544669488, 6.663254771590459], [3.273646308830109, 6.669817649764752], [3.269936403941927, 6.68155760390033], [3.257394661034823, 6.693006797325893], [3.256104023282091, 6.681923241264599], [3.238407638901435, 6.660814232790642], [3.237830248067553, 6.619846251903027], [3.224616983187275, 6.60176481559381], [3.223207103425125, 6.600448101099062], [3.218396374393194, 6.598688661152835], [3.211792481737689, 6.59466287209392], [3.193281587675187, 6.577774588826287], [3.191670106889944, 6.569610689881472], [3.197977571307945, 6.561229263819541], [3.198629080667615, 6.545774662670567], [3.201186285818494, 6.544073342310924], [3.199649774317663, 6.531850140171855]]]}}, {"type": "Feature", "properties": {"name": "Ifako/Ijaye", "state": "LA"}, "geometry": {"type": "Polygon", "coordinates": [[[3.257394661034823, 6.693006797325893], [3.269936403941927, 6.68155760390033], [3.27523892273814, 6.668545378866213], [3.283187544669488, 6.663254771590459], [3.290023912073934, 6.662791268202511], [3.294366927092085, 6.655933946594416], [3.306024227236321, 6.64782754490534], [3.314487191230967, 6.647884274139983], [3.322574685573329, 6.627355057689783], [3.33667874422872, 6.62653436516888], [3.343197168014967, 6.635904322426597], [3.34170480063608, 6.651030555016177], [3.353350238722612, 6.658239752562565], [3.348417298119841, 6.661161793781787], [3.345033850731681, 6.672554372186596], [3.32807830177228, 6.671651784702135], [3.311824967748123, 6.674865138815164], [3.285464882598319, 6.686796528037405], [3.272455435569952, 6.698423097448028], [3.269726390660423, 6.698539486807931], [3.268865137815908, 6.699583490885459], [3.265772601324556, 6.700437230793625], [3.257746197029405, 6.696956686302087], [3.257394661034823, 6.693006797325893]]]}}, {"type": "Feature", "properties": {"name": "Ikorodu", "state": "LA"}, "geometry": {"type": "Polygon", "coordinates": [[[3.443198472731353, 6.68590903567349], [3.439240084262508, 6.682807433116579], [3.439770517895113, 6.675487673817145], [3.443471017673403, 6.673893769382005], [3.444150577786957, 6.671089694034208], [3.442467865299818, 6.66853713568031], [3.442074065665622, 6.66276098623058], [3.447675806893017, 6.661772916387008], [3.448072499646173, 6.65490662314221], [3.452062009154474, 6.640944811154156], [3.440269058870001, 6.640770992887042], [3.431462138367067, 6.640641187440906], [3.431207829877508, 6.640632217602786], [3.445165925866831, 6.626083430705819], [3.452423951204423, 6.622706991734333], [3.442611090429523, 6.613777920814471], [3.441747236745641, 6.606992964054086], [3.461783980846064, 6.591059769792594], [3.46662940212525, 6.596447066778751], [3.466784774397865, 6.598790516569125], [3.46485697686802, 6.601212503254487], [3.464290825761054, 6.601871688327776], [3.465669273318383, 6.6016865898643], [3.467889977340633, 6.601255616753349], [3.473205321368539, 6.60126591668876], [3.477209629221079, 6.60786398083809], [3.479797612769687, 6.607049661812482], [3.480930826896213, 6.606711582373691], [3.481479668751774, 6.606386622244884], [3.48241147520946, 6.60230283680653], [3.482412463564401, 6.602215938015149], [3.482379816375499, 6.602173115896619], [3.47919162799127, 6.597991389790877], [3.481258383367731, 6.596794627769896], [3.482822754966207, 6.59881503658471], [3.487925712401761, 6.60096984728068], [3.482117474242102, 6.582272721608888], [3.470265121038551, 6.561386940155217], [3.471689817131391, 6.549418700312799], [3.468477553896037, 6.543629721134778], [3.466467257957618, 6.543583722610776], [3.46739638623427, 6.539059365597268], [3.467488910285056, 6.535612807385178], [3.489606363642793, 6.516181491382781], [3.493915410367947, 6.517828722917272], [3.495807356424393, 6.519310759783764], [3.496895431778796, 6.522482056201966], [3.49860712312028, 6.521908748290173], [3.507995420252485, 6.518764143750275], [3.512264173752669, 6.514593449628023], [3.514009997963058, 6.514484452695399], [3.518144772263497, 6.514158558170948], [3.524254908337412, 6.51355486666381], [3.541081561065255, 6.523462855926084], [3.542903419357344, 6.522832879933503], [3.543959932105224, 6.522601979897502], [3.55519235474344, 6.518712523564147], [3.560997039681695, 6.522343996778091], [3.561095168307418, 6.524507476938538], [3.56521240133128, 6.5255942446787], [3.567304922284393, 6.5307423777586], [3.568879482302293, 6.534914598030298], [3.571830970023314, 6.53774497405135], [3.572048474657436, 6.538193233031336], [3.576580369788303, 6.542857148638575], [3.585124556952792, 6.548106843955736], [3.600057510845488, 6.54546374365691], [3.605309047074911, 6.547123203273259], [3.607872488124883, 6.548648010097622], [3.612742314306388, 6.548102157588573], [3.618404683329516, 6.547520822328124], [3.628529151998805, 6.538714933347535], [3.63292474408172, 6.539690969362766], [3.634074262017634, 6.540359650377638], [3.635467687783603, 6.544665860641032], [3.641794191748602, 6.551502700189531], [3.650365903563625, 6.554842302930012], [3.657166098436733, 6.55765754426028], [3.662293367245127, 6.562150210064203], [3.664199574750626, 6.565402216139432], [3.669534980854735, 6.572814701837046], [3.70070277421371, 6.597577137774749], [3.696959210399314, 6.606864487805922], [3.698649238871326, 6.607769651848002], [3.700604891102898, 6.60966238121398], [3.699709750904333, 6.618497713099032], [3.683762807807398, 6.640020042790809], [3.699014341138991, 6.684149117287973], [3.461350585860885, 6.683327682826359], [3.459019961302204, 6.673523020271205], [3.453939759412435, 6.67673890777445], [3.443198472731353, 6.68590903567349]]]}}, {"type": "Feature", "properties": {"name": "Ikeja", "state": "LA"}, "geometry": {"type": "Polygon", "coordinates": [[[3.366861745773008, 6.558483755021314], [3.368154412396279, 6.572713978667252], [3.383009806057771, 6.593480401199599], [3.369491963283508, 6.607523428263676], [3.366563910995751, 6.605027889625433], [3.365669091855125, 6.605560917802165], [3.358641588838282, 6.610784242299019], [3.365734665922162, 6.616624152782492], [3.364607869357712, 6.629776905879567], [3.372670081059425, 6.64110208369425], [3.363685628988662, 6.649428232027333], [3.352703363569447, 6.652300889674393], [3.353197073386298, 6.658285815837758], [3.34170480063608, 6.651030555016177], [3.343197168014967, 6.635904322426597], [3.334602512695881, 6.625781363719], [3.336822006230648, 6.617538864027381], [3.332995035692363, 6.613932372181296], [3.333082450694576, 6.601756581401162], [3.326572612735959, 6.608228860073893], [3.315837909991615, 6.605385264018764], [3.315565406418443, 6.601410444936107], [3.309860772856439, 6.600609835175817], [3.308792337796206, 6.588147725437238], [3.31505501687559, 6.587875704800012], [3.315655504098288, 6.580645277857343], [3.321354997135472, 6.582732538675771], [3.330452235882035, 6.58053615142228], [3.333924585751106, 6.582823288364125], [3.334182436670176, 6.589321696838908], [3.334745609222523, 6.589390273742197], [3.335492380169285, 6.589428067751157], [3.337599370314763, 6.59028770091669], [3.351942905840474, 6.555511392237008], [3.366861745773008, 6.558483755021314]]]}}, {"type": "Feature", "properties": {"name": "Ojo", "state": "LA"}, "geometry": {"type": "Polygon", "coordinates": [[[3.103014903614962, 6.499618730320208], [3.102643998921451, 6.498408501850918], [3.107381433206626, 6.494913066384981], [3.112118631869407, 6.490651678332313], [3.115053580158644, 6.475297141150179], [3.111759945365236, 6.470779018237124], [3.103042092818384, 6.467352774810763], [3.099428917210787, 6.46685514934569], [3.092193015195562, 6.467603272872793], [3.099830040923678, 6.439446966404432], [3.106125099194003, 6.434674156387246], [3.105407519341611, 6.431924000792037], [3.106377215136433, 6.429254759], [3.108923647308529, 6.427070461332789], [3.109044332729809, 6.424280072767203], [3.107466070203031, 6.416515917975289], [3.10629593530922, 6.410761619353309], [3.068432170408414, 6.409870998248039], [3.067571021885215, 6.411307195770519], [3.062168225982873, 6.415499753310996], [3.061446440900568, 6.415520477288226], [3.04766473434006, 6.41389438162048], [3.031011819839648, 6.409778886086769], [3.030533224928433, 6.408534308911271], [3.028140521068224, 6.406619666664312], [3.023929467171229, 6.404609361732696], [3.022972315120285, 6.40192871473846], [3.020770953716578, 6.397046120881839], [3.201732267829925, 6.402062740702945], [3.199190467166375, 6.421918914426385], [3.200987033824617, 6.434532690331423], [3.21582589704758, 6.435147022617059], [3.230180985264326, 6.442034421151675], [3.230856720561235, 6.459259281091022], [3.237870032276192, 6.458153151846545], [3.237753321858349, 6.470576159961865], [3.233668075921003, 6.478604721730562], [3.241043890862898, 6.484684674758], [3.223276828762664, 6.501296635031736], [3.215709609311091, 6.497883987556008], [3.214227717235417, 6.506585280886043], [3.199649774317663, 6.531850140171855], [3.188700576070801, 6.530652173059366], [3.175323984414376, 6.514787462171682], [3.168104721655652, 6.512876729277707], [3.163365843059239, 6.511083193334741], [3.160445337882095, 6.508068376254585], [3.115875966102976, 6.504855879195532], [3.108609416991044, 6.503293344012661], [3.103014903614962, 6.499618730320208]]]}}, {"type": "Feature", "properties": {"name": "Badagry", "state": "LA"}, "geometry": {"type": "Polygon", "coordinates": [[[2.89201007190735, 6.511495994744394], [2.88553154294641, 6.511425637183436], [2.888786656179263, 6.481257193864451], [2.884268396569269, 6.474297454763757], [2.876474834845794, 6.469935573767771], [2.864630738317942, 6.469266819907887], [2.860012808644228, 6.4668426343801], [2.858211868582941, 6.449129903022651], [2.839451279552975, 6.448805820632174], [2.831411785625448, 6.444949058252462], [2.828480002949846, 6.446814532764506], [2.823676106966786, 6.451477047227968], [2.818306921427336, 6.454585547584998], [2.793675320659588, 6.462111785830302], [2.788104945986504, 6.461764839975444], [2.783166556391507, 6.460786231899135], [2.782314850749799, 6.460613668186284], [2.781732634153798, 6.46023701412696], [2.78107092738145, 6.459808934135026], [2.773416477288663, 6.454003859790362], [2.769837213316805, 6.453217204810187], [2.766353496017075, 6.452813519828112], [2.759232691035891, 6.452542138608862], [2.749891226998557, 6.452614230962013], [2.743566009064125, 6.452566634342759], [2.737731411775258, 6.452640256442749], [2.729841017349145, 6.459789657166993], [2.722979404176215, 6.461516906779877], [2.698830793306513, 6.458776587969226], [2.701487372644181, 6.411780768867459], [2.699843440722248, 6.375246297278863], [2.844006730626177, 6.39155508439967], [3.020770953716578, 6.397046120881839], [3.022972315120285, 6.40192871473846], [3.023929467171229, 6.404609361732696], [3.028140521068224, 6.406619666664312], [3.030533224928433, 6.408534308911271], [3.031011819839648, 6.409778886086769], [3.04766473434006, 6.41389438162048], [3.061446440900568, 6.415520477288226], [3.062168225982873, 6.415499753310996], [3.067571021885215, 6.411307195770519], [3.068432170408414, 6.409870998248039], [3.10629593530922, 6.410761619353309], [3.107466070203031, 6.416515917975289], [3.109044332729809, 6.424280072767203], [3.108923647308529, 6.427070461332789], [3.106377215136433, 6.429254759], [3.105407519341611, 6.431924000792037], [3.106125099194003, 6.434674156387246], [3.099830040923678, 6.439446966404432], [3.092193015195562, 6.467603272872793], [3.099428917210787, 6.46685514934569], [3.103042092818384, 6.467352774810763], [3.111759945365236, 6.470779018237124], [3.115053580158644, 6.475297141150179], [3.112118631869407, 6.490651678332313], [3.107381433206626, 6.494913066384981], [3.102643998921451, 6.498408501850918], [3.103014903614962, 6.499618730320208], [3.093649860252924, 6.500062213900094], [3.077245926658236, 6.492390583158908], [3.072255453726257, 6.497199016221657], [3.059849030008763, 6.501767656752008], [2.954158496217701, 6.501846857346663], [2.953800771988085, 6.502622709670391], [2.954222813931779, 6.508323113720792], [2.95401565599775, 6.512688771869364], [2.937658357647138, 6.513192517220944], [2.93664736228601, 6.514421673721301], [2.93511937276088, 6.516271146596182], [2.933672231388414, 6.514685531212365], [2.931375225286445, 6.511985397707974], [2.93503995093306, 6.508596738748565], [2.933879791319384, 6.508596588561772], [2.930008764792717, 6.508596066954965], [2.928584640668703, 6.506964485422714], [2.926540345860303, 6.504654978744327], [2.924299247912018, 6.512696681406794], [2.89201007190735, 6.511495994744394]]]}}]}