{"type": "FeatureCollection", "features": [{"type": "Feature", "properties": {"name": "Ilaje", "state": "on"}, "geometry": {"type": "Polygon", "coordinates": [[[4.97678403015891, 5.887738748444519], [4.982781399342173, 5.895736850175524], [4.984484466185222, 5.896608033334132], [4.985486394581471, 5.89596496591048], [4.985579207314629, 5.897774509785847], [4.984384690900811, 5.899277939725209], [4.997359971785329, 5.918877036845799], [5.014387181423331, 5.944113309381748], [5.018107941128619, 5.950521048207861], [5.04691557619293, 6.014460356360416], [5.039215168944963, 6.019222560672688], [5.036614040005986, 6.022306555403247], [5.036232031383179, 6.027485606275775], [5.035662567173802, 6.030922911363291], [5.032827428343182, 6.036134678672511], [5.020933719815389, 6.04547533781664], [5.008879622596567, 6.06245963810187], [4.99603207601956, 6.062195632222711], [4.991532314564722, 6.05384976985107], [4.976942500595953, 6.05369242716381], [4.965389920208679, 6.063419084323357], [4.958608901579566, 6.084552056132509], [4.944431085925942, 6.081043435706022], [4.940592587877688, 6.092061468062354], [4.935749207160256, 6.096245303977639], [4.934160241801749, 6.097702470092941], [4.932498032058561, 6.098927955560725], [4.930354910750566, 6.116381360211676], [4.921806271941932, 6.122009635936024], [4.924264296260333, 6.12619825534523], [4.91401338560928, 6.143568039233685], [4.853392124347124, 6.206943988674197], [4.841230868409923, 6.226267338366995], [4.834673728809605, 6.24569269995817], [4.834488868666426, 6.27147436095305], [4.865829712271477, 6.315162388133729], [4.867658383827404, 6.319789614998797], [4.868564850087807, 6.323487963598666], [4.869466549941365, 6.328109947416181], [4.869450813604203, 6.330879894391671], [4.868492847666857, 6.336414542597083], [4.864753490880958, 6.341933932904738], [4.848914390886478, 6.355696884103963], [4.848878150905989, 6.362159933933867], [4.848852402416469, 6.366776672005869], [4.87090469089884, 6.402909961425621], [4.873479365380433, 6.429584980162758], [4.86974000859459, 6.435104847111063], [4.867875098856757, 6.436941146716606], [4.865088463162067, 6.437849044697714], [4.840167521713795, 6.41739702155536], [4.835546969616985, 6.414601325191029], [4.826295853271063, 6.410856723558993], [4.752213477569967, 6.393825530823619], [4.716990471133386, 6.391783713647499], [4.709562777899919, 6.393589496558093], [4.705843924757346, 6.39541530557193], [4.700270175827995, 6.397231102433466], [4.664903640290788, 6.421042918995568], [4.65277337858862, 6.43482589719747], [4.638726711068898, 6.459679126890251], [4.634997368233996, 6.463351727000656], [4.629419326840491, 6.466090678841795], [4.626627445400345, 6.467922210241852], [4.618190288351173, 6.484495639961835], [4.605220794604008, 6.492155074996788], [4.603319168245093, 6.490877150959818], [4.586972237278985, 6.494270802055894], [4.564331054734453, 6.498971462163297], [4.56630897507921, 6.476821422770513], [4.559962273240387, 6.45093250323248], [4.535164832091368, 6.408320426746343], [4.523116588559787, 6.40733003575258], [4.520026206844022, 6.411092757824576], [4.503599166968002, 6.415532111817527], [4.479822635306448, 6.409049988266418], [4.473125457773733, 6.393202781782975], [4.474683284106334, 6.388328074081414], [4.477510928886318, 6.387575149973259], [4.480064391958194, 6.386895657308798], [4.482433318642791, 6.386790752291461], [4.514828203658737, 6.397127150697486], [4.582102298682173, 6.378123283362868], [4.598449706288989, 6.366196156027854], [4.594931484700282, 6.331930879006904], [4.571975492674881, 6.297284947742185], [4.547312816733154, 6.31175127490144], [4.526759538022304, 6.313251927734314], [4.522483757219675, 6.313222365220042], [4.517002483777674, 6.315575485420368], [4.510986069651437, 6.317906591116355], [4.505328508403977, 6.320217794815449], [4.502976501564319, 6.322768557223185], [4.502862323637373, 6.32699419992241], [4.498911528144561, 6.330204560192328], [4.496404178709952, 6.33230533872046], [4.488367293715669, 6.336224737081977], [4.483238448395753, 6.326054181755126], [4.560863753659362, 6.276253068724202], [4.615154204103305, 6.234951751422216], [4.625360665762173, 6.225092142088727], [4.68369542140664, 6.168739808795181], [4.692079130847276, 6.160641007276695], [4.749585168420822, 6.120868693935108], [4.803717904757548, 6.063761629795408], [4.848035365639646, 6.028069715045376], [4.853775279605543, 6.024807513356109], [4.870080385801202, 6.00483514182838], [4.907331081064569, 5.968303773800187], [4.948610305621173, 5.92444419734187], [4.959955300896468, 5.909663647059688], [4.97678403015891, 5.887738748444519]]]}}, {"type": "Feature", "properties": {"name": "Ese Odo", "state": "on"}, "geometry": {"type": "Polygon", "coordinates": [[[5.04691557619293, 6.014460356360416], [5.101120948972664, 6.124878883353858], [5.119040489327176, 6.149993420060355], [5.126955985630275, 6.163946629133704], [5.134438283899726, 6.169372793020045], [5.133446216569666, 6.172210692769283], [5.137675762326637, 6.173091888080194], [5.137146950171655, 6.176264286167907], [5.132036209103831, 6.180846214181486], [5.135737419346469, 6.182256221647378], [5.135913371704817, 6.18666219730261], [5.133265017566544, 6.188217640431787], [5.13133096705053, 6.188953400079413], [5.128687382017119, 6.189658642132656], [5.119923592100122, 6.207008838786919], [5.117625237015147, 6.20694637277694], [5.115489959594015, 6.206108569754747], [5.113859653300381, 6.199817180718355], [5.112825870917277, 6.19547414771381], [5.109939575051385, 6.195427894681643], [5.10482549659946, 6.200029373057191], [5.103156089581944, 6.20217609435133], [5.099816798906204, 6.20217609435133], [5.098225594235828, 6.198143482136061], [5.095841407854721, 6.197087765288188], [5.092422961550483, 6.198280333770413], [5.089201927227236, 6.201057433953451], [5.088472365707162, 6.204339981005376], [5.086137772440281, 6.207841872704307], [5.087235928295513, 6.214525699801243], [5.085182667246329, 6.216088295238706], [5.081807613230808, 6.218033313886394], [5.075622559133819, 6.213434218714269], [5.07454586020333, 6.217686175576603], [5.077929973989171, 6.220148087664143], [5.078811169300081, 6.222615719439943], [5.075851440191855, 6.226736546154712], [5.073736190672719, 6.228851795673904], [5.072933674349656, 6.231186389840047], [5.073347569334885, 6.234776020297147], [5.073347569334885, 6.239534854849694], [5.069470405834636, 6.24253082303909], [5.066298007746923, 6.245526791228485], [5.063478468556525, 6.248346806160214], [5.060573100768011, 6.248004913595935], [5.057486056436403, 6.247641563207651], [5.053448200274261, 6.246833323599049], [5.049714088334554, 6.251429558027723], [5.049030304105315, 6.260269165289799], [5.048261087878927, 6.263634915818784], [5.04796886397196, 6.264913559313356], [5.041041851200532, 6.274275303062836], [5.037746906094867, 6.277426719967195], [5.035061358694804, 6.278010368283901], [5.029640197736967, 6.279189109689696], [5.021533011839097, 6.285357475067485], [5.015663061301268, 6.292300798842859], [5.015618801166795, 6.292353152875762], [5.010605811908761, 6.292759418012793], [5.002569199409095, 6.294045447639348], [5.000326632867882, 6.295477389569896], [4.998461723130049, 6.297313690074759], [4.995665071685778, 6.300068378253115], [4.950805664050222, 6.363531589811089], [4.931011199107616, 6.421593665615205], [4.927163600819597, 6.446503162291151], [4.923429488879833, 6.451099395820506], [4.915980816261708, 6.456598281585457], [4.899302005782999, 6.454658985323988], [4.865088463162067, 6.437849044697714], [4.874422073420021, 6.42682027803346], [4.871811158058563, 6.406608310025547], [4.866325146988004, 6.392727579114535], [4.849754101370706, 6.371398654024688], [4.848852402416469, 6.366776672005869], [4.848878150905989, 6.362159933933867], [4.848914390886478, 6.355696884103963], [4.864753490880958, 6.341933932904738], [4.868492847666857, 6.336414542597083], [4.869450813604203, 6.330879894391671], [4.869466549941365, 6.328109947416181], [4.868564850087807, 6.323487963598666], [4.867658383827404, 6.319789614998797], [4.865829712271477, 6.315162388133729], [4.834488868666426, 6.27147436095305], [4.833597660303838, 6.265006063578994], [4.832891080059369, 6.262124392027147], [4.832690715604087, 6.261307240137057], [4.83558034885408, 6.241932869206607], [4.837465763134503, 6.236402987407985], [4.839350699874956, 6.230873584948029], [4.841230868409923, 6.226267338366995], [4.853392124347124, 6.206943988674197], [4.91401338560928, 6.143568039233685], [4.924264296260333, 6.12619825534523], [4.921806271941932, 6.122009635936024], [4.930354910750566, 6.116381360211676], [4.932498032058561, 6.098927955560725], [4.934160241801749, 6.097702470092941], [4.935749207160256, 6.096245303977639], [4.940592587877688, 6.092061468062354], [4.944431085925942, 6.081043435706022], [4.958608901579566, 6.084552056132509], [4.965389920208679, 6.063419084323357], [4.976942500595953, 6.05369242716381], [4.991532314564722, 6.05384976985107], [4.99603207601956, 6.062195632222711], [5.008879622596567, 6.06245963810187], [5.020933719815389, 6.04547533781664], [5.032827428343182, 6.036134678672511], [5.035662567173802, 6.030922911363291], [5.036232031383179, 6.027485606275775], [5.036614040005986, 6.022306555403247], [5.039215168944963, 6.019222560672688], [5.04691557619293, 6.014460356360416]]]}}, {"type": "Feature", "properties": {"name": "Okitipupa", "state": "on"}, "geometry": {"type": "Polygon", "coordinates": [[[4.85492563211227, 6.431329250344675], [4.831596851313691, 6.457977294816374], [4.828789711076354, 6.462448718633482], [4.827836514243813, 6.467060211859348], [4.827821255446622, 6.469830158834839], [4.839704988694336, 6.500496864338857], [4.857218742351108, 6.519061088198725], [4.868247509015362, 6.536665915299807], [4.867969989923154, 6.586525916837616], [4.835503100687617, 6.589116097430008], [4.811422348162864, 6.584365845107698], [4.783375262558366, 6.625761986026873], [4.747906207905203, 6.668040276437637], [4.732855319617329, 6.706737995262301], [4.713235377111005, 6.733406544276647], [4.703267739414684, 6.731221654855517], [4.700270175827995, 6.730564593980887], [4.688217162292233, 6.730497837305393], [4.649234295426425, 6.73766899083131], [4.63347721090463, 6.736658096194219], [4.611532687283727, 6.681135177946146], [4.58254241879763, 6.642193316568353], [4.586719511596243, 6.6412930484355], [4.589511393935709, 6.639461517035443], [4.592308521121424, 6.636706827957767], [4.600756167862926, 6.618286609839231], [4.598113060369485, 6.593341350722824], [4.589912415125923, 6.567441463053115], [4.58824872959525, 6.532358645635043], [4.604174613267844, 6.503808974804372], [4.606054306061424, 6.499202250683368], [4.605220794604008, 6.492155074996788], [4.618190288351173, 6.484495639961835], [4.626627445400345, 6.467922210241852], [4.629419326840491, 6.466090678841795], [4.634997368233996, 6.463351727000656], [4.638726711068898, 6.459679126890251], [4.65277337858862, 6.43482589719747], [4.664903640290788, 6.421042918995568], [4.709562777899919, 6.393589496558093], [4.752213477569967, 6.393825530823619], [4.806855678946476, 6.405208588105893], [4.816112040138592, 6.408030032959687], [4.826295853271063, 6.410856723558993], [4.835546969616985, 6.414601325191029], [4.85492563211227, 6.431329250344675]]]}}, {"type": "Feature", "properties": {"name": "Ondo East", "state": "on"}, "geometry": {"type": "Polygon", "coordinates": [[[4.911337376418828, 6.957957267713766], [4.974668502749239, 6.907523631810193], [4.98211145388052, 6.902947903722804], [4.988069056841539, 6.898733615863705], [4.98954439196018, 6.900218964034025], [4.994072437093337, 6.919634818891836], [5.006719111997484, 6.979723453974259], [5.006657600168182, 6.990803241876165], [5.00474691403889, 7.000949383307443], [4.995289802582363, 7.034138203315479], [4.992343903248582, 7.063669205369592], [4.993153095239222, 7.084911345881949], [5.004166125566314, 7.105286120857841], [5.000960186363557, 7.115834252948446], [5.002788857020164, 7.120461480712834], [5.005539730274393, 7.126016632561573], [5.007203892445716, 7.160190122076528], [5.003284290837428, 7.200154797705807], [4.968455315160725, 7.190960883637899], [4.877082752766853, 7.187049368733426], [4.868622764628924, 7.134226093859183], [4.869293615707875, 7.132413253968537], [4.879837032652972, 7.103921824132954], [4.879928589033227, 7.103674411644818], [4.918322533058529, 7.093368787139866], [4.915446000232748, 7.091075999757606], [4.924074999761501, 7.08263399985924], [4.926195843063738, 7.063609293434183], [4.922566000320728, 7.046485000182656], [4.914428000052226, 7.013902000377072], [4.912644999667066, 7.003566000370654], [4.914849917889455, 7.002753129253563], [4.916960595255318, 7.002903890702044], [4.911337376418828, 6.957957267713766]]]}}, {"type": "Feature", "properties": {"name": "Akure North", "state": "on"}, "geometry": {"type": "Polygon", "coordinates": [[[5.214245007201384, 7.252435772393028], [5.216995360647445, 7.242784784190462], [5.213184939433461, 7.237819080386316], [5.218164595319877, 7.235744678973788], [5.222293943111026, 7.234028803086858], [5.223467656407252, 7.233793809336873], [5.223679351420969, 7.233281929617419], [5.22332773898404, 7.232361379973781], [5.222086468615657, 7.229793357777282], [5.228958130813112, 7.226668541919707], [5.24934100957995, 7.201750755293176], [5.273504256915999, 7.19172763841982], [5.316319465970651, 7.162417411834156], [5.365155218838311, 7.092512130730313], [5.382555485247508, 7.089838504743227], [5.449725150994993, 7.064806937690093], [5.45124203569145, 7.067240834097277], [5.454008166843494, 7.070026038970582], [5.475271766978494, 7.081224082325605], [5.47993564571351, 7.085761546957883], [5.482701778664193, 7.088546752730508], [5.487311839270035, 7.09318923929203], [5.490979671174955, 7.100596427982794], [5.490021228596845, 7.106131077087582], [5.486292362402651, 7.109804152939375], [5.476994513685895, 7.114369392233698], [5.466780185657115, 7.117082595585373], [5.45749807417684, 7.118877887904262], [5.446376801448253, 7.117893219296661], [5.439891815355054, 7.11693382343725], [5.433406352621148, 7.1159744257792], [5.427817822434633, 7.120560169616169], [5.426844597700097, 7.128865242337099], [5.427741050908821, 7.134410381134217], [5.425855636628398, 7.13994026203352], [5.423202862322285, 7.150262641807501], [5.419197186600911, 7.170103838221621], [5.424548625818488, 7.208261489875895], [5.420804024186396, 7.214704036961791], [5.417996407308408, 7.219305515337339], [5.41612672756645, 7.222065449261095], [5.418882369925484, 7.226697445230968], [5.418836116893317, 7.235007286157384], [5.41878986386115, 7.243317603724506], [5.418754101420689, 7.249780655352993], [5.394508361072042, 7.274577141422014], [5.39263868312878, 7.27733659690648], [5.391695975089249, 7.280101775676428], [5.390758513694493, 7.281942844386833], [5.358230114428295, 7.295613290421045], [5.354439258864772, 7.310366154174744], [5.354249476732036, 7.344529629738645], [5.346626281677629, 7.381421565652772], [5.320331097002565, 7.441294670112995], [5.314757823814546, 7.443110466075211], [5.294395447791715, 7.436533928098356], [5.286978245149953, 7.436492919912382], [5.27956581161294, 7.435528278307459], [5.277585268845144, 7.436009724968869], [5.268424033442443, 7.438236712554271], [5.264667217218346, 7.438435669570538], [5.245270251720797, 7.433491706876794], [5.192399979175718, 7.436892032741184], [5.194454669247648, 7.400892735111711], [5.189952374402594, 7.37686014218184], [5.1980928019413, 7.354469431619009], [5.200454148240397, 7.347974415387], [5.212626890318802, 7.314492596256343], [5.212626890318802, 7.296051772871067], [5.22050193781422, 7.256875142573847], [5.219306683956347, 7.255385313081774], [5.215566741711825, 7.25312926570308], [5.214245007201384, 7.252435772393028]]]}}, {"type": "Feature", "properties": {"name": "Ile Oluji/Okeigbo", "state": "on"}, "geometry": {"type": "Polygon", "coordinates": [[[5.003284290837428, 7.200154797705807], [5.022109032106187, 7.213418960616593], [5.025781631317273, 7.219902514989144], [5.029454708068386, 7.226386546901665], [5.032220364378361, 7.231300352629205], [5.042090893280147, 7.288321972181336], [5.042684078007824, 7.348343372148975], [5.035132885374423, 7.372309208403294], [5.032325745137086, 7.376910210138135], [5.030450821448312, 7.38059329994087], [5.025799750857857, 7.38333749842684], [5.022075652869148, 7.386086940859684], [5.017424107436682, 7.388831615087042], [5.01277828169242, 7.390652180154063], [5.006279945163385, 7.392001629071956], [4.989670277261553, 7.377597331751531], [4.943352222327235, 7.369954108795127], [4.87561607362295, 7.378812313137814], [4.814457892817529, 7.372009753947054], [4.795955180787018, 7.364520549783606], [4.754682872016986, 7.361068429264662], [4.752016549424241, 7.350784039551854], [4.745480867647984, 7.313828535058917], [4.734695399073473, 7.28397389308077], [4.746673106978335, 7.222973347242203], [4.736561774706161, 7.207220077644536], [4.72641897065904, 7.197007178638444], [4.720866202912987, 7.195129395105539], [4.715431689720731, 7.172015189849162], [4.708982467866633, 7.164592743260528], [4.707573050356018, 7.163645776031785], [4.706211090069814, 7.162730694266202], [4.703434467426803, 7.161791801150741], [4.683927534628083, 7.168147086119177], [4.675593376033532, 7.166254520429845], [4.671884535942638, 7.166234015887198], [4.669123648737468, 7.162525176695624], [4.668217181577688, 7.158826828095698], [4.674789427989765, 7.14408922223987], [4.673872471137656, 7.142237662937816], [4.672955513386285, 7.140385627894489], [4.635089873399011, 7.113398551601904], [4.61670541772088, 7.084672450872972], [4.680443687825971, 7.090523712599293], [4.721846310159151, 7.099089772175319], [4.816730656794448, 7.10017740686186], [4.820962340239873, 7.103788964589114], [4.82325356280171, 7.102294760794621], [4.823913853141846, 7.101666242603073], [4.826193020291726, 7.099488515382745], [4.843697107135824, 7.104113597364687], [4.856433734029622, 7.099147059888935], [4.858120909852175, 7.099659803856923], [4.860240295353378, 7.099750095790341], [4.879928589033227, 7.103674411644818], [4.879837032652972, 7.103921824132954], [4.869293615707875, 7.132413253968537], [4.868622764628924, 7.134226093859183], [4.877082752766853, 7.187049368733426], [4.968455315160725, 7.190960883637899], [5.003284290837428, 7.200154797705807]]]}}, {"type": "Feature", "properties": {"name": "Ondo West", "state": "on"}, "geometry": {"type": "Polygon", "coordinates": [[[4.879928589033227, 7.103674411644818], [4.860240295353378, 7.099750095790341], [4.858120909852175, 7.099659803856923], [4.856433734029622, 7.099147059888935], [4.843697107135824, 7.104113597364687], [4.826193020291726, 7.099488515382745], [4.823913853141846, 7.101666242603073], [4.82325356280171, 7.102294760794621], [4.820962340239873, 7.103788964589114], [4.816730656794448, 7.10017740686186], [4.721846310159151, 7.099089772175319], [4.680443687825971, 7.090523712599293], [4.61670541772088, 7.084672450872972], [4.613949776261222, 7.080040454903099], [4.609585762073323, 7.031077861654069], [4.572642325582933, 7.005019187885239], [4.568953990034686, 7.001305579588859], [4.564349174275037, 6.995739937148414], [4.561608789813874, 6.988337516663137], [4.556210040860719, 6.958760261576856], [4.557522297416142, 6.889515400315531], [4.554771423262594, 6.883959769128069], [4.553870200949063, 6.879338263749901], [4.552041531191776, 6.874711036884889], [4.547405624070336, 6.844997621742891], [4.607754706414596, 6.860246181016464], [4.629028797141302, 6.869597434174295], [4.63366985198212, 6.868700026784836], [4.643878936963404, 6.86690950357081], [4.683737755193306, 6.868977070135713], [4.719789982421787, 6.888567448329127], [4.787793433919887, 6.914605304591191], [4.837239265279891, 6.943696498594591], [4.876109124236734, 6.956839084855915], [4.878890990826619, 6.956854342753786], [4.890933991310703, 6.958767892324431], [4.902055264039234, 6.959752560032655], [4.911337376418828, 6.957957267713766], [4.916960595255318, 7.002903890702044], [4.914849917889455, 7.002753129253563], [4.912644999667066, 7.003566000370654], [4.914428000052226, 7.013902000377072], [4.922566000320728, 7.046485000182656], [4.926195843063738, 7.063609293434183], [4.924074999761501, 7.08263399985924], [4.915446000232748, 7.091075999757606], [4.918322533058529, 7.093368787139866], [4.879928589033227, 7.103674411644818]]]}}, {"type": "Feature", "properties": {"name": "Akure South", "state": "on"}, "geometry": {"type": "Polygon", "coordinates": [[[5.214245007201384, 7.252435772393028], [5.21204605508143, 7.251267280560626], [5.208457608132164, 7.250928830601083], [5.202509397690619, 7.254842924761192], [5.194485522289085, 7.255108411823812], [5.19443288137245, 7.258553407014176], [5.169006315888794, 7.265378837763194], [5.167918470760867, 7.268123366300358], [5.166887940326205, 7.270789545900868], [5.14936003223977, 7.275382503200035], [5.135239777693641, 7.284727953032643], [5.133702404642293, 7.284677596394033], [5.128027180709864, 7.284491702030493], [5.125776563437682, 7.278800679707672], [5.113720271873092, 7.278298334600493], [5.097223030018881, 7.27761095038511], [5.082979678969082, 7.271927834002383], [5.083097457781491, 7.250690937436843], [5.092750311177952, 7.24411078238677], [5.100483558969131, 7.237269831137837], [5.108216806760254, 7.228346852225513], [5.114827633188781, 7.213932513974385], [5.118561745128488, 7.209336281344349], [5.12136411716034, 7.20565843638775], [5.158651829418432, 7.169854163938567], [5.207014083832973, 7.143344401922661], [5.229400158390661, 7.11946105958026], [5.254500866222031, 7.107596397355906], [5.300880908726981, 7.104159832410403], [5.365155218838311, 7.092512130730313], [5.316319465970651, 7.162417411834156], [5.273504256915999, 7.19172763841982], [5.24934100957995, 7.201750755293176], [5.228958130813112, 7.226668541919707], [5.222086468615657, 7.229793357777282], [5.22332773898404, 7.232361379973781], [5.223679351420969, 7.233281929617419], [5.223467656407252, 7.233793809336873], [5.222293943111026, 7.234028803086858], [5.218164595319877, 7.235744678973788], [5.213184939433461, 7.237819080386316], [5.216995360647445, 7.242784784190462], [5.214245007201384, 7.252435772393028]]]}}, {"type": "Feature", "properties": {"name": "Idanre", "state": "on"}, "geometry": {"type": "Polygon", "coordinates": [[[4.988069056841539, 6.898733615863705], [4.991435050187476, 6.89376592635648], [4.997346877656355, 6.831010341853869], [5.001107215625552, 6.821797371151831], [5.002070427308411, 6.815339087728773], [5.002203939760079, 6.79133272082845], [5.013401984014422, 6.778467177918003], [5.017136574393419, 6.773871421928618], [5.040393352771048, 6.760149955556074], [5.046898841608311, 6.757415770121725], [5.053517817693205, 6.734368324238801], [5.063340535037696, 6.726376293830924], [5.07850581708982, 6.714952243651169], [5.082357883209795, 6.716984271706849], [5.088838100198188, 6.718866825243822], [5.105563163709064, 6.712496280578932], [5.109793662747393, 6.708925723843151], [5.112084387984169, 6.706992149068469], [5.122329711147302, 6.698738574225843], [5.150810717840386, 6.745987890628726], [5.15635299679343, 6.749711990416074], [5.166505813892229, 6.758078574966305], [5.172970293644198, 6.762731074579449], [5.197015762167723, 6.773944855170953], [5.201615809721886, 6.780433655289016], [5.202527521727802, 6.783208847110643], [5.208868503878421, 6.810784644795547], [5.254822253344344, 6.882708581036241], [5.272408009422122, 6.888345749256985], [5.436575843200671, 6.885825662724187], [5.459748745408319, 6.885469943982798], [5.537059784381597, 6.884796618868904], [5.533725261911343, 6.91708421656341], [5.529964923042826, 6.926297188164767], [5.478466509621796, 7.016500950258717], [5.475602625760644, 7.031259059757872], [5.477426051571058, 7.036809444300445], [5.478327751424615, 7.041430949678613], [5.478302002035832, 7.046047687750615], [5.475494860899175, 7.050649166126163], [5.449725150994993, 7.064806937690093], [5.376054763716411, 7.091649530701318], [5.350083351165779, 7.093352317855249], [5.318512916937607, 7.101487637244702], [5.247068404783079, 7.110325336145422], [5.239630221857283, 7.113977431713124], [5.234051704722447, 7.116716861993609], [5.229400158390661, 7.11946105958026], [5.207014083832973, 7.143344401922661], [5.158651829418432, 7.169854163938567], [5.12136411716034, 7.20565843638775], [5.118561745128488, 7.209336281344349], [5.114827633188781, 7.213932513974385], [5.108216806760254, 7.228346852225513], [5.100483558969131, 7.237269831137837], [5.092750311177952, 7.24411078238677], [5.083097457781491, 7.250690937436843], [5.076617717433749, 7.24880838389987], [5.071981907439124, 7.24878263541035], [5.063632010708773, 7.249660014897813], [5.036707401325543, 7.255974292579594], [5.032220364378361, 7.231300352629205], [5.029454708068386, 7.226386546901665], [5.025781631317273, 7.219902514989144], [5.022109032106187, 7.213418960616593], [5.003284290837428, 7.200154797705807], [5.007203892445716, 7.160190122076528], [5.005539730274393, 7.126016632561573], [5.002788857020164, 7.120461480712834], [5.000960186363557, 7.115834252948446], [5.004166125566314, 7.105286120857841], [4.993153095239222, 7.084911345881949], [4.992343903248582, 7.063669205369592], [4.995289802582363, 7.034138203315479], [5.00474691403889, 7.000949383307443], [5.006657600168182, 6.990803241876165], [5.006719111997484, 6.979723453974259], [4.994072437093337, 6.919634818891836], [4.98954439196018, 6.900218964034025], [4.988069056841539, 6.898733615863705]]]}}, {"type": "Feature", "properties": {"name": "Akoko South East", "state": "on"}, "geometry": {"type": "Polygon", "coordinates": [[[5.95044803584824, 7.344475269318252], [5.97856617059233, 7.347735881905464], [5.980875968651105, 7.348884106616254], [5.986694813414942, 7.355247973814983], [5.986731051596792, 7.35816192563243], [5.987339973561006, 7.361072063425013], [5.986794949327475, 7.363408089311918], [5.981091021733334, 7.366368771701502], [5.978241920028609, 7.368141173576362], [5.975996017002615, 7.372240067625057], [5.974884985553672, 7.375164031594807], [5.979677200242634, 7.391446114246833], [5.968483924193777, 7.414854050673966], [5.975586891122191, 7.432283877798795], [5.987182139843924, 7.441515923121415], [5.987216949003027, 7.444429874039486], [5.987259866449733, 7.447926998432308], [5.986714840417619, 7.450263977600514], [5.984490870956961, 7.456110001675313], [5.963303089066358, 7.460363865100362], [5.95325803772829, 7.483763218397883], [5.948134898606725, 7.487301826717953], [5.948815822991889, 7.496039867246111], [5.951171874982094, 7.501221656554264], [5.893038750038329, 7.497098923276724], [5.857790469954296, 7.499673843273285], [5.823482990447701, 7.495887756814568], [5.827465533807413, 7.450567721822949], [5.848161696804937, 7.397127151396944], [5.846866130767353, 7.394510746573758], [5.881611824725951, 7.384385585426458], [5.885366916949692, 7.376096249042689], [5.891903400021931, 7.367822170556792], [5.900289535833451, 7.360481739440786], [5.910519122659423, 7.35499811157365], [5.95044803584824, 7.344475269318252]]]}}, {"type": "Feature", "properties": {"name": "Ifedore", "state": "on"}, "geometry": {"type": "Polygon", "coordinates": [[[5.192399979175718, 7.436892032741184], [5.187743663739127, 7.440559863746785], [5.181248187054223, 7.441447258084565], [5.173830985311781, 7.441406249898534], [5.169434755609529, 7.440755915053501], [5.167345524376515, 7.440446854039124], [5.126518726258269, 7.445760726776143], [5.095885753424852, 7.452054976555985], [5.078227995825387, 7.459343909793631], [5.070805549236752, 7.460226059285276], [5.06524228999973, 7.460195065050243], [5.048568248625827, 7.457332611111156], [5.008897818579499, 7.425555032438865], [5.005685547250266, 7.418178702185401], [5.004573458198593, 7.413932547748914], [5.004376843916248, 7.413181835073658], [5.006279945163385, 7.392001629071956], [5.030450821448312, 7.38059329994087], [5.042684078007824, 7.348343372148975], [5.042090893280147, 7.288321972181336], [5.036707401325543, 7.255974292579594], [5.063632010708773, 7.249660014897813], [5.071981907439124, 7.24878263541035], [5.076617717433749, 7.24880838389987], [5.083097457781491, 7.250690937436843], [5.082979678969082, 7.271927834002383], [5.097223030018881, 7.27761095038511], [5.113720271873092, 7.278298334600493], [5.125776563437682, 7.278800679707672], [5.128027180709864, 7.284491702030493], [5.133702404642293, 7.284677596394033], [5.135239777693641, 7.284727953032643], [5.14936003223977, 7.275382503200035], [5.166887940326205, 7.270789545900868], [5.167918470760867, 7.268123366300358], [5.169006315888794, 7.265378837763194], [5.19443288137245, 7.258553407014176], [5.194485522289085, 7.255108411823812], [5.202509397690619, 7.254842924761192], [5.208457608132164, 7.250928830601083], [5.219306683956347, 7.255385313081774], [5.212626890318802, 7.296051772871067], [5.212626890318802, 7.314492596256343], [5.200454148240397, 7.347974415387], [5.1980928019413, 7.354469431619009], [5.189952374402594, 7.37686014218184], [5.194454669247648, 7.400892735111711], [5.192399979175718, 7.436892032741184]]]}}, {"type": "Feature", "properties": {"name": "Odigbo", "state": "on"}, "geometry": {"type": "Polygon", "coordinates": [[[4.867969989923154, 6.586525916837616], [4.86697626064597, 6.598524094211655], [4.865895282741178, 6.605271023139267], [4.876826296696265, 6.640419643951475], [4.881743418224232, 6.646472400580876], [4.927180032332672, 6.662762151751963], [4.980691433363006, 6.658249378006417], [4.998736832039242, 6.650863415114543], [5.00718029513456, 6.647858641663049], [5.008956405813535, 6.647226578343975], [5.016066069993201, 6.649845823226201], [5.018746852785057, 6.651073456275014], [5.033427715017069, 6.678855419042407], [5.07850581708982, 6.714952243651169], [5.053517817693205, 6.734368324238801], [5.046898841608311, 6.757415770121725], [5.040393352771048, 6.760149955556074], [5.017136574393419, 6.773871421928618], [5.013401984014422, 6.778467177918003], [5.002203939760079, 6.79133272082845], [5.002070427308411, 6.815339087728773], [5.001107215625552, 6.821797371151831], [4.997346877656355, 6.831010341853869], [4.991435050187476, 6.89376592635648], [4.988069056841539, 6.898733615863705], [4.911337376418828, 6.957957267713766], [4.902055264039234, 6.959752560032655], [4.890933991310703, 6.958767892324431], [4.878890990826619, 6.956854342753786], [4.876109124236734, 6.956839084855915], [4.837239265279891, 6.943696498594591], [4.787793433919887, 6.914605304591191], [4.719789982421787, 6.888567448329127], [4.683737755193306, 6.868977070135713], [4.643878936963404, 6.86690950357081], [4.63366985198212, 6.868700026784836], [4.629028797141302, 6.869597434174295], [4.607754706414596, 6.860246181016464], [4.547405624070336, 6.844997621742891], [4.546685124119222, 6.841302612325762], [4.54114761427104, 6.836654880018727], [4.537437438686879, 6.833078860800811], [4.480053063198341, 6.803905219650233], [4.421871776861053, 6.762031765353754], [4.414567109984205, 6.74167749312187], [4.389735221203523, 6.715917110086593], [4.389039039819863, 6.674362183068354], [4.387210369163256, 6.669734955303966], [4.384439468007088, 6.66787290541032], [4.379813671064142, 6.666000843364259], [4.376120088871062, 6.663210390946858], [4.377055167961657, 6.645117283236061], [4.387431622171675, 6.630032063329111], [4.426470756020649, 6.612704276880947], [4.444738986914786, 6.609170942185301], [4.454317092260055, 6.607318399924281], [4.458051681739789, 6.602722168193566], [4.475064753135882, 6.544644832692939], [4.491026877688284, 6.508722303891261], [4.496610640568633, 6.505059718631173], [4.499382019264829, 6.506921769424196], [4.512100696589926, 6.554083347068854], [4.528610228579225, 6.586492537600577], [4.564508437014808, 6.633782863088697], [4.58254241879763, 6.642193316568353], [4.595893860013689, 6.658887385844253], [4.611532687283727, 6.681135177946146], [4.625225066883388, 6.719991683769251], [4.628897666993794, 6.726475715681772], [4.63347721090463, 6.736658096194219], [4.638102530307549, 6.738530635780251], [4.688217162292233, 6.730497837305393], [4.700270175827995, 6.730564593980887], [4.703267739414684, 6.731221654855517], [4.713235377111005, 6.733406544276647], [4.732855319617329, 6.706737995262301], [4.747906207905203, 6.668040276437637], [4.783375262558366, 6.625761986026873], [4.811422348162864, 6.584365845107698], [4.835503100687617, 6.589116097430008], [4.867969989923154, 6.586525916837616]]]}}, {"type": "Feature", "properties": {"name": "Ose", "state": "on"}, "geometry": {"type": "Polygon", "coordinates": [[[5.852578163051817, 7.093998909721961], [5.854922771169015, 7.096343040299132], [5.843033791276468, 7.109847068587385], [5.841958045627337, 7.115684986173221], [5.842559812585307, 7.118010997209808], [5.862779139745555, 7.128338813385596], [5.872960090335937, 7.162648201253546], [5.882308960290345, 7.175979137027582], [5.886943817003612, 7.179438113977824], [5.889834881074933, 7.181162834697091], [5.893875121339818, 7.182878969588842], [5.893909929599602, 7.185792922305552], [5.890465260863152, 7.189054965714149], [5.883665084875815, 7.192872047307162], [5.884325027178306, 7.199862003628596], [5.903481007642426, 7.217193126561597], [5.897339821575542, 7.23123312021238], [5.898544788111508, 7.235887050646909], [5.898639405784024, 7.243533100172499], [5.898660182821232, 7.245212077775193], [5.898128985664187, 7.248713970373501], [5.895890235845741, 7.253396033400293], [5.896522044656706, 7.258053779658269], [5.900001048609568, 7.260940074624784], [5.902900219169851, 7.263247967020106], [5.904650210838611, 7.265564919185692], [5.905289172857067, 7.270805836220404], [5.907061099889916, 7.274871825874129], [5.923961163377044, 7.296279906592474], [5.924582004955596, 7.299211978849769], [5.92404413213103, 7.302131176412729], [5.916209221378494, 7.318517208102719], [5.917542933959282, 7.333662033276255], [5.919308186223873, 7.337144852153244], [5.95044803584824, 7.344475269318252], [5.910519122659423, 7.35499811157365], [5.900289535833451, 7.360481739440786], [5.891903400021931, 7.367822170556792], [5.885366916949692, 7.376096249042689], [5.881611824725951, 7.384385585426458], [5.880223054750218, 7.385067506260441], [5.874174118440862, 7.388037681893536], [5.837967395778719, 7.396147727635594], [5.82040739088842, 7.38589334470214], [5.787208556929386, 7.35339164720682], [5.756678580751952, 7.341218948295875], [5.753917216906075, 7.337510109104301], [5.747457981100979, 7.331933975172888], [5.722480296928211, 7.32163858405346], [5.70309686712676, 7.305834293218084], [5.669749259220964, 7.300109386239228], [5.675430298169772, 7.278903483908721], [5.696986675294852, 7.237471581448347], [5.715622901575671, 7.220954417812209], [5.7165756235662, 7.216342926384982], [5.717544079195932, 7.208961487083002], [5.718481540590687, 7.207119941731946], [5.722822649046066, 7.200476577831864], [5.726898193097156, 7.194239616665016], [5.73434638997395, 7.188740251561399], [5.757562160165605, 7.18240547203493], [5.7612910263598, 7.178732871924524], [5.761337279391967, 7.170423030998109], [5.729009151051514, 7.148083210371908], [5.693873881574405, 7.130344390581229], [5.68956090391265, 7.125132019826879], [5.689268589174105, 7.124778748140784], [5.687450408209827, 7.118305205920592], [5.690257549346484, 7.113704205085071], [5.693054677431462, 7.110949516007395], [5.697721003221773, 7.10543537144531], [5.700549126441103, 7.097140312675322], [5.699667931130193, 7.088825226003451], [5.693208694425778, 7.083249568712688], [5.660777569429342, 7.07937622103583], [5.656152248227727, 7.077504158090449], [5.651526451284724, 7.075631617605097], [5.641429901169033, 7.057108401931259], [5.637030602080642, 7.014609336951366], [5.633347509579949, 7.009972571876744], [5.628732203228651, 7.006253242093521], [5.622262001090519, 7.00252389925862], [5.591706276423565, 6.994967936621038], [5.587090969172948, 6.991248608636454], [5.584334850173263, 6.986616611767261], [5.582511425262112, 6.981066703865338], [5.579765797753396, 6.974587440158302], [5.578864573641226, 6.969965934780134], [5.576467991005018, 6.900700568976106], [5.570976734189003, 6.887742995742713], [5.568215846983776, 6.884034156551138], [5.56551885571065, 6.876023293440312], [5.567853451675489, 6.872621059214566], [5.570152283401228, 6.869271277947178], [5.572089194660634, 6.854508399343217], [5.571213244195917, 6.845269680151659], [5.566607952694937, 6.839704037711215], [5.563836574898062, 6.837841987817512], [5.559206009749573, 6.83689308165043], [5.553647993560105, 6.835938930637212], [5.549027442362615, 6.833143234272882], [5.546614039706242, 6.829901189088673], [5.546266555157445, 6.829434395980627], [5.54351091369773, 6.824802399111491], [5.545835018171601, 6.804292202423255], [5.561419962561274, 6.772269725767273], [5.561655997726177, 6.72979641017622], [5.56276303888319, 6.72619489337967], [5.564489364892324, 6.720578670369378], [5.571025847964563, 6.71230459188348], [5.573838233947413, 6.70677995762901], [5.576634883593044, 6.704025745192041], [5.582198142830066, 6.704056263685686], [5.605238913944788, 6.729115009150405], [5.607646579825825, 6.731236356072998], [5.612620830786739, 6.735619068065603], [5.620002270088719, 6.74212360542009], [5.629253387334018, 6.745868206152863], [5.636665820870974, 6.746832848657107], [5.640374659163228, 6.746853352300434], [5.667370796125397, 6.727612018979528], [5.670420600430418, 6.728349218441736], [5.671635221188581, 6.728642817412151], [5.702557562581489, 6.736117364424899], [5.711441993852986, 6.751975059701294], [5.714492798204105, 6.757421016766557], [5.719102858809947, 6.762063502428759], [5.723659514974656, 6.766651153727821], [5.726479529906442, 6.769490719021519], [5.743122577944689, 6.777893543552238], [5.751592635791553, 6.781640052646367], [5.757921218989111, 6.784439087294118], [5.767152308332413, 6.791876792679886], [5.770835399933787, 6.796514034395216], [5.778134822863819, 6.81779193824741], [5.769666671579671, 6.839905738559025], [5.771480083439144, 6.847302436658197], [5.774041920997888, 6.853347535560374], [5.77422571184718, 6.853781222825205], [5.787108421016853, 6.871396542316631], [5.787907599955815, 6.894484996385529], [5.799811840444136, 6.921328545376127], [5.792204379928251, 6.955450535214084], [5.788464547400963, 6.960970402162388], [5.785642146567852, 6.96834135087272], [5.793781280881433, 7.005321026444278], [5.792581080752313, 7.021655082715938], [5.796177864416961, 7.024290562159763], [5.804257870104664, 7.048537253991128], [5.809593200665745, 7.05124521339593], [5.815583228683124, 7.07159805300779], [5.821990013328502, 7.079123021410339], [5.822617603419701, 7.079953824109737], [5.823740959177997, 7.08144092595802], [5.852578163051817, 7.093998909721961]]]}}, {"type": "Feature", "properties": {"name": "Akoko North West", "state": "on"}, "geometry": {"type": "Polygon", "coordinates": [[[5.773028373360773, 7.747318744964161], [5.767605781581608, 7.737181187561816], [5.716454983111021, 7.700992584440257], [5.699404240013735, 7.682898045008812], [5.694880962186687, 7.671763420045863], [5.688617229101908, 7.632442951281234], [5.68096208743043, 7.623744010577695], [5.655056475575918, 7.628722667317277], [5.624599456899489, 7.582407951565756], [5.618211745075996, 7.563905238635925], [5.627499104100423, 7.561186313797407], [5.635854243878327, 7.559386254172352], [5.671086789423839, 7.559581279352585], [5.711934566027423, 7.550573827120502], [5.786094188995662, 7.553754807438452], [5.843492030932509, 7.569769858891902], [5.854602813968711, 7.572601318596014], [5.868490218748661, 7.576371671415529], [5.87220770761968, 7.577819373964985], [5.880517960435554, 7.581055641005094], [5.893457412329781, 7.588513850933509], [5.900828836781443, 7.596865176686606], [5.903569221242606, 7.604267119631913], [5.914586250854825, 7.6237165371885], [5.917333125723246, 7.630197524895891], [5.940000534297269, 7.645110129828652], [5.929021834689991, 7.69582128482449], [5.921491145699861, 7.716093063144399], [5.930624485032013, 7.741074562241295], [5.930603979590046, 7.744768144434374], [5.92873907075159, 7.746604443140598], [5.921306610211957, 7.749332904390087], [5.919446945320317, 7.750246048116651], [5.889812945710901, 7.74361848800288], [5.850026130801325, 7.728624344238142], [5.827743052899621, 7.734040736990494], [5.822185040307431, 7.733086586876539], [5.819413663409875, 7.731224536982836], [5.816439152145222, 7.727849007225927], [5.801024436828357, 7.733303547420803], [5.780241965894049, 7.745772839145275], [5.773028373360773, 7.747318744964161]]]}}, {"type": "Feature", "properties": {"name": "Akoko South West", "state": "on"}, "geometry": {"type": "Polygon", "coordinates": [[[5.823482990447701, 7.495887756814568], [5.820687294083427, 7.502238273577518], [5.813270092340929, 7.502197266290864], [5.737099138314647, 7.482407303354421], [5.72876055865288, 7.485188520633756], [5.686358451381466, 7.481180191013038], [5.656658172636583, 7.486555575579416], [5.610309124366665, 7.484452248372634], [5.599372863766689, 7.450227260979375], [5.597854482598336, 7.447821909953234], [5.592938900709726, 7.44003486741525], [5.588349341948629, 7.431698798660705], [5.582811832100447, 7.427051543893697], [5.580973148392161, 7.424271583866528], [5.575445651595601, 7.417777061362358], [5.521214485360247, 7.332527637440592], [5.508306025902414, 7.319529057819807], [5.504433632406233, 7.316193105427544], [5.640027523551396, 7.309178352099309], [5.648377419382427, 7.308300971712526], [5.655805110817255, 7.306495666341959], [5.665092468043042, 7.303777218144148], [5.667884350382508, 7.301945685844771], [5.669749259220964, 7.300109386239228], [5.70309686712676, 7.305834293218084], [5.722480296928211, 7.32163858405346], [5.747457981100979, 7.331933975172888], [5.753917216906075, 7.337510109104301], [5.756678580751952, 7.341218948295875], [5.787208556929386, 7.35339164720682], [5.82040739088842, 7.38589334470214], [5.837967395778719, 7.396147727635594], [5.846866130767353, 7.394510746573758], [5.848161696804937, 7.397127151396944], [5.827465533807413, 7.450567721822949], [5.823482990447701, 7.495887756814568]]]}}, {"type": "Feature", "properties": {"name": "Irele", "state": "on"}, "geometry": {"type": "Polygon", "coordinates": [[[4.865088463162067, 6.437849044697714], [4.905781746130742, 6.456541537961641], [4.909490585322317, 6.456562041604968], [4.915980816261708, 6.456598281585457], [4.923429488879833, 6.451099395820506], [4.927163600819597, 6.446503162291151], [4.929038525407691, 6.442820071589097], [4.931011199107616, 6.421593665615205], [4.956430435116545, 6.352482318604189], [4.995665071685778, 6.300068378253115], [4.998461723130049, 6.297313690074759], [5.000326632867882, 6.295477389569896], [5.002569199409095, 6.294045447639348], [5.010605811908761, 6.292759418012793], [5.015618801166795, 6.292353152875762], [5.013073444583824, 6.298575401133917], [5.012897014685507, 6.302100182377558], [5.015364647360627, 6.30897378890927], [5.019684315079132, 6.315898417577955], [5.021523476327445, 6.318678856044414], [5.030136108194881, 6.323132992193905], [5.035301207884459, 6.328475951703865], [5.027820586850623, 6.345218182373287], [5.02924537737232, 6.363563060686772], [5.032392979352551, 6.364906788117821], [5.039219378671419, 6.36409711858721], [5.043849944719227, 6.366590977291821], [5.049193381769214, 6.382441997800015], [5.052824974592966, 6.384150982182121], [5.066113472258962, 6.37656450284959], [5.071278571948596, 6.37656450284959], [5.075731277276645, 6.377276897211061], [5.086036204807044, 6.389211655293707], [5.091582297784839, 6.392238140178051], [5.098885058998349, 6.397403239867685], [5.103693484866483, 6.402212143275847], [5.106687389111755, 6.408612478882844], [5.109358630996098, 6.411639917947923], [5.109536968356451, 6.413777578572422], [5.108290040353154, 6.416270962435021], [5.107043587191868, 6.418230284799847], [5.103659474305346, 6.421257723864926], [5.107577644192986, 6.434972037029922], [5.104906403207963, 6.436396826652299], [5.102590880964442, 6.437821617173938], [5.102768742583464, 6.441383590780163], [5.117407798930799, 6.459027765918734], [5.123463631241634, 6.462768078683951], [5.128806590751594, 6.468467236273966], [5.133615494159756, 6.472563744421336], [5.153385162095617, 6.498033046587864], [5.150357246389831, 6.51174688311221], [5.153028965814144, 6.515487194078787], [5.154809951717937, 6.518871307864629], [5.154809951717937, 6.52902317078275], [5.155166148898729, 6.533119678030744], [5.157125473062194, 6.53614759373653], [5.160331250386946, 6.539175510341579], [5.161221981209508, 6.543806077288707], [5.162290572751772, 6.546477794914324], [5.160687446668362, 6.549861907800846], [5.162290572751772, 6.552176951605077], [5.164249896915237, 6.554492473848654], [5.162497215374231, 6.558132467239602], [5.161934377369676, 6.559301376357496], [5.162112236290739, 6.561973094882489], [5.154583454762701, 6.56780004523597], [5.147155763327874, 6.56960534970716], [5.140639782100322, 6.574186325338701], [5.128054143284146, 6.588160992236055], [5.111583710220089, 6.630350113067323], [5.114149570446386, 6.669145583701777], [5.122329711147302, 6.698738574225843], [5.112084387984169, 6.706992149068469], [5.109793662747393, 6.708925723843151], [5.105563163709064, 6.712496280578932], [5.088838100198188, 6.718866825243822], [5.082357883209795, 6.716984271706849], [5.07850581708982, 6.714952243651169], [5.072915508044332, 6.712118640862627], [5.071071101949826, 6.71026136007373], [5.063405236762321, 6.702542092243789], [5.050977706855747, 6.690956593072372], [5.044512748664488, 6.686303615919201], [5.038965224865308, 6.683503151349385], [5.033427715017069, 6.678855419042407], [5.018746852785057, 6.651073456275014], [5.016066069993201, 6.649845823226201], [5.008956405813535, 6.647226578343975], [5.00718029513456, 6.647858641663049], [4.998736832039242, 6.650863415114543], [4.980691433363006, 6.658249378006417], [4.927180032332672, 6.662762151751963], [4.881743418224232, 6.646472400580876], [4.876826296696265, 6.640419643951475], [4.865895282741178, 6.605271023139267], [4.869911671186742, 6.570839404814706], [4.868247509015362, 6.536665915299807], [4.857218742351108, 6.519061088198725], [4.839704988694336, 6.500496864338857], [4.827821255446622, 6.469830158834839], [4.827836514243813, 6.467060211859348], [4.828789711076354, 6.462448718633482], [4.831596851313691, 6.457977294816374], [4.85492563211227, 6.431329250344675], [4.858628749817001, 6.432272910766244], [4.862322329312121, 6.435063361385062], [4.865088463162067, 6.437849044697714]]]}}, {"type": "Feature", "properties": {"name": "Owo", "state": "on"}, "geometry": {"type": "Polygon", "coordinates": [[[5.449725150994993, 7.064806937690093], [5.475494860899175, 7.050649166126163], [5.478302002035832, 7.046047687750615], [5.478327751424615, 7.041430949678613], [5.477426051571058, 7.036809444300445], [5.475602625760644, 7.031259059757872], [5.478466509621796, 7.016500950258717], [5.529964923042826, 6.926297188164767], [5.533725261911343, 6.91708421656341], [5.537059784381597, 6.884796618868904], [5.547441483437751, 6.883792877439419], [5.555240153310478, 6.883038998251209], [5.561751366332544, 6.879381657837314], [5.56551885571065, 6.876023293440312], [5.568215846983776, 6.884034156551138], [5.570976734189003, 6.887742995742713], [5.576467991005018, 6.900700568976106], [5.578864573641226, 6.969965934780134], [5.587090969172948, 6.991248608636454], [5.591706276423565, 6.994967936621038], [5.617636680788223, 7.000651359672531], [5.622262001090519, 7.00252389925862], [5.628732203228651, 7.006253242093521], [5.633347509579949, 7.009972571876744], [5.637030602080642, 7.014609336951366], [5.641429901169033, 7.057108401931259], [5.642336844969464, 7.060806751430505], [5.64416551742471, 7.065433979194836], [5.647843360582669, 7.070994376789088], [5.651526451284724, 7.075631617605097], [5.656152248227727, 7.077504158090449], [5.660777569429342, 7.07937622103583], [5.67468023300637, 7.080376625081215], [5.678389072197945, 7.080397128724542], [5.685801506634277, 7.081361770329465], [5.693208694425778, 7.083249568712688], [5.699667931130193, 7.088825226003451], [5.700549126441103, 7.097140312675322], [5.697721003221773, 7.10543537144531], [5.693054677431462, 7.110949516007395], [5.690257549346484, 7.113704205085071], [5.687450408209827, 7.118305205920592], [5.689268589174105, 7.124778748140784], [5.704958916121143, 7.137793064098673], [5.709594726115768, 7.137818335947486], [5.715142726555655, 7.140619278057272], [5.754883289332383, 7.163923263647746], [5.758576393086116, 7.166714190907214], [5.761337279391967, 7.170423030998109], [5.7612910263598, 7.178732871924524], [5.726898193097156, 7.194239616665016], [5.722822649046066, 7.200476577831864], [5.718481540590687, 7.207119941731946], [5.717544079195932, 7.208961487083002], [5.7165756235662, 7.216342926384982], [5.715622901575671, 7.220954417812209], [5.696986675294852, 7.237471581448347], [5.675430298169772, 7.278903483908721], [5.669749259220964, 7.300109386239228], [5.667884350382508, 7.301945685844771], [5.665092468043042, 7.303777218144148], [5.655805110817255, 7.306495666341959], [5.648377419382427, 7.308300971712526], [5.640027523551396, 7.309178352099309], [5.504433632406233, 7.316193105427544], [5.473170279784654, 7.301790237129808], [5.467468635569105, 7.301758715892049], [5.465752602300824, 7.301749229843153], [5.458335399659006, 7.301708221657179], [5.398140429637181, 7.288447856583389], [5.388226031805971, 7.28318691344532], [5.418754101420689, 7.249780655352993], [5.41878986386115, 7.243317603724506], [5.418836116893317, 7.235007286157384], [5.418882369925484, 7.226697445230968], [5.41612672756645, 7.222065449261095], [5.417996407308408, 7.219305515337339], [5.420804024186396, 7.214704036961791], [5.424548625818488, 7.208261489875895], [5.419197186600911, 7.170103838221621], [5.423202862322285, 7.150262641807501], [5.425855636628398, 7.13994026203352], [5.427741050908821, 7.134410381134217], [5.426844597700097, 7.128865242337099], [5.427817822434633, 7.120560169616169], [5.433406352621148, 7.1159744257792], [5.439891815355054, 7.11693382343725], [5.446376801448253, 7.117893219296661], [5.45749807417684, 7.118877887904262], [5.466780185657115, 7.117082595585373], [5.476994513685895, 7.114369392233698], [5.486292362402651, 7.109804152939375], [5.490021228596845, 7.106131077087582], [5.490979671174955, 7.100596427982794], [5.487311839270035, 7.09318923929203], [5.482701778664193, 7.088546752730508], [5.47993564571351, 7.085761546957883], [5.475271766978494, 7.081224082325605], [5.454008166843494, 7.070026038970582], [5.45124203569145, 7.067240834097277], [5.449725150994993, 7.064806937690093]]]}}, {"type": "Feature", "properties": {"name": "Akoko North East", "state": "on"}, "geometry": {"type": "Polygon", "coordinates": [[[5.940000534297269, 7.645110129828652], [5.917333125723246, 7.630197524895891], [5.914586250854825, 7.6237165371885], [5.903569221242606, 7.604267119631913], [5.900828836781443, 7.596865176686606], [5.893457412329781, 7.588513850933509], [5.880517960435554, 7.581055641005094], [5.87220770761968, 7.577819373964985], [5.868490218748661, 7.576371671415529], [5.854602813968711, 7.572601318596014], [5.843492030932509, 7.569769858891902], [5.786094188995662, 7.553754807438452], [5.711934566027423, 7.550573827120502], [5.671086789423839, 7.559581279352585], [5.635854243878327, 7.559386254172352], [5.627499104100423, 7.561186313797407], [5.618211745075996, 7.563905238635925], [5.612797737325764, 7.537097931424455], [5.610309124366665, 7.484452248372634], [5.656658172636583, 7.486555575579416], [5.686358451381466, 7.481180191013038], [5.72876055865288, 7.485188520633756], [5.737099138314647, 7.482407303354421], [5.813270092340929, 7.502197266290864], [5.820687294083427, 7.502238273577518], [5.823482990447701, 7.495887756814568], [5.857790469954296, 7.499673843273285], [5.893038750038329, 7.497098923276724], [5.951171874982094, 7.501221656554264], [5.952970982225111, 7.507081985245463], [5.953028201590257, 7.511744022168955], [5.954218864409086, 7.515233040972134], [5.959945202209383, 7.514019966148567], [5.962800026300215, 7.512831210791774], [5.965109825258253, 7.513978003781915], [5.975643158105299, 7.53021287922104], [6.002026082437794, 7.528248787751409], [6.004125594720449, 7.529235839562375], [6.004090308920695, 7.535572052608188], [5.996539116287238, 7.559537411322538], [5.975945949945697, 7.594511032158437], [5.940000534297269, 7.645110129828652]]]}}]}