{"type": "FeatureCollection", "features": [{"type": "Feature", "properties": {"name": "Isokan", "state": "os"}, "geometry": {"type": "Polygon", "coordinates": [[[4.081985629733083, 7.20090008027455], [4.090093358821491, 7.197872262594899], [4.094581562189376, 7.201824460130752], [4.101409671119484, 7.210241270018628], [4.108662930949549, 7.211636953082973], [4.115356494106948, 7.212320965740048], [4.145836998578659, 7.20227275868092], [4.180017000084547, 7.218976760069495], [4.191127999857372, 7.221321759391742], [4.201334000164024, 7.2248367587095], [4.207595000209153, 7.226805758678893], [4.218429999844659, 7.226390759326137], [4.260660547046655, 7.241574272434775], [4.266325007892874, 7.24585675858259], [4.267411684801459, 7.249999428031231], [4.269034977282445, 7.256385391572621], [4.28847199858393, 7.292309007654637], [4.287905663115907, 7.301285673395171], [4.249217803558849, 7.341335637129987], [4.249171705210074, 7.344646180077177], [4.242863259631747, 7.349019107445883], [4.228946953339289, 7.354612927444691], [4.226809652443535, 7.363979365655268], [4.215798849737155, 7.356942535769463], [4.213535951323138, 7.356141407999644], [4.210404425623778, 7.356327871633994], [4.208409993726264, 7.357240493753807], [4.207133146177796, 7.356977675879079], [4.198305004372514, 7.363954975142065], [4.188824991680065, 7.358306470966909], [4.176600951372848, 7.361642328930373], [4.172202315984123, 7.359870437870484], [4.171668500001317, 7.360732973148231], [4.172184254000172, 7.362646865360603], [4.171832245861481, 7.362971519719906], [4.164348148048646, 7.356487189232439], [4.159923417931452, 7.361843947040597], [4.157712914019839, 7.362934389410611], [4.153044697854568, 7.370057516441307], [4.149330611118842, 7.389000525753715], [4.147774662570669, 7.392964158169434], [4.145524946419187, 7.398042511053063], [4.135321138659663, 7.403114608252622], [4.13174641536483, 7.358294694344693], [4.127019116439101, 7.351956613407026], [4.123136135224513, 7.35183334962943], [4.119177055176976, 7.348544852662883], [4.118987934045947, 7.343502957395629], [4.121119373160582, 7.340220791656236], [4.120498536078628, 7.335331805418548], [4.112786095002321, 7.331858809836262], [4.110903143964947, 7.326942646086309], [4.114611332047389, 7.324536821117476], [4.120832750231273, 7.318263236858968], [4.125745426410333, 7.311768290774069], [4.13133811955862, 7.299527643585918], [4.125375748392116, 7.257791517564556], [4.111218485844518, 7.251194391408092], [4.107489108835352, 7.245866776130867], [4.105320928817832, 7.237194059658179], [4.102608679646892, 7.233126161643099], [4.099776040931602, 7.23227098641695], [4.097031592434064, 7.230698585671234], [4.094214439145105, 7.228194713914945], [4.081985629733083, 7.20090008027455]]]}}, {"type": "Feature", "properties": {"name": "Irewole", "state": "os"}, "geometry": {"type": "Polygon", "coordinates": [[[4.287905663115907, 7.301285673395171], [4.293772335624851, 7.305088096038844], [4.303989796891642, 7.307486997127285], [4.304700727156899, 7.314443177610599], [4.313282029342247, 7.32748409101805], [4.314397582582444, 7.33763564007279], [4.315402092932288, 7.346776682997586], [4.320913355167249, 7.353571551186178], [4.314080335039478, 7.366506674643347], [4.320295038884979, 7.380445309303639], [4.319061260768592, 7.386095809074391], [4.304114511275714, 7.412047390674616], [4.306975647708043, 7.424541167341033], [4.293092032671211, 7.431970155598265], [4.293202802167627, 7.438245767827993], [4.299556677898408, 7.446328895961813], [4.304054667688831, 7.453980990730201], [4.305368480071365, 7.460985013347738], [4.294350635673368, 7.47164974793759], [4.282609668901159, 7.477483254348783], [4.275581564237825, 7.477748708136403], [4.26794559701176, 7.47541327939939], [4.250450925170128, 7.478604639692435], [4.238057088363973, 7.483375535052971], [4.217093485875694, 7.490943554001888], [4.208002944380439, 7.492778947990132], [4.200137585281368, 7.494036781172554], [4.188205362387635, 7.490396460428371], [4.184981354905631, 7.491333993768819], [4.172911204788306, 7.493583014744388], [4.149039702020673, 7.477455690128068], [4.135520779160686, 7.470775444131505], [4.133833487325603, 7.464661389711409], [4.137133068436412, 7.45907972674803], [4.136997098137613, 7.446224300311258], [4.141436577136346, 7.439674376871039], [4.135321138659663, 7.403114608252622], [4.145524946419187, 7.398042511053063], [4.147774662570669, 7.392964158169434], [4.149330611118842, 7.389000525753715], [4.153044697854568, 7.370057516441307], [4.157712914019839, 7.362934389410611], [4.159923417931452, 7.361843947040597], [4.164348148048646, 7.356487189232439], [4.171832245861481, 7.362971519719906], [4.172184254000172, 7.362646865360603], [4.171668500001317, 7.360732973148231], [4.172202315984123, 7.359870437870484], [4.176600951372848, 7.361642328930373], [4.188824991680065, 7.358306470966909], [4.198305004372514, 7.363954975142065], [4.207133146177796, 7.356977675879079], [4.208409993726264, 7.357240493753807], [4.210404425623778, 7.356327871633994], [4.213535951323138, 7.356141407999644], [4.215798849737155, 7.356942535769463], [4.226809652443535, 7.363979365655268], [4.228946953339289, 7.354612927444691], [4.242863259631747, 7.349019107445883], [4.249171705210074, 7.344646180077177], [4.249217803558849, 7.341335637129987], [4.287905663115907, 7.301285673395171]]]}}, {"type": "Feature", "properties": {"name": "Ife North", "state": "os"}, "geometry": {"type": "Polygon", "coordinates": [[[4.42391833616233, 7.190768351378381], [4.432889015116018, 7.195955847784205], [4.446818786058202, 7.228759532226661], [4.452024133107329, 7.234633795912998], [4.470135363056613, 7.248514810110464], [4.480305493004153, 7.247941573245043], [4.513440718814195, 7.246048315077701], [4.516820503263659, 7.248102337852686], [4.518738339902541, 7.249763992714122], [4.494653873177754, 7.269484215024534], [4.493900505703834, 7.294120122645609], [4.489916947908853, 7.29624032203327], [4.490463581928793, 7.314007763647396], [4.495624318107843, 7.32317553172544], [4.497547121702326, 7.345073307687073], [4.512861173204612, 7.353445890715307], [4.513129434675704, 7.358877971241441], [4.51643838582288, 7.368320510083549], [4.516833841108905, 7.37513847556022], [4.537252327632871, 7.385199944921567], [4.544048730964221, 7.392960034777843], [4.547517321667101, 7.413567528218891], [4.544795251899416, 7.41878955769198], [4.54492275867841, 7.420237515648864], [4.509343746616651, 7.416345026801594], [4.505148395781873, 7.436527990774209], [4.502991585893028, 7.439758262933537], [4.48799306512791, 7.451428096029872], [4.477160554815782, 7.455541328869288], [4.466242963242223, 7.458948940141511], [4.475570450016278, 7.475795523644535], [4.473282572033099, 7.480529991066305], [4.468665222422146, 7.48747250185454], [4.468897173765583, 7.495523231012328], [4.471182535445678, 7.500396630200385], [4.474160037855484, 7.504662427629], [4.48926634776376, 7.514643772791942], [4.486156867145723, 7.519551455035696], [4.480267553304998, 7.525309151296369], [4.489352417380189, 7.533914290012547], [4.489473487711336, 7.535747134422763], [4.489568665661466, 7.539554272211944], [4.489568665661466, 7.542409625104142], [4.48931599933394, 7.543922000599878], [4.488965973301049, 7.550881548144957], [4.487830762679607, 7.555599822373949], [4.481247110166066, 7.55676042085679], [4.47821615025515, 7.56217912306812], [4.478025047917697, 7.562870964323565], [4.477364093877895, 7.565925865086626], [4.472581821194126, 7.568658384976516], [4.457871240865131, 7.583552596075492], [4.443629132678382, 7.582266681562146], [4.438650776312329, 7.581817187812987], [4.420084778090086, 7.539461103347264], [4.41334874894568, 7.516026360827937], [4.411363029680103, 7.515443551578699], [4.401072759300462, 7.507599289675511], [4.39336219960586, 7.499254682757453], [4.386831891278803, 7.490799500596552], [4.389868999854514, 7.471183000694964], [4.388108999630674, 7.462226000429609], [4.389280999718437, 7.449071000826052], [4.377620456618843, 7.443677961668641], [4.374723476807048, 7.437395552362887], [4.371904306338706, 7.421518401153321], [4.381021000119119, 7.394832000596409], [4.375815000162163, 7.386855000557887], [4.374472999429429, 7.375127000210966], [4.378051795753834, 7.368682724628115], [4.382094000138068, 7.361403999594927], [4.399158000141654, 7.346829000158266], [4.399821027118776, 7.341554910730622], [4.398505503326362, 7.335700408746902], [4.396555924216557, 7.324609695880781], [4.398666073680431, 7.311568230289652], [4.40439165065419, 7.303691676429764], [4.407040723350747, 7.299756055197861], [4.40582771327837, 7.295431261343708], [4.396230954195232, 7.282284161385007], [4.407273779961031, 7.263540410361713], [4.397731955965071, 7.250623864200008], [4.397782553621994, 7.24668681304604], [4.399089767678674, 7.243672594015038], [4.402109930329061, 7.237303921738658], [4.407353158621447, 7.226621710623476], [4.411994955402918, 7.201296542801231], [4.42391833616233, 7.190768351378381]]]}}, {"type": "Feature", "properties": {"name": "Ayedade", "state": "os"}, "geometry": {"type": "Polygon", "coordinates": [[[4.081985629733083, 7.20090008027455], [4.071991918891968, 7.162779329602415], [4.085448800222025, 7.151201292106009], [4.072618008014729, 7.146816729308682], [4.071053027575203, 7.142121790688122], [4.071053027575203, 7.138991831607768], [4.073244094439474, 7.135548591894064], [4.084511757012024, 7.139930724723229], [4.087641715193058, 7.138052463650354], [4.088356017915942, 7.13344621617], [4.156689167171351, 7.164999961678916], [4.162019252886239, 7.171091556430213], [4.168871879133974, 7.174137114136556], [4.186004161962558, 7.08543109916593], [4.195631025851185, 7.054961203996413], [4.197892666113717, 7.049162387134515], [4.200775622796812, 7.047416686131214], [4.20362758614425, 7.046032428054161], [4.205973148442069, 7.045084952708464], [4.210033893249602, 7.045073986375428], [4.213520527050719, 7.045643805817008], [4.218773841239852, 7.047115802652229], [4.261477468710268, 7.083738804402344], [4.264981747209902, 7.086045740818349], [4.268486023011576, 7.088352679932257], [4.284764289840155, 7.091783045850946], [4.298218000160603, 7.090554000866518], [4.311372756047888, 7.084178446977774], [4.315403938341149, 7.081271170827904], [4.334441184912805, 7.07079172086128], [4.350731141129302, 7.065693835602076], [4.353517266908398, 7.071363537697152], [4.376871513809363, 7.095710651425463], [4.385181501325292, 7.117209996244355], [4.410297494034182, 7.127719288414482], [4.418670208363494, 7.15885090564484], [4.41634489520078, 7.165239798278094], [4.42391833616233, 7.190768351378381], [4.411994955402918, 7.201296542801231], [4.407353158621447, 7.226621710623476], [4.402109930329061, 7.237303921738658], [4.399089767678674, 7.243672594015038], [4.397782553621994, 7.24668681304604], [4.397731955965071, 7.250623864200008], [4.407273779961031, 7.263540410361713], [4.396230954195232, 7.282284161385007], [4.40582771327837, 7.295431261343708], [4.407040723350747, 7.299756055197861], [4.40439165065419, 7.303691676429764], [4.398666073680431, 7.311568230289652], [4.396555924216557, 7.324609695880781], [4.398505503326362, 7.335700408746902], [4.399821027118776, 7.341554910730622], [4.399158000141654, 7.346829000158266], [4.382094000138068, 7.361403999594927], [4.378051795753834, 7.368682724628115], [4.374472999429429, 7.375127000210966], [4.375815000162163, 7.386855000557887], [4.381021000119119, 7.394832000596409], [4.371904306338706, 7.421518401153321], [4.374723476807048, 7.437395552362887], [4.377620456618843, 7.443677961668641], [4.389280999718437, 7.449071000826052], [4.388108999630674, 7.462226000429609], [4.389868999854514, 7.471183000694964], [4.386831891278803, 7.490799500596552], [4.39336219960586, 7.499254682757453], [4.401072759300462, 7.507599289675511], [4.411363029680103, 7.515443551578699], [4.41334874894568, 7.516026360827937], [4.420084778090086, 7.539461103347264], [4.438650776312329, 7.581817187812987], [4.443629132678382, 7.582266681562146], [4.457871240865131, 7.583552596075492], [4.472581821194126, 7.568658384976516], [4.477364093877895, 7.565925865086626], [4.48414348563341, 7.581901855386377], [4.508457147279557, 7.600376631776157], [4.492169488830882, 7.610108666881501], [4.486045440244936, 7.622187804823398], [4.439357550810371, 7.618725657762923], [4.433873466986938, 7.615595608750368], [4.429684456372627, 7.61069045899751], [4.413611567719727, 7.613543265909016], [4.396944553648268, 7.592449333669833], [4.387045577391518, 7.594481688179428], [4.382726477145241, 7.595154099582089], [4.371316764856886, 7.596795426168057], [4.364469941034997, 7.601932718819967], [4.35760446437456, 7.612990356419857], [4.342017932681472, 7.621517833281416], [4.330310101430086, 7.634405798089176], [4.32956207143252, 7.63514709036599], [4.305541765040459, 7.620481270194489], [4.30503251403934, 7.619815892389568], [4.312259903971437, 7.608907131259173], [4.33585051069258, 7.606850692905198], [4.347024118568243, 7.583777214347037], [4.332283035933415, 7.56741916776042], [4.307262615976981, 7.559242389624615], [4.299038364429009, 7.557670578834177], [4.294770869080367, 7.551226920186252], [4.292605322277836, 7.545758834402761], [4.293932681148362, 7.542214613413705], [4.27574927430959, 7.519493313865382], [4.273627466034782, 7.51465406103614], [4.272820518751985, 7.508798575194135], [4.270804173074168, 7.502860348126603], [4.27252294927473, 7.4968864278664], [4.280255926369932, 7.489396165200901], [4.289023181374773, 7.48710136693461], [4.294369168002731, 7.482210709756487], [4.294350635673368, 7.47164974793759], [4.305368480071365, 7.460985013347738], [4.304054667688831, 7.453980990730201], [4.299556677898408, 7.446328895961813], [4.293202802167627, 7.438245767827993], [4.293092032671211, 7.431970155598265], [4.306975647708043, 7.424541167341033], [4.304114511275714, 7.412047390674616], [4.316234073743544, 7.394347051075613], [4.319061260768592, 7.386095809074391], [4.320295038884979, 7.380445309303639], [4.314080335039478, 7.366506674643347], [4.320913355167249, 7.353571551186178], [4.315402092932288, 7.346776682997586], [4.314397582582444, 7.33763564007279], [4.313282029342247, 7.32748409101805], [4.304700727156899, 7.314443177610599], [4.303989796891642, 7.307486997127285], [4.293772335624851, 7.305088096038844], [4.287905663115907, 7.301285673395171], [4.28847199858393, 7.292309007654637], [4.269034977282445, 7.256385391572621], [4.267411684801459, 7.249999428031231], [4.266325007892874, 7.24585675858259], [4.260660547046655, 7.241574272434775], [4.218429999844659, 7.226390759326137], [4.207595000209153, 7.226805758678893], [4.201334000164024, 7.2248367587095], [4.191127999857372, 7.221321759391742], [4.180017000084547, 7.218976760069495], [4.145836998578659, 7.20227275868092], [4.115356494106948, 7.212320965740048], [4.108662930949549, 7.211636953082973], [4.101409671119484, 7.210241270018628], [4.094581562189376, 7.201824460130752], [4.090093358821491, 7.197872262594899], [4.081985629733083, 7.20090008027455]]]}}, {"type": "Feature", "properties": {"name": "Ayedire", "state": "os"}, "geometry": {"type": "Polygon", "coordinates": [[[4.294350635673368, 7.47164974793759], [4.294369168002731, 7.482210709756487], [4.289023181374773, 7.48710136693461], [4.280255926369932, 7.489396165200901], [4.27252294927473, 7.4968864278664], [4.270804173074168, 7.502860348126603], [4.272820518751985, 7.508798575194135], [4.273627466034782, 7.51465406103614], [4.27574927430959, 7.519493313865382], [4.293932681148362, 7.542214613413705], [4.292605322277836, 7.545758834402761], [4.294770869080367, 7.551226920186252], [4.299038364429009, 7.557670578834177], [4.307262615976981, 7.559242389624615], [4.332283035933415, 7.56741916776042], [4.347024118568243, 7.583777214347037], [4.33585051069258, 7.606850692905198], [4.312259903971437, 7.608907131259173], [4.30503251403934, 7.619815892389568], [4.305541765040459, 7.620481270194489], [4.293911993144036, 7.638588069184095], [4.301987924003527, 7.648149103598314], [4.29950916311742, 7.653678318099935], [4.291915139372236, 7.651867372181528], [4.290021797567931, 7.654504736604338], [4.285412531962834, 7.656150153306953], [4.273195759077055, 7.653159705156327], [4.268684000666155, 7.64792756910208], [4.247944763739895, 7.640800306089318], [4.237382183141278, 7.639668780889565], [4.231613732787594, 7.640859344782996], [4.222867620844056, 7.62936625544836], [4.218738714620031, 7.621213695155973], [4.212934908319426, 7.609939263386366], [4.186461266674144, 7.617909243317001], [4.183025297079837, 7.608169769019696], [4.181192845673365, 7.609268090350156], [4.176970604210055, 7.610176321979736], [4.176655699401067, 7.605749672709294], [4.175666275178514, 7.602674487737488], [4.170041869236911, 7.598394514295421], [4.158419496962267, 7.604399203960156], [4.151907549194107, 7.599885562368854], [4.144939733282115, 7.596887494262489], [4.141589255040117, 7.593246460355886], [4.147108470879289, 7.572164045734155], [4.148558621383302, 7.569405948226006], [4.153796672278645, 7.568672656318086], [4.154346464717605, 7.565374849569707], [4.155370159405379, 7.509179003708084], [4.153030687316402, 7.501317525183708], [4.149907169180551, 7.492844600298099], [4.149213425858989, 7.486043240802985], [4.149039702020673, 7.477455690128068], [4.172911204788306, 7.493583014744388], [4.184981354905631, 7.491333993768819], [4.188205362387635, 7.490396460428371], [4.200137585281368, 7.494036781172554], [4.208002944380439, 7.492778947990132], [4.217093485875694, 7.490943554001888], [4.238057088363973, 7.483375535052971], [4.250450925170128, 7.478604639692435], [4.26794559701176, 7.47541327939939], [4.275581564237825, 7.477748708136403], [4.282609668901159, 7.477483254348783], [4.294350635673368, 7.47164974793759]]]}}, {"type": "Feature", "properties": {"name": "Ifedayo", "state": "os"}, "geometry": {"type": "Polygon", "coordinates": [[[4.947042175755882, 7.902162896100833], [4.990539551159429, 7.931201458180794], [4.996639252399632, 7.939206598905457], [5.00034673541353, 7.944768017230274], [5.001213550564955, 7.946068286722095], [5.008075236582954, 7.951024054816344], [5.016461849035181, 7.955217360592769], [5.020274162422709, 7.960935592803423], [5.027400274303261, 7.9712562215974], [5.031329155116453, 7.976946353591416], [5.035522459993558, 8.005156516859813], [5.038145689771795, 8.008256426892615], [5.03971576666936, 8.010111809212674], [5.053058146316459, 8.0234546663998], [5.056488990674438, 8.031078338994178], [5.05763292202181, 8.039464951446405], [5.054930210161103, 8.049190521325556], [5.053439617144647, 8.057763100087072], [5.04962730375712, 8.064624786105071], [5.044290542374654, 8.0699615483868], [5.03971576666936, 8.071867942951258], [5.037047384629147, 8.070724487345274], [5.009981632046731, 8.050139426593319], [5.0054068572407, 8.043276787293962], [5.001976012882722, 8.034128189164619], [4.998952800631287, 8.030323020890762], [5.001968999969449, 8.018887000734537], [4.998578000074701, 8.008804000704117], [4.970878388227106, 7.980955108591445], [4.937624129050391, 7.982263862287482], [4.937595997357448, 7.979291093009579], [4.937898110209687, 7.974084602922119], [4.939591930223457, 7.967502847078777], [4.936678761715541, 7.962725658262571], [4.926597440719377, 7.959599252403621], [4.92379079960574, 7.956737240031657], [4.922864841439321, 7.951469552877597], [4.931741209389372, 7.931471592939715], [4.929453061609536, 7.923906189219281], [4.934921181567347, 7.914607132713058], [4.946279079416058, 7.901821934334862], [4.947042175755882, 7.902162896100833]]]}}, {"type": "Feature", "properties": {"name": "Ile Oluji/Okeigbo", "state": "os"}, "geometry": {"type": "Polygon", "coordinates": [[[5.003284290837428, 7.200154797705807], [5.022109032106187, 7.213418960616593], [5.025781631317273, 7.219902514989144], [5.029454708068386, 7.226386546901665], [5.032220364378361, 7.231300352629205], [5.042090893280147, 7.288321972181336], [5.042684078007824, 7.348343372148975], [5.035132885374423, 7.372309208403294], [5.032325745137086, 7.376910210138135], [5.030450821448312, 7.38059329994087], [5.025799750857857, 7.38333749842684], [5.022075652869148, 7.386086940859684], [5.017424107436682, 7.388831615087042], [5.01277828169242, 7.390652180154063], [5.006279945163385, 7.392001629071956], [4.989670277261553, 7.377597331751531], [4.943352222327235, 7.369954108795127], [4.87561607362295, 7.378812313137814], [4.814457892817529, 7.372009753947054], [4.795955180787018, 7.364520549783606], [4.754682872016986, 7.361068429264662], [4.752016549424241, 7.350784039551854], [4.745480867647984, 7.313828535058917], [4.734695399073473, 7.28397389308077], [4.746673106978335, 7.222973347242203], [4.736561774706161, 7.207220077644536], [4.72641897065904, 7.197007178638444], [4.720866202912987, 7.195129395105539], [4.715431689720731, 7.172015189849162], [4.708982467866633, 7.164592743260528], [4.707573050356018, 7.163645776031785], [4.706211090069814, 7.162730694266202], [4.703434467426803, 7.161791801150741], [4.683927534628083, 7.168147086119177], [4.675593376033532, 7.166254520429845], [4.671884535942638, 7.166234015887198], [4.669123648737468, 7.162525176695624], [4.668217181577688, 7.158826828095698], [4.674789427989765, 7.14408922223987], [4.673872471137656, 7.142237662937816], [4.672955513386285, 7.140385627894489], [4.635089873399011, 7.113398551601904], [4.61670541772088, 7.084672450872972], [4.680443687825971, 7.090523712599293], [4.721846310159151, 7.099089772175319], [4.816730656794448, 7.10017740686186], [4.820962340239873, 7.103788964589114], [4.82325356280171, 7.102294760794621], [4.823913853141846, 7.101666242603073], [4.826193020291726, 7.099488515382745], [4.843697107135824, 7.104113597364687], [4.856433734029622, 7.099147059888935], [4.858120909852175, 7.099659803856923], [4.860240295353378, 7.099750095790341], [4.879928589033227, 7.103674411644818], [4.879837032652972, 7.103921824132954], [4.869293615707875, 7.132413253968537], [4.868622764628924, 7.134226093859183], [4.877082752766853, 7.187049368733426], [4.968455315160725, 7.190960883637899], [5.003284290837428, 7.200154797705807]]]}}, {"type": "Feature", "properties": {"name": "Irepodun", "state": "os"}, "geometry": {"type": "Polygon", "coordinates": [[[4.799294949002729, 8.065057754811562], [4.805271149044358, 8.063862801327275], [4.808808985746168, 8.061739966026664], [4.812895298279443, 8.059288024722605], [4.818613528691458, 8.05356979431059], [4.830049992213446, 8.055476187975728], [4.843392371860546, 8.061956405863498], [4.850381374001245, 8.06661605778487], [4.852541446630482, 8.0680561071037], [4.857497213825411, 8.072630881909731], [4.856734753306284, 8.079111097998805], [4.854828835382477, 8.085972785815443], [4.851778984312716, 8.091691017126777], [4.854066372165391, 8.095502852974334], [4.913153648122432, 8.085591315886575], [4.926877498597719, 8.07987308457524], [4.939457416826372, 8.0680561071037], [4.945175648137706, 8.060812950257514], [4.949749947202349, 8.055476187975728], [4.960805415637481, 8.052426337805286], [4.961066676785777, 8.052181396654191], [4.962958672304921, 8.050407587340317], [4.966904640237033, 8.046708107393272], [4.970716475185213, 8.032603263629767], [4.969192027190331, 8.02421665207686], [4.974106868037552, 8.021382839746309], [4.98336396037854, 8.032349306775131], [4.998952800631287, 8.030323020890762], [5.001976012882722, 8.034128189164619], [5.0054068572407, 8.043276787293962], [5.009981632046731, 8.050139426593319], [5.03971576666936, 8.071867942951258], [5.044290542374654, 8.0699615483868], [5.04962730375712, 8.064624786105071], [5.053439617144647, 8.057763100087072], [5.054930210161103, 8.049190521325556], [5.062942981633341, 8.052833557122995], [5.066485403978277, 8.054468154981407], [5.069503384873371, 8.057051794804522], [5.078830922009502, 8.064142331303572], [5.085760934919278, 8.087630587981323], [5.090427352440429, 8.094465843823684], [5.132855770277615, 8.123269431938809], [5.159190606061657, 8.122825389879893], [5.184591980635446, 8.144613576255608], [5.188806839564052, 8.152131749380771], [5.190678331439869, 8.158524823861569], [5.190678331439869, 8.164177250879447], [5.187589896756378, 8.172482991796699], [5.184814531365589, 8.181533349784331], [5.166016243654781, 8.188096816115205], [5.163032651036076, 8.19365702395254], [5.157816051669499, 8.194988686978377], [5.153220176070306, 8.199882507072118], [5.147881293187197, 8.202010248174474], [5.132519896875806, 8.209287712358105], [5.122628071128645, 8.207794773909711], [5.118601321593758, 8.20326709659929], [5.110285623382879, 8.195373931361871], [5.108992246295202, 8.18644824009425], [5.105588101909404, 8.18091943568345], [5.100431084427044, 8.17135946336856], [5.095881285592895, 8.162864668769487], [5.089314461193453, 8.1546697620999], [5.081054209783986, 8.14858341219474], [5.073229312982448, 8.14510631570397], [5.061925887070061, 8.14510631570397], [5.045927649341593, 8.144325643014042], [5.044102191962622, 8.144236565165386], [5.021495818577193, 8.14858341219474], [5.011931894641293, 8.150322914171227], [4.964110851334794, 8.18423175838899], [4.925987867646029, 8.226712934954037], [4.9275072902293, 8.235331785633434], [4.933148539573494, 8.24834610428934], [4.931371000771094, 8.2605323038228], [4.930160013274019, 8.270734909188775], [4.936967697701164, 8.277831930699108], [4.938187890658696, 8.293854963635738], [4.934214360304509, 8.315970112930415], [4.932904086754263, 8.32817508311365], [4.930213083167303, 8.337200614416872], [4.907160759361602, 8.369863509993024], [4.856731891663514, 8.36768913274733], [4.837168693680326, 8.362907410448656], [4.820214271571444, 8.35899448360857], [4.815721260427893, 8.344229217304587], [4.819813343011447, 8.334079007340392], [4.81692529706487, 8.314704972756317], [4.816939409226393, 8.30258567019257], [4.798042774354599, 8.248137474165162], [4.789348125215838, 8.23379135128988], [4.775871277137753, 8.222923279086103], [4.767176627999049, 8.215967176843776], [4.755438805256688, 8.210750580175159], [4.747418879677582, 8.20971870435477], [4.737636909715661, 8.207644149158227], [4.735305009918306, 8.203248373613576], [4.739299130250686, 8.197135152865087], [4.759480974567396, 8.194097807767662], [4.772659360141404, 8.186733969996794], [4.785875347269496, 8.180083935825053], [4.791996501837161, 8.171760391928615], [4.799518122063716, 8.16373798871723], [4.805983423796022, 8.148360455870375], [4.810516874754001, 8.14334753675945], [4.814984517821301, 8.131130532747932], [4.814655751761563, 8.118032361304472], [4.81915941627409, 8.101552297400644], [4.817004611873415, 8.088692936429936], [4.816680939573757, 8.083914311396427], [4.819352617629249, 8.081719890960244], [4.799294949002729, 8.065057754811562]]]}}, {"type": "Feature", "properties": {"name": "Ede South", "state": "os"}, "geometry": {"type": "Polygon", "coordinates": [[[4.508807987198907, 7.599144888825606], [4.527190756648167, 7.613978601631231], [4.5281037438927, 7.61772321675312], [4.53469833036371, 7.624565257980294], [4.533798203424396, 7.641434515190781], [4.536077781564416, 7.645872795393245], [4.539893427839445, 7.657129932300563], [4.518908062657033, 7.680965013424668], [4.511965736229797, 7.682709860971329], [4.499336128659479, 7.693336947242358], [4.495666089818258, 7.694821200038405], [4.489367783196712, 7.694624011089275], [4.489276993938176, 7.694606084003624], [4.482310125012305, 7.691762202863401], [4.475711320720904, 7.689997521668317], [4.472031232855159, 7.695057002278872], [4.468816027038088, 7.698509657894419], [4.446767413185626, 7.711929139118524], [4.441579379884502, 7.725438217999397], [4.43539378799295, 7.724050190863693], [4.430900640152458, 7.722511535379113], [4.428952732882351, 7.722519811839902], [4.399176229399529, 7.732773122781452], [4.395221002047663, 7.730365485678647], [4.392610232376398, 7.706094225268316], [4.38955462744417, 7.701470725193872], [4.382129009845983, 7.700634537354063], [4.348313755375557, 7.675074428841867], [4.338734324429595, 7.668527513633876], [4.337130368271914, 7.668445054795484], [4.32956207143252, 7.63514709036599], [4.330310101430086, 7.634405798089176], [4.342017932681472, 7.621517833281416], [4.35760446437456, 7.612990356419857], [4.364469941034997, 7.601932718819967], [4.371316764856886, 7.596795426168057], [4.382726477145241, 7.595154099582089], [4.387045577391518, 7.594481688179428], [4.396944553648268, 7.592449333669833], [4.413611567719727, 7.613543265909016], [4.429684456372627, 7.61069045899751], [4.433873466986938, 7.615595608750368], [4.439357550810371, 7.618725657762923], [4.486045440244936, 7.622187804823398], [4.492169488830882, 7.610108666881501], [4.508807987198907, 7.599144888825606]]]}}, {"type": "Feature", "properties": {"name": "Obokun", "state": "os"}, "geometry": {"type": "Polygon", "coordinates": [[[4.747988296222957, 7.678936394698894], [4.746906818295088, 7.695712270804677], [4.772626848750122, 7.706516805006572], [4.769705695161747, 7.732938421770768], [4.786531852363169, 7.736636869296149], [4.801185940878497, 7.737191824742979], [4.823524954812854, 7.723513607666916], [4.824260445563141, 7.723906805654622], [4.828038352687884, 7.725211093317341], [4.887211030964352, 7.689585579111224], [4.893228530572287, 7.73033523608234], [4.914290428060838, 7.783000468596811], [4.915795803233777, 7.822114468308087], [4.908579349957108, 7.829799175191852], [4.910020828298627, 7.841811657182291], [4.911100863713955, 7.850109576695672], [4.914134979345874, 7.850375651914874], [4.916396140269683, 7.857159138283635], [4.921879231241576, 7.861858931444601], [4.907802690042161, 7.865568377678528], [4.896238042551659, 7.855418980701472], [4.886938662289481, 7.850254149909119], [4.873983339159849, 7.845878715230583], [4.865482987649784, 7.841731218221184], [4.853709649780569, 7.855284439425361], [4.843560593646544, 7.863239260383637], [4.815801759643534, 7.850288214429611], [4.803315503108024, 7.86613286863701], [4.795208280337931, 7.867890216760145], [4.770725988613549, 7.862333828343537], [4.762177598017786, 7.878433130984263], [4.744599964616725, 7.885211168360797], [4.737218027090307, 7.879016208231462], [4.727852641985862, 7.87456800311088], [4.721026278639897, 7.877137323029103], [4.721394740774713, 7.874410335768403], [4.720218547148306, 7.865271008750085], [4.721019230653042, 7.859914157412504], [4.715864786131021, 7.853749772434071], [4.71923609986618, 7.838721608215678], [4.719029418572859, 7.837299718007614], [4.700352424225059, 7.838054538785968], [4.69327269218104, 7.852171865139496], [4.674044248843074, 7.859884459100556], [4.671853605559477, 7.859054704111372], [4.664004802080001, 7.841098897696043], [4.667639883373965, 7.829495448056548], [4.660446477023356, 7.815847018325258], [4.663083862130577, 7.800716387151567], [4.660165875954476, 7.790750397013255], [4.66016372927271, 7.784391492273585], [4.64066010597918, 7.790959405752005], [4.637149195878749, 7.797497931184637], [4.60973727715367, 7.789909948185596], [4.606645449328084, 7.787261279284678], [4.608996024447038, 7.774333119278083], [4.606314149878187, 7.766778985861549], [4.610299643014173, 7.752269564988467], [4.61405224141788, 7.746046993873733], [4.616306733868726, 7.743830398853845], [4.62300614711603, 7.743950355824325], [4.635025845266568, 7.742378395746414], [4.636391854300712, 7.7425057379495], [4.646277479222363, 7.73654159871586], [4.636305862025949, 7.706928509243369], [4.640689642413122, 7.708786416859709], [4.645401612394551, 7.703239931777489], [4.650271345945896, 7.700090309919915], [4.66289489118634, 7.688552672667754], [4.697284014745549, 7.682309832632711], [4.712232080845922, 7.67145696616609], [4.717695974889352, 7.675625123300847], [4.728804213743501, 7.674364783707858], [4.7346295848875, 7.670653862585766], [4.734838608015423, 7.670716694619784], [4.741779274294117, 7.674336257212531], [4.747988296222957, 7.678936394698894]]]}}, {"type": "Feature", "properties": {"name": "Ife South", "state": "os"}, "geometry": {"type": "Polygon", "coordinates": [[[4.42391833616233, 7.190768351378381], [4.41634489520078, 7.165239798278094], [4.418670208363494, 7.15885090564484], [4.410297494034182, 7.127719288414482], [4.385181501325292, 7.117209996244355], [4.376871513809363, 7.095710651425463], [4.353517266908398, 7.071363537697152], [4.350731141129302, 7.065693835602076], [4.370260714360541, 7.056211471182507], [4.371180058013294, 7.032460213168349], [4.37693977415131, 7.028389452611179], [4.378656864123002, 7.026067734038747], [4.376307010260348, 7.023178100788755], [4.371032714887917, 7.01798009760347], [4.3743195526053, 6.998856067353699], [4.376018523036464, 6.994796751568856], [4.382944106785146, 6.991302013077473], [4.386407374400846, 6.989554404612136], [4.390379905608199, 6.980854988167209], [4.400536536731806, 6.980734825252057], [4.409673690988086, 6.987587452399055], [4.416907309624662, 6.994059562898542], [4.424521445808125, 7.002435207219094], [4.438227175843565, 7.004719733428999], [4.454216956347523, 7.000912665786927], [4.463354110603746, 6.993298053862134], [4.480105400144168, 6.990633011004718], [4.488862037752881, 6.991775513329344], [4.496476173037024, 7.001293182434495], [4.509039879187128, 7.013475894397061], [4.516273497823704, 7.022613047754021], [4.52236461593435, 7.024516581575028], [4.559294224448934, 7.021471023868685], [4.609585762073323, 7.031077861654069], [4.613949776261222, 7.080040454903099], [4.626796722091115, 7.104118824224429], [4.630479812793169, 7.108756065040438], [4.635089873399011, 7.113398551601904], [4.672955513386285, 7.140385627894489], [4.673872471137656, 7.142237662937816], [4.674789427989765, 7.14408922223987], [4.668217181577688, 7.158826828095698], [4.669123648737468, 7.162525176695624], [4.671884535942638, 7.166234015887198], [4.675593376033532, 7.166254520429845], [4.683927534628083, 7.168147086119177], [4.703434467426803, 7.161791801150741], [4.706211090069814, 7.162730694266202], [4.707573050356018, 7.163645776031785], [4.708982467866633, 7.164592743260528], [4.715431689720731, 7.172015189849162], [4.720866202912987, 7.195129395105539], [4.72641897065904, 7.197007178638444], [4.736561774706161, 7.207220077644536], [4.746673106978335, 7.222973347242203], [4.734695399073473, 7.28397389308077], [4.745480867647984, 7.313828535058917], [4.741920204354017, 7.311840994666227], [4.733840865063939, 7.307331159905175], [4.712247748834614, 7.315739796754258], [4.69968061986475, 7.332854355743962], [4.682258701378032, 7.344053686028815], [4.687929161601573, 7.351805222433143], [4.683270201258836, 7.363223063693511], [4.683206352091531, 7.367769637558752], [4.682452103282003, 7.369761811258627], [4.664698015700935, 7.384617639292685], [4.670090500875972, 7.40265075322975], [4.670220999699438, 7.404220000052987], [4.660055255745476, 7.41072205887599], [4.638420146572571, 7.400237859589595], [4.632572441664877, 7.396331908790614], [4.626008656973966, 7.408754700169311], [4.614565906291602, 7.41031405894671], [4.611082486667499, 7.40861647796811], [4.605008389125885, 7.398969331669377], [4.608503658217273, 7.392527655127253], [4.621847122446809, 7.390331316437141], [4.618677481680493, 7.385336033930855], [4.60758656826556, 7.384675188709025], [4.60618268608215, 7.387839872412258], [4.590647085694513, 7.385451255071416], [4.623477956642432, 7.321492506274183], [4.606284967777071, 7.308133996386857], [4.593807200841695, 7.303718412374906], [4.598883178615836, 7.287070955859974], [4.596003890267355, 7.276847711952371], [4.595468255855394, 7.273568021147298], [4.567278782389963, 7.270474359604066], [4.54410603216769, 7.288814368987971], [4.543863547964406, 7.292863638446192], [4.550359583128284, 7.308373427391814], [4.546520785605821, 7.317050886888978], [4.550397092052208, 7.318505936000179], [4.512861173204612, 7.353445890715307], [4.497547121702326, 7.345073307687073], [4.495624318107843, 7.32317553172544], [4.490463581928793, 7.314007763647396], [4.489916947908853, 7.29624032203327], [4.493900505703834, 7.294120122645609], [4.494653873177754, 7.269484215024534], [4.518738339902541, 7.249763992714122], [4.516820503263659, 7.248102337852686], [4.513440718814195, 7.246048315077701], [4.480305493004153, 7.247941573245043], [4.470135363056613, 7.248514810110464], [4.452024133107329, 7.234633795912998], [4.446818786058202, 7.228759532226661], [4.432889015116018, 7.195955847784205], [4.42391833616233, 7.190768351378381]]]}}, {"type": "Feature", "properties": {"name": "Egbedore", "state": "os"}, "geometry": {"type": "Polygon", "coordinates": [[[4.397185326441729, 7.896511077024627], [4.396041393295718, 7.891174315642218], [4.394135473573272, 7.883931159695294], [4.374312401196391, 7.851909637220047], [4.371104130051606, 7.848700920910801], [4.369127912123474, 7.846330706397055], [4.364996729715358, 7.845702486780397], [4.356223341334157, 7.845477307331919], [4.325954611016527, 7.806443439013549], [4.336013523605288, 7.7872671437637], [4.33722954910445, 7.784494613036031], [4.33531023577882, 7.779203250329772], [4.341573202641257, 7.75289128160739], [4.341695788330014, 7.752685249624619], [4.340557189063077, 7.746778529405674], [4.339288498365534, 7.735729864341806], [4.337527032246783, 7.724752196256873], [4.320443446807644, 7.70106193565988], [4.322785668124141, 7.684019190233471], [4.322817020289278, 7.683587946426655], [4.330489050329447, 7.675876776092366], [4.337130368271914, 7.668445054795484], [4.338734324429595, 7.668527513633876], [4.348313755375557, 7.675074428841867], [4.382129009845983, 7.700634537354063], [4.38955462744417, 7.701470725193872], [4.392610232376398, 7.706094225268316], [4.395221002047663, 7.730365485678647], [4.393702087581346, 7.732702277787951], [4.391064698876789, 7.740708709039723], [4.402126603759825, 7.748751052918806], [4.407593694893137, 7.751448054084449], [4.417220142395706, 7.770480484786617], [4.422621439128136, 7.767183314758199], [4.426777658662047, 7.760254998869129], [4.431753151586747, 7.767694323933938], [4.437426155992341, 7.769604731273375], [4.443155235825543, 7.772769695565046], [4.450102630831793, 7.775756662440074], [4.453379111057188, 7.774430588700739], [4.455745370352588, 7.753552932621801], [4.475845621878022, 7.746232835177238], [4.48112405503116, 7.746019488108914], [4.485426894635509, 7.755263175155449], [4.500738714020486, 7.763631671664371], [4.500903543563709, 7.76402943730875], [4.503028899664059, 7.766021003966216], [4.502662996100412, 7.771417313058578], [4.504349386814795, 7.773255674809604], [4.505145026921525, 7.774075737805106], [4.506076592360898, 7.774675823030861], [4.517193581618528, 7.77613229307093], [4.523098512186664, 7.770745659784438], [4.524580377282632, 7.770899755019741], [4.532276464187532, 7.774971948196878], [4.526331225105992, 7.785691028817951], [4.526238405178333, 7.788373247827167], [4.526335417745372, 7.791382961254726], [4.526558901971782, 7.794338495924876], [4.534425345653233, 7.795299294726703], [4.536806458151545, 7.795331878063791], [4.533594132863016, 7.806490809003662], [4.545829786115803, 7.808940176448061], [4.549640085021963, 7.820117978761743], [4.548004505103847, 7.827571174070499], [4.549318570195908, 7.831621403105316], [4.537358463822102, 7.855666861736324], [4.535564680565585, 7.860060433042577], [4.520212784692319, 7.856119793593621], [4.514199428261065, 7.846876041795952], [4.511682832896497, 7.839318216662434], [4.506244790764526, 7.838770337980748], [4.502734654980372, 7.836395968599106], [4.500835967605894, 7.834431683775222], [4.502154872849133, 7.831295279253766], [4.486047067118477, 7.827016231214145], [4.479235062348323, 7.837353823919898], [4.472621316720449, 7.827021414007106], [4.455290795433882, 7.828035267413725], [4.437010991164357, 7.852987386558709], [4.448671609806979, 7.868722032995493], [4.45099465667812, 7.876967634448818], [4.448068119747973, 7.883371919878243], [4.44764909502976, 7.884288892018787], [4.444471435008779, 7.88738361206407], [4.422485827658875, 7.888441086187242], [4.418135643245364, 7.890402316913423], [4.414721010965934, 7.894605160000197], [4.407477855918387, 7.898416994948434], [4.401092214334255, 7.898409028753747], [4.397185326441729, 7.896511077024627]]]}}, {"type": "Feature", "properties": {"name": "Oriade", "state": "os"}, "geometry": {"type": "Polygon", "coordinates": [[[5.006279945163385, 7.392001629071956], [5.004573458198593, 7.413932547748914], [4.998645382678319, 7.414803232683084], [4.99702024478853, 7.415041924445291], [4.98710870680145, 7.419235229322396], [4.984821319848095, 7.42647838616864], [4.952418804084573, 7.447825909238361], [4.947844028379279, 7.454688071897067], [4.920206069554524, 7.517206192212029], [4.9022479060161, 7.576392650800244], [4.883054733189454, 7.611391544384333], [4.868001460798837, 7.616283894086507], [4.865397160850364, 7.620308530214572], [4.86386156126207, 7.622681618062245], [4.887211030964352, 7.689585579111224], [4.828038352687884, 7.725211093317341], [4.824260445563141, 7.723906805654622], [4.823524954812854, 7.723513607666916], [4.801185940878497, 7.737191824742979], [4.786531852363169, 7.736636869296149], [4.769705695161747, 7.732938421770768], [4.772626848750122, 7.706516805006572], [4.746906818295088, 7.695712270804677], [4.747988296222957, 7.678936394698894], [4.764313701016533, 7.670073653276518], [4.779429195700857, 7.678030608325969], [4.795715778560407, 7.670043581745972], [4.784061415601911, 7.639679209428039], [4.791796807376784, 7.641765359583701], [4.792693619415047, 7.64175004412931], [4.791657199320355, 7.632794236364987], [4.797094227016999, 7.62944826732371], [4.809013069797402, 7.626327094619796], [4.813721950607601, 7.616519031727989], [4.815023057368251, 7.605743228167512], [4.817544572024417, 7.602942150260048], [4.813145552625201, 7.574644446983712], [4.836269805107463, 7.545408571848156], [4.843459706800104, 7.527982109986453], [4.837038865751083, 7.522087457769999], [4.849140868056679, 7.487865139564576], [4.851815371782038, 7.486196870189474], [4.849279582187023, 7.47539903233951], [4.838792320709103, 7.458071469822528], [4.84208528730619, 7.446588601282997], [4.8425679921192, 7.444952780346568], [4.842459889112661, 7.444151246982528], [4.838838462225283, 7.429579600218403], [4.838077646566205, 7.425827218551319], [4.837383985082909, 7.422225753915484], [4.827139712327892, 7.399952546972486], [4.845510591840366, 7.387918849974994], [4.847221090680819, 7.382574948874833], [4.846035191570877, 7.379520119158201], [4.844862303852267, 7.375388281144296], [4.878397465370767, 7.378827571934949], [4.943352222327235, 7.369954108795127], [4.989670277261553, 7.377597331751531], [5.006279945163385, 7.392001629071956]]]}}, {"type": "Feature", "properties": {"name": "Ife East", "state": "os"}, "geometry": {"type": "Polygon", "coordinates": [[[4.512861173204612, 7.353445890715307], [4.550397092052208, 7.318505936000179], [4.546520785605821, 7.317050886888978], [4.550359583128284, 7.308373427391814], [4.543863547964406, 7.292863638446192], [4.54410603216769, 7.288814368987971], [4.567278782389963, 7.270474359604066], [4.595468255855394, 7.273568021147298], [4.596003890267355, 7.276847711952371], [4.598883178615836, 7.287070955859974], [4.593807200841695, 7.303718412374906], [4.606284967777071, 7.308133996386857], [4.623477956642432, 7.321492506274183], [4.590647085694513, 7.385451255071416], [4.60618268608215, 7.387839872412258], [4.60758656826556, 7.384675188709025], [4.618677481680493, 7.385336033930855], [4.621847122446809, 7.390331316437141], [4.608503658217273, 7.392527655127253], [4.605008389125885, 7.398969331669377], [4.611082486667499, 7.40861647796811], [4.614565906291602, 7.41031405894671], [4.626008656973966, 7.408754700169311], [4.632572441664877, 7.396331908790614], [4.638420146572571, 7.400237859589595], [4.660055255745476, 7.41072205887599], [4.670220999699438, 7.404220000052987], [4.654337000152509, 7.434904000419351], [4.648828999758564, 7.436610999997697], [4.648487000174953, 7.438900000334797], [4.648203999714838, 7.440768000143123], [4.64573800020861, 7.445188000725693], [4.637964999685039, 7.444199872426225], [4.636945068660054, 7.447178410855031], [4.639692171056879, 7.466079190702146], [4.641622984912885, 7.472561899711934], [4.643241464222228, 7.473927520238931], [4.641920155990476, 7.479706326285964], [4.634643572243135, 7.492157023627783], [4.629246865650373, 7.497699924012352], [4.62638194397158, 7.501785071024244], [4.613548041908643, 7.5057143007744], [4.607365524799206, 7.492207165328466], [4.600077302025909, 7.490843989158805], [4.595328145977192, 7.488312599946596], [4.589034365643499, 7.492253322133138], [4.585227934721445, 7.487669448885981], [4.581702561723887, 7.489150836441979], [4.579712423189847, 7.49194563078629], [4.5705572941838, 7.489535322697009], [4.563724677851667, 7.483360305034125], [4.566941380140634, 7.478074245629955], [4.563984590916164, 7.470856142996638], [4.557424080656858, 7.470328759864401], [4.552507713660134, 7.473760795824091], [4.55224403873143, 7.474253683660606], [4.551639107059202, 7.476907236779596], [4.551446721389141, 7.478153816745305], [4.552661640722192, 7.478576718440877], [4.553637772964919, 7.479130932846317], [4.555145734588052, 7.47979997628795], [4.547790693985405, 7.48652402286541], [4.549990016625998, 7.493859547280351], [4.53962783105959, 7.498034124675144], [4.532007085758437, 7.489688915211332], [4.520211807129272, 7.496224330788266], [4.503869853910658, 7.496685993264009], [4.500698631236901, 7.496381166257891], [4.496476390672967, 7.495213552163762], [4.490117603744466, 7.493184702312192], [4.489150968342585, 7.482199600431272], [4.475570450016278, 7.475795523644535], [4.466242963242223, 7.458948940141511], [4.477160554815782, 7.455541328869288], [4.48799306512791, 7.451428096029872], [4.502991585893028, 7.439758262933537], [4.505148395781873, 7.436527990774209], [4.509343746616651, 7.416345026801594], [4.54492275867841, 7.420237515648864], [4.544795251899416, 7.41878955769198], [4.547517321667101, 7.413567528218891], [4.544048730964221, 7.392960034777843], [4.537252327632871, 7.385199944921567], [4.516833841108905, 7.37513847556022], [4.51643838582288, 7.368320510083549], [4.513129434675704, 7.358877971241441], [4.512861173204612, 7.353445890715307]]]}}, {"type": "Feature", "properties": {"name": "Boluwaduro", "state": "os"}, "geometry": {"type": "Polygon", "coordinates": [[[4.843560593646544, 7.863239260383637], [4.84512943307692, 7.874375353939456], [4.862790073902829, 7.883127256617627], [4.872227161054695, 7.883654164008533], [4.877260200697776, 7.890540386229873], [4.879863139971974, 7.897489730067036], [4.880444991443255, 7.908296239180117], [4.893586982353384, 7.93449505520266], [4.892488859773096, 7.937963299666592], [4.891204634186579, 7.940862784090257], [4.881947642569685, 7.944204532613128], [4.880064081792, 7.953805930399426], [4.879489653324868, 7.954970056922662], [4.867285380116243, 7.959630457079982], [4.861989374210282, 7.960773392877854], [4.846036873303092, 7.986576678071287], [4.845017904552719, 7.986536998183965], [4.826537966054332, 7.982892202413268], [4.813710352950466, 7.994807098968465], [4.809453000155884, 7.99680200031213], [4.807990000138432, 7.991987000399774], [4.805804000054593, 7.985110000726024], [4.804792000150712, 7.97959900019373], [4.783671000116613, 7.957376000601982], [4.775284989310876, 7.96831889010474], [4.76990042266641, 7.966609092735496], [4.769084502847591, 7.9654259779266], [4.744899741030281, 7.954339142037838], [4.747885489323949, 7.949765694631139], [4.752074953196598, 7.945102931055487], [4.752806292676325, 7.938226176896592], [4.7543850561255, 7.933209832268005], [4.751807602738722, 7.925746247091695], [4.745605966042547, 7.923023655717202], [4.744640608577299, 7.915628306601093], [4.74405602586495, 7.901270862160629], [4.744599964616725, 7.885211168360797], [4.762177598017786, 7.878433130984263], [4.770725988613549, 7.862333828343537], [4.795208280337931, 7.867890216760145], [4.803315503108024, 7.86613286863701], [4.815801759643534, 7.850288214429611], [4.843560593646544, 7.863239260383637]]]}}, {"type": "Feature", "properties": {"name": "Ilesha East", "state": "os"}, "geometry": {"type": "Polygon", "coordinates": [[[4.784061415601911, 7.639679209428039], [4.782866999912187, 7.636877000173456], [4.778976292621849, 7.637034880655278], [4.778375412395405, 7.635205588567089], [4.774847347726961, 7.636502505386375], [4.762896107769222, 7.621416203594947], [4.754077208296565, 7.620703636563633], [4.754048078356163, 7.624445651745475], [4.745867353095889, 7.623235738038943], [4.747144158376273, 7.617076392861293], [4.743058132726674, 7.616304044296271], [4.742049059216754, 7.609526104945814], [4.728373919620765, 7.6048498209625], [4.721480604446413, 7.593874083722028], [4.708309542951099, 7.587335959387076], [4.708858999942947, 7.586000000299805], [4.712570999352181, 7.583688000700704], [4.719062000111251, 7.571366999987106], [4.723597999747938, 7.538110000576125], [4.727703000193344, 7.535045000426464], [4.731145999788112, 7.534065000199632], [4.735887193239421, 7.534247953780095], [4.743610999947748, 7.53454600079732], [4.761722964643127, 7.552964625317259], [4.795323353090339, 7.558758039951613], [4.802432935431682, 7.565859859345096], [4.820941428304309, 7.567811080616934], [4.813145552625201, 7.574644446983712], [4.817544572024417, 7.602942150260048], [4.815023057368251, 7.605743228167512], [4.813721950607601, 7.616519031727989], [4.809013069797402, 7.626327094619796], [4.797094227016999, 7.62944826732371], [4.791657199320355, 7.632794236364987], [4.792693619415047, 7.64175004412931], [4.791796807376784, 7.641765359583701], [4.784061415601911, 7.639679209428039]]]}}, {"type": "Feature", "properties": {"name": "Ife Central", "state": "os"}, "geometry": {"type": "Polygon", "coordinates": [[[4.475570450016278, 7.475795523644535], [4.489150968342585, 7.482199600431272], [4.490117603744466, 7.493184702312192], [4.496476390672967, 7.495213552163762], [4.500698631236901, 7.496381166257891], [4.503869853910658, 7.496685993264009], [4.520211807129272, 7.496224330788266], [4.532007085758437, 7.489688915211332], [4.53962783105959, 7.498034124675144], [4.54729052433828, 7.4963364087983], [4.550358779134399, 7.492431219725063], [4.547790693985405, 7.48652402286541], [4.555145734588052, 7.47979997628795], [4.553637772964919, 7.479130932846317], [4.552661640722192, 7.478576718440877], [4.551446721389141, 7.478153816745305], [4.551639107059202, 7.476907236779596], [4.55224403873143, 7.474253683660606], [4.557952201233149, 7.470255147656985], [4.563984590916164, 7.470856142996638], [4.566941380140634, 7.478074245629955], [4.563724677851667, 7.483360305034125], [4.5705572941838, 7.489535322697009], [4.579712423189847, 7.49194563078629], [4.581702561723887, 7.489150836441979], [4.585227934721445, 7.487669448885981], [4.589034365643499, 7.492253322133138], [4.595328145977192, 7.488312599946596], [4.600077302025909, 7.490843989158805], [4.607365524799206, 7.492207165328466], [4.613548041908643, 7.5057143007744], [4.612826999666368, 7.507500727576542], [4.603545130103726, 7.519234256056109], [4.603446442998973, 7.519300992047192], [4.600772407820386, 7.519239943368746], [4.581467503222768, 7.551592169043431], [4.581990326792209, 7.5578818583611], [4.581495566567185, 7.564693355014356], [4.58509920936109, 7.571120594739682], [4.586061382326989, 7.573736790020916], [4.57759546495879, 7.57635816179976], [4.569034875059458, 7.581477575929455], [4.560871649706939, 7.590698330263763], [4.553406720044165, 7.592842742998243], [4.546088450921332, 7.595653885218667], [4.54557410975741, 7.595589446995405], [4.542412667210897, 7.598959347895629], [4.541700772872446, 7.599241519180794], [4.527190756648167, 7.613978601631231], [4.48414348563341, 7.581901855386377], [4.477364093877895, 7.565925865086626], [4.478025047917697, 7.562870964323565], [4.47821615025515, 7.56217912306812], [4.481247110166066, 7.55676042085679], [4.487830762679607, 7.555599822373949], [4.489352417380189, 7.533914290012547], [4.480267553304998, 7.525309151296369], [4.486156867145723, 7.519551455035696], [4.48926634776376, 7.514643772791942], [4.474160037855484, 7.504662427629], [4.471182535445678, 7.500396630200385], [4.468897173765583, 7.495523231012328], [4.468665222422146, 7.48747250185454], [4.473282572033099, 7.480529991066305], [4.475570450016278, 7.475795523644535]]]}}, {"type": "Feature", "properties": {"name": "Ola Oluwa", "state": "os"}, "geometry": {"type": "Polygon", "coordinates": [[[4.32956207143252, 7.63514709036599], [4.337130368271914, 7.668445054795484], [4.330489050329447, 7.675876776092366], [4.322817020289278, 7.683587946426655], [4.322785668124141, 7.684019190233471], [4.320443446807644, 7.70106193565988], [4.311268583078686, 7.71001196078339], [4.304938349625161, 7.737764520216501], [4.297676091178687, 7.743046944560888], [4.294912449350079, 7.75782143341246], [4.2930442561875, 7.759524963406363], [4.293668288560696, 7.763551500701226], [4.299250502808491, 7.784363621384045], [4.29261392609186, 7.789513075568038], [4.284805961725795, 7.784484397636902], [4.278617492903038, 7.783438340407145], [4.273997486694725, 7.787975397646505], [4.270714814637017, 7.793033395275017], [4.271438240082773, 7.799255721774216], [4.269285769422765, 7.805631980731391], [4.267583207998712, 7.808322166834557], [4.264541933763269, 7.812572340341262], [4.257498669228255, 7.81651195816039], [4.253417385703813, 7.825211368310022], [4.249910268943779, 7.830215634144224], [4.249871001845293, 7.835380821967419], [4.239674000155048, 7.812211000837067], [4.187300999641479, 7.811714000400855], [4.133719000031874, 7.793497000286379], [4.130432710900948, 7.817794896817077], [4.114840931663707, 7.814171984249697], [4.075077019788694, 7.820000628026605], [4.072491646072649, 7.808732985239146], [4.070925942578242, 7.801908569824661], [4.070667743621527, 7.800783157316914], [4.070833206287489, 7.759752273348795], [4.066016196390422, 7.754945278301989], [4.061259745940561, 7.754265783838889], [4.061783479623955, 7.750076281295378], [4.072918020949942, 7.752485646895138], [4.092895210145855, 7.757338151234762], [4.111462001570146, 7.747970848775708], [4.11802778365535, 7.745286500171915], [4.128782145579578, 7.738184219426216], [4.13303570233586, 7.740586029821486], [4.136919977674893, 7.74869577788786], [4.139130780161452, 7.750791217141], [4.143910408838337, 7.750839430695237], [4.15783608156994, 7.738333552751328], [4.157514941761178, 7.719697991069495], [4.17342646056278, 7.71659675903328], [4.173098089305427, 7.708952449695857], [4.180078508316569, 7.697135196132422], [4.189252067129246, 7.696220782563103], [4.189779416087219, 7.694613695865428], [4.206343696104739, 7.684294541060297], [4.203898914303522, 7.674038569924107], [4.210790831032057, 7.669415176868938], [4.213563410323161, 7.667571198851817], [4.22218748606366, 7.660867234135594], [4.225871094775243, 7.660565665373213], [4.232084669072265, 7.663197344282082], [4.241230730214056, 7.668116084589656], [4.244429276090273, 7.665799163000997], [4.244521490774218, 7.665482208637059], [4.244523430611878, 7.663302580249933], [4.247944763739895, 7.640800306089318], [4.268684000666155, 7.64792756910208], [4.273195759077055, 7.653159705156327], [4.285412531962834, 7.656150153306953], [4.290021797567931, 7.654504736604338], [4.291915139372236, 7.651867372181528], [4.29950916311742, 7.653678318099935], [4.301987924003527, 7.648149103598314], [4.293911993144036, 7.638588069184095], [4.305541765040459, 7.620481270194489], [4.32956207143252, 7.63514709036599]]]}}, {"type": "Feature", "properties": {"name": "Boripe", "state": "os"}, "geometry": {"type": "Polygon", "coordinates": [[[4.744599964616725, 7.885211168360797], [4.74405602586495, 7.901270862160629], [4.744640608577299, 7.915628306601093], [4.745605966042547, 7.923023655717202], [4.751807602738722, 7.925746247091695], [4.7543850561255, 7.933209832268005], [4.752806292676325, 7.938226176896592], [4.752074953196598, 7.945102931055487], [4.747885489323949, 7.949765694631139], [4.729850612715666, 7.950646936706789], [4.717108112349536, 7.954412078854432], [4.707304548765933, 7.950337539346037], [4.700162875016701, 7.949245235379351], [4.69155785411175, 7.947495731143135], [4.69370892542662, 7.930341093866446], [4.686352997193126, 7.923116029581138], [4.684080966163719, 7.92092887566713], [4.675667589887439, 7.917760315885914], [4.674660446322605, 7.914168732101359], [4.659171459595257, 7.909425900085296], [4.665520021232055, 7.904084743715998], [4.664971042679497, 7.897776122769926], [4.670822981595393, 7.895919303333244], [4.674633763437498, 7.888744948220847], [4.661001517905788, 7.875312333297586], [4.671853605559477, 7.859054704111372], [4.674044248843074, 7.859884459100556], [4.69327269218104, 7.852171865139496], [4.700352424225059, 7.838054538785968], [4.719029418572859, 7.837299718007614], [4.71923609986618, 7.838721608215678], [4.715864786131021, 7.853749772434071], [4.721019230653042, 7.859914157412504], [4.720218547148306, 7.865271008750085], [4.721394740774713, 7.874410335768403], [4.721026278639897, 7.877137323029103], [4.727852641985862, 7.87456800311088], [4.737218027090307, 7.879016208231462], [4.744599964616725, 7.885211168360797]]]}}, {"type": "Feature", "properties": {"name": "Ifelodun", "state": "os"}, "geometry": {"type": "Polygon", "coordinates": [[[4.671853605559477, 7.859054704111372], [4.661001517905788, 7.875312333297586], [4.674633763437498, 7.888744948220847], [4.670822981595393, 7.895919303333244], [4.664971042679497, 7.897776122769926], [4.665520021232055, 7.904084743715998], [4.659171459595257, 7.909425900085296], [4.674660446322605, 7.914168732101359], [4.675667589887439, 7.917760315885914], [4.684080966163719, 7.92092887566713], [4.686352997193126, 7.923116029581138], [4.69370892542662, 7.930341093866446], [4.69155785411175, 7.947495731143135], [4.700162875016701, 7.949245235379351], [4.707304548765933, 7.950337539346037], [4.717108112349536, 7.954412078854432], [4.729850612715666, 7.950646936706789], [4.747885489323949, 7.949765694631139], [4.744899741030281, 7.954339142037838], [4.769084502847591, 7.9654259779266], [4.76990042266641, 7.966609092735496], [4.775284989310876, 7.96831889010474], [4.761188110842681, 8.01614899138292], [4.758209763969489, 8.01522120939137], [4.750785888358109, 8.012047042337201], [4.741450365242201, 7.996650051758536], [4.717057744019712, 8.006681731976414], [4.700816227087273, 8.006884319555752], [4.694598954777973, 7.974153026041392], [4.688147468430998, 7.965940454888141], [4.682444335837488, 7.963409611564373], [4.645760764747536, 7.958288665889256], [4.636887862784704, 7.960846837811346], [4.632677254951375, 7.960801228693811], [4.621762811004999, 7.967468557727784], [4.616992029858352, 7.969493877740319], [4.61194509838765, 7.967947045619724], [4.598337289234564, 7.977006223258627], [4.594057886862061, 7.977068546276428], [4.579649136098794, 7.97201067005642], [4.575949396247665, 7.967380568058843], [4.576766779263494, 7.964056010976151], [4.56746650777319, 7.943577384089053], [4.568711283698804, 7.937773608365376], [4.582693750416297, 7.927944731564139], [4.591618106190708, 7.924870084386953], [4.599979584390383, 7.923663628573649], [4.609580948002417, 7.924365286828561], [4.619866638134908, 7.917909474742487], [4.623166650020949, 7.912996534162744], [4.623697333665064, 7.911271840423126], [4.623650601294287, 7.911163344412842], [4.604034760595766, 7.88774186959165], [4.612616121237068, 7.873950230918467], [4.613945115075069, 7.872750619845306], [4.623504117021412, 7.855743969608568], [4.630312693576002, 7.85754830101331], [4.634077670248359, 7.861048242982065], [4.648223763216151, 7.842762193820249], [4.664004802080001, 7.841098897696043], [4.671853605559477, 7.859054704111372]]]}}, {"type": "Feature", "properties": {"name": "Orolu", "state": "os"}, "geometry": {"type": "Polygon", "coordinates": [[[4.428970964838186, 7.889347074907619], [4.43248520512816, 7.886127725913866], [4.444471435008779, 7.88738361206407], [4.44764909502976, 7.884288892018787], [4.448068119747973, 7.883371919878243], [4.45099465667812, 7.876967634448818], [4.448671609806979, 7.868722032995493], [4.437010991164357, 7.852987386558709], [4.438088398760669, 7.84847744028167], [4.442141885139961, 7.845782825916729], [4.444809035108904, 7.843565696699613], [4.455290795433882, 7.828035267413725], [4.472621316720449, 7.827021414007106], [4.475352555975746, 7.828149269972869], [4.475740213240272, 7.834895459657787], [4.481804009947155, 7.841231455067657], [4.483343449640529, 7.868751413846724], [4.496407688763895, 7.880549690815656], [4.496821599936936, 7.897511255340191], [4.523559173716933, 7.93469339618332], [4.525378804388367, 7.940675333899605], [4.522222518554429, 7.955598829622318], [4.511929512437121, 7.953692912597887], [4.506592751054654, 7.95178651803343], [4.501255511232898, 7.947212218968787], [4.495918750749809, 7.943399905581202], [4.45817899696317, 7.941493987657452], [4.44979238361168, 7.938063144198793], [4.447654981991889, 7.935620453321292], [4.443627230612265, 7.931017411924074], [4.44178676624631, 7.928914069428799], [4.440643310640326, 7.917096615316609], [4.439118385105417, 7.906422615011707], [4.435687541646757, 7.898036001660216], [4.435033796572498, 7.895421980939716], [4.433019161405241, 7.891555308930435], [4.428970964838186, 7.889347074907619]]]}}, {"type": "Feature", "properties": {"name": "Osogbo", "state": "os"}, "geometry": {"type": "Polygon", "coordinates": [[[4.606645449328084, 7.787261279284678], [4.605003407781112, 7.785827745554059], [4.597379620073468, 7.793142987558895], [4.583468437218642, 7.793385908832647], [4.580660360787078, 7.791518088888722], [4.577720439246946, 7.790055312802508], [4.574554590921707, 7.794518871149023], [4.573046465621928, 7.795485770951643], [4.56864844626881, 7.797173177899879], [4.563228183733713, 7.798417542835409], [4.526558901971782, 7.794338495924876], [4.526335417745372, 7.791382961254726], [4.526238405178333, 7.788373247827167], [4.526331225105992, 7.785691028817951], [4.532276464187532, 7.774971948196878], [4.524580377282632, 7.770899755019741], [4.523098512186664, 7.770745659784438], [4.517193581618528, 7.77613229307093], [4.506076592360898, 7.774675823030861], [4.505145026921525, 7.774075737805106], [4.504349386814795, 7.773255674809604], [4.502662996100412, 7.771417313058578], [4.503028899664059, 7.766021003966216], [4.500903543563709, 7.76402943730875], [4.500738714020486, 7.763631671664371], [4.485426894635509, 7.755263175155449], [4.48112405503116, 7.746019488108914], [4.515107325342854, 7.721271330707395], [4.536063372626586, 7.714423251431981], [4.554772652635847, 7.708309375976967], [4.55779666078729, 7.714015788397944], [4.578119946878076, 7.714567925369522], [4.590334652222452, 7.722003173807479], [4.596954740768695, 7.727166885843133], [4.599747981084533, 7.729978085620189], [4.60040946662366, 7.732370543965487], [4.600744285120697, 7.733870775016328], [4.601096687162453, 7.735965641401265], [4.587731464735384, 7.74051057130589], [4.588128715068194, 7.741022660567353], [4.589236833613029, 7.742880266910845], [4.59077465362742, 7.74501103243324], [4.596891229746518, 7.745346100941845], [4.599605148958517, 7.751096424560387], [4.596685650122708, 7.755050322714283], [4.610299643014173, 7.752269564988467], [4.606314149878187, 7.766778985861549], [4.608996024447038, 7.774333119278083], [4.606645449328084, 7.787261279284678]]]}}, {"type": "Feature", "properties": {"name": "Iwo", "state": "os"}, "geometry": {"type": "Polygon", "coordinates": [[[4.247944763739895, 7.640800306089318], [4.244523430611878, 7.663302580249933], [4.244521490774218, 7.665482208637059], [4.244429276090273, 7.665799163000997], [4.241230730214056, 7.668116084589656], [4.232084669072265, 7.663197344282082], [4.225871094775243, 7.660565665373213], [4.22218748606366, 7.660867234135594], [4.213563410323161, 7.667571198851817], [4.210790831032057, 7.669415176868938], [4.203898914303522, 7.674038569924107], [4.206343696104739, 7.684294541060297], [4.189779416087219, 7.694613695865428], [4.189252067129246, 7.696220782563103], [4.180078508316569, 7.697135196132422], [4.173098089305427, 7.708952449695857], [4.17342646056278, 7.71659675903328], [4.157514941761178, 7.719697991069495], [4.15783608156994, 7.738333552751328], [4.143910408838337, 7.750839430695237], [4.139130780161452, 7.750791217141], [4.136919977674893, 7.74869577788786], [4.13303570233586, 7.740586029821486], [4.128782145579578, 7.738184219426216], [4.11802778365535, 7.745286500171915], [4.111462001570146, 7.747970848775708], [4.092895210145855, 7.757338151234762], [4.072918020949942, 7.752485646895138], [4.061783479623955, 7.750076281295378], [4.06193924040366, 7.748830317365275], [4.069413184870655, 7.740676401794531], [4.074169636219779, 7.735920428884754], [4.074849127984919, 7.7291259761829], [4.076208114213159, 7.718933580820135], [4.07824659310586, 7.708062172131577], [4.075528622448019, 7.688357829150561], [4.074169636219779, 7.681563377348027], [4.057183264795867, 7.679524897556007], [4.052928923830791, 7.674966810569913], [4.068733691306875, 7.665935514612386], [4.093373298738811, 7.621484278676576], [4.110181331003673, 7.612257956639439], [4.121732234155331, 7.610219477746739], [4.138718604679923, 7.598668574595081], [4.141589255040117, 7.593246460355886], [4.144939733282115, 7.596887494262489], [4.151907549194107, 7.599885562368854], [4.158419496962267, 7.604399203960156], [4.170041869236911, 7.598394514295421], [4.175666275178514, 7.602674487737488], [4.176655699401067, 7.605749672709294], [4.176970604210055, 7.610176321979736], [4.181192845673365, 7.609268090350156], [4.183025297079837, 7.608169769019696], [4.186461266674144, 7.617909243317001], [4.212934908319426, 7.609939263386366], [4.218738714620031, 7.621213695155973], [4.222867620844056, 7.62936625544836], [4.231613732787594, 7.640859344782996], [4.237382183141278, 7.639668780889565], [4.247944763739895, 7.640800306089318]]]}}, {"type": "Feature", "properties": {"name": "Odo Otin", "state": "os"}, "geometry": {"type": "Polygon", "coordinates": [[[4.568998335604761, 8.05475616466532], [4.560724734658834, 8.053951263340196], [4.559199810023244, 8.048995017705977], [4.560343264729909, 8.041371346010862], [4.563011644971482, 8.034128189164619], [4.563011644971482, 8.00896835270737], [4.561391019879693, 8.000972671951274], [4.557293891200175, 7.980758666978943], [4.553082568405841, 7.975284208599419], [4.559595669104908, 7.973229907034636], [4.567524927733302, 7.969457355372697], [4.576766779263494, 7.964056010976151], [4.575949396247665, 7.967380568058843], [4.579649136098794, 7.97201067005642], [4.594057886862061, 7.977068546276428], [4.598337289234564, 7.977006223258627], [4.61194509838765, 7.967947045619724], [4.616992029858352, 7.969493877740319], [4.621762811004999, 7.967468557727784], [4.632677254951375, 7.960801228693811], [4.636887862784704, 7.960846837811346], [4.645760764747536, 7.958288665889256], [4.682444335837488, 7.963409611564373], [4.688147468430998, 7.965940454888141], [4.694598954777973, 7.974153026041392], [4.700816227087273, 8.006884319555752], [4.717057744019712, 8.006681731976414], [4.741450365242201, 7.996650051758536], [4.750785888358109, 8.012047042337201], [4.758209763969489, 8.01522120939137], [4.761188110842681, 8.01614899138292], [4.775475347009717, 7.967271927257684], [4.783671000116613, 7.957376000601982], [4.804792000150712, 7.97959900019373], [4.811078000449413, 8.01175100080809], [4.806973000004007, 8.014586000243753], [4.806352909359305, 8.017491039779713], [4.80940051392264, 8.042394457038597], [4.808808985746168, 8.061739966026664], [4.805271149044358, 8.063862801327275], [4.799294949002729, 8.065057754811562], [4.795029421370771, 8.065749470161961], [4.785638809383613, 8.068437576133306], [4.721214293604817, 8.064244270356824], [4.711684226445925, 8.05966949465153], [4.70558834102917, 8.051510810875243], [4.704441069599739, 8.048233031129541], [4.687286376565055, 8.057001112611317], [4.675087928265327, 8.049757955765074], [4.673563002730418, 8.045946120816893], [4.665557383566465, 8.043276787293962], [4.659458159866233, 8.045564650887968], [4.653358936166001, 8.050519943240829], [4.648403167172489, 8.05356979431059], [4.642684935861155, 8.053188324381722], [4.637353216078111, 8.053585696123037], [4.632392404585858, 8.061194420186382], [4.634137629847771, 8.06817627001891], [4.633916854379379, 8.071486473022333], [4.62896108628513, 8.07453632409215], [4.621718406978971, 8.075679778798815], [4.598083019415867, 8.063862801327275], [4.568998335604761, 8.05475616466532]]]}}, {"type": "Feature", "properties": {"name": "Ilesha West", "state": "os"}, "geometry": {"type": "Polygon", "coordinates": [[[4.66289489118634, 7.688552672667754], [4.653728999993405, 7.682384000621198], [4.6690470004188, 7.658836000181338], [4.667297606799139, 7.657544840821799], [4.666932000011855, 7.657275000141169], [4.664828000112152, 7.655468000447911], [4.662982000419049, 7.655499000078862], [4.659986999900184, 7.655780000446725], [4.655143999595964, 7.655862000630862], [4.66052622980169, 7.638770843799477], [4.662181998600431, 7.634545000551384], [4.681296999656865, 7.618322000659873], [4.677963571661564, 7.615190331068959], [4.678935379963889, 7.612851564947789], [4.68007536778407, 7.612338014287957], [4.684941638046212, 7.605875402427955], [4.692055892365602, 7.602694893354681], [4.704391677933643, 7.595326880930884], [4.708309542951099, 7.587335959387076], [4.721480604446413, 7.593874083722028], [4.728373919620765, 7.6048498209625], [4.742049059216754, 7.609526104945814], [4.743058132726674, 7.616304044296271], [4.747144158376273, 7.617076392861293], [4.745867353095889, 7.623235738038943], [4.754048078356163, 7.624445651745475], [4.754077208296565, 7.620703636563633], [4.762896107769222, 7.621416203594947], [4.774847347726961, 7.636502505386375], [4.778375412395405, 7.635205588567089], [4.778976292621849, 7.637034880655278], [4.782866999912187, 7.636877000173456], [4.795715778560407, 7.670043581745972], [4.779429195700857, 7.678030608325969], [4.764313701016533, 7.670073653276518], [4.747988296222957, 7.678936394698894], [4.741779274294117, 7.674336257212531], [4.734838608015423, 7.670716694619784], [4.7346295848875, 7.670653862585766], [4.728804213743501, 7.674364783707858], [4.717695974889352, 7.675625123300847], [4.712232080845922, 7.67145696616609], [4.697284014745549, 7.682309832632711], [4.66289489118634, 7.688552672667754]]]}}, {"type": "Feature", "properties": {"name": "Irepodun", "state": "os"}, "geometry": {"type": "Polygon", "coordinates": [[[4.522222518554429, 7.955598829622318], [4.525378804388367, 7.940675333899605], [4.523559173716933, 7.93469339618332], [4.496821599936936, 7.897511255340191], [4.496407688763895, 7.880549690815656], [4.4827837592631, 7.867445614423616], [4.48466218671058, 7.863480552085832], [4.481364847609655, 7.857570987311249], [4.482181882587838, 7.843962512659857], [4.479235062348323, 7.837353823919898], [4.486047067118477, 7.827016231214145], [4.502154872849133, 7.831295279253766], [4.500835967605894, 7.834431683775222], [4.502734654980372, 7.836395968599106], [4.506244790764526, 7.838770337980748], [4.511682832896497, 7.839318216662434], [4.514199428261065, 7.846876041795952], [4.520212784692319, 7.856119793593621], [4.535564680565585, 7.860060433042577], [4.533351741289891, 7.866458176803462], [4.532746840194591, 7.871032396727799], [4.532550388689515, 7.871528745155501], [4.537847664438232, 7.88208545857708], [4.544805069798201, 7.886109409421749], [4.556267263823202, 7.908018579793691], [4.558800290700901, 7.909700821036097], [4.559611363173929, 7.910605701791781], [4.567635601002223, 7.911178357695121], [4.563428362029356, 7.918375702176945], [4.563951176605542, 7.92367072872122], [4.566594982872232, 7.929241293151222], [4.569160683019163, 7.932419203183713], [4.568711283698804, 7.937773608365376], [4.56746650777319, 7.943577384089053], [4.576766779263494, 7.964056010976151], [4.567524927733302, 7.969457355372697], [4.559595669104908, 7.973229907034636], [4.553082568405841, 7.975284208599419], [4.549669266223702, 7.970847129891183], [4.54268836877327, 7.966130256805968], [4.535564899100848, 7.961317060933652], [4.529846667789514, 7.958866118776427], [4.525915145667511, 7.95718145296172], [4.522222518554429, 7.955598829622318]]]}}, {"type": "Feature", "properties": {"name": "Ejigbo", "state": "os"}, "geometry": {"type": "Polygon", "coordinates": [[[4.371104130051606, 7.848700920910801], [4.370429955977727, 7.848506382263793], [4.367285250713792, 7.849197864689756], [4.365925787844901, 7.851528168190441], [4.365925787844901, 7.858008861819542], [4.363257406704008, 7.872113704683784], [4.360207557432886, 7.88278770408931], [4.328186034957582, 7.935013293129032], [4.315987109117827, 7.943018913192361], [4.307110785234613, 7.944463729817301], [4.276341437407439, 7.971228599820051], [4.269759890206842, 7.970547563919013], [4.265286445613015, 7.970084666674097], [4.250800132819904, 7.965510367609454], [4.235551834349735, 7.95636129373878], [4.234789370233273, 7.95026159339784], [4.234408378743751, 7.942637443263436], [4.234026908814826, 7.931201458180794], [4.198193072052675, 7.916334151200147], [4.191331386933996, 7.910234449959944], [4.202767847758025, 7.868682860325805], [4.174176693000049, 7.86105871199004], [4.147110938618994, 7.849622249367371], [4.134055254746272, 7.849014982155722], [4.130718707002757, 7.848859787049605], [4.116613865037891, 7.849240780337766], [4.108989715802807, 7.856102942097152], [4.099078177815727, 7.863727093130876], [4.093563924435614, 7.863616561954814], [4.090223508707993, 7.860140759588433], [4.090156254707438, 7.860070779742728], [4.09114646763544, 7.850165842779461], [4.090434432103393, 7.848962986053039], [4.076208114213159, 7.824930189876397], [4.075077019788694, 7.820000628026605], [4.114840931663707, 7.814171984249697], [4.130432710900948, 7.817794896817077], [4.133719000031874, 7.793497000286379], [4.187300999641479, 7.811714000400855], [4.239674000155048, 7.812211000837067], [4.249871001845293, 7.835380821967419], [4.249910268943779, 7.830215634144224], [4.253417385703813, 7.825211368310022], [4.257498669228255, 7.81651195816039], [4.264541933763269, 7.812572340341262], [4.267583207998712, 7.808322166834557], [4.269285769422765, 7.805631980731391], [4.271438240082773, 7.799255721774216], [4.270714814637017, 7.793033395275017], [4.273997486694725, 7.787975397646505], [4.278617492903038, 7.783438340407145], [4.284805961725795, 7.784484397636902], [4.29261392609186, 7.789513075568038], [4.299250502808491, 7.784363621384045], [4.293668288560696, 7.763551500701226], [4.2930442561875, 7.759524963406363], [4.294912449350079, 7.75782143341246], [4.297676091178687, 7.743046944560888], [4.304938349625161, 7.737764520216501], [4.311268583078686, 7.71001196078339], [4.320443446807644, 7.70106193565988], [4.337527032246783, 7.724752196256873], [4.339288498365534, 7.735729864341806], [4.340557189063077, 7.746778529405674], [4.341695788330014, 7.752685249624619], [4.341573202641257, 7.75289128160739], [4.33531023577882, 7.779203250329772], [4.33722954910445, 7.784494613036031], [4.336013523605288, 7.7872671437637], [4.325954611016527, 7.806443439013549], [4.356223341334157, 7.845477307331919], [4.364996729715358, 7.845702486780397], [4.369127912123474, 7.846330706397055], [4.371104130051606, 7.848700920910801]]]}}, {"type": "Feature", "properties": {"name": "Olorunda", "state": "os"}, "geometry": {"type": "Polygon", "coordinates": [[[4.664004802080001, 7.841098897696043], [4.648223763216151, 7.842762193820249], [4.634077670248359, 7.861048242982065], [4.630312693576002, 7.85754830101331], [4.623504117021412, 7.855743969608568], [4.613945115075069, 7.872750619845306], [4.612616121237068, 7.873950230918467], [4.604034760595766, 7.88774186959165], [4.623650601294287, 7.911163344412842], [4.623697333665064, 7.911271840423126], [4.623166650020949, 7.912996534162744], [4.619866638134908, 7.917909474742487], [4.609580948002417, 7.924365286828561], [4.599979584390383, 7.923663628573649], [4.591618106190708, 7.924870084386953], [4.582693750416297, 7.927944731564139], [4.568711283698804, 7.937773608365376], [4.563428362029356, 7.918375702176945], [4.567635601002223, 7.911178357695121], [4.559611363173929, 7.910605701791781], [4.558800290700901, 7.909700821036097], [4.556267263823202, 7.908018579793691], [4.544805069798201, 7.886109409421749], [4.537847664438232, 7.88208545857708], [4.532550388689515, 7.871528745155501], [4.549318570195908, 7.831621403105316], [4.548004505103847, 7.827571174070499], [4.549640085021963, 7.820117978761743], [4.545829786115803, 7.808940176448061], [4.539034299193588, 7.80723445930289], [4.538758800877986, 7.807615371652105], [4.53765101778032, 7.809107149075714], [4.532486642944264, 7.803696947256356], [4.534077495979716, 7.800583016792814], [4.535731309652249, 7.797446822712743], [4.536806458151545, 7.795331878063791], [4.563228183733713, 7.798417542835409], [4.56864844626881, 7.797173177899879], [4.573046465621928, 7.795485770951643], [4.574554590921707, 7.794518871149023], [4.577720439246946, 7.790055312802508], [4.580660360787078, 7.791518088888722], [4.583468437218642, 7.793385908832647], [4.597379620073468, 7.793142987558895], [4.605003407781112, 7.785827745554059], [4.606645449328084, 7.787261279284678], [4.60973727715367, 7.789909948185596], [4.637149195878749, 7.797497931184637], [4.64066010597918, 7.790959405752005], [4.66016372927271, 7.784391492273585], [4.660165875954476, 7.790750397013255], [4.663083862130577, 7.800716387151567], [4.660446477023356, 7.815847018325258], [4.667639883373965, 7.829495448056548], [4.664004802080001, 7.841098897696043]]]}}, {"type": "Feature", "properties": {"name": "Ede North", "state": "os"}, "geometry": {"type": "Polygon", "coordinates": [[[4.539893427839445, 7.657129932300563], [4.552416849757833, 7.656637425776637], [4.563606386425647, 7.668369911941909], [4.563791124261002, 7.669693213071355], [4.563281320176827, 7.67341663926652], [4.568389117763616, 7.683364954129388], [4.575836355963133, 7.691986259058638], [4.579916018009897, 7.700152444979381], [4.578119946878076, 7.714567925369522], [4.55779666078729, 7.714015788397944], [4.554772652635847, 7.708309375976967], [4.536063372626586, 7.714423251431981], [4.515107325342854, 7.721271330707395], [4.48112405503116, 7.746019488108914], [4.475845621878022, 7.746232835177238], [4.455745370352588, 7.753552932621801], [4.453379111057188, 7.774430588700739], [4.450102630831793, 7.775756662440074], [4.443155235825543, 7.772769695565046], [4.437426155992341, 7.769604731273375], [4.431753151586747, 7.767694323933938], [4.426777658662047, 7.760254998869129], [4.422621439128136, 7.767183314758199], [4.417220142395706, 7.770480484786617], [4.407593694893137, 7.751448054084449], [4.402126603759825, 7.748751052918806], [4.391064698876789, 7.740708709039723], [4.393702087581346, 7.732702277787951], [4.395221002047663, 7.730365485678647], [4.399176229399529, 7.732773122781452], [4.428952732882351, 7.722519811839902], [4.430900640152458, 7.722511535379113], [4.43539378799295, 7.724050190863693], [4.441579379884502, 7.725438217999397], [4.446767413185626, 7.711929139118524], [4.468816027038088, 7.698509657894419], [4.472031232855159, 7.695057002278872], [4.475711320720904, 7.689997521668317], [4.482310125012305, 7.691762202863401], [4.489276993938176, 7.694606084003624], [4.489367783196712, 7.694624011089275], [4.495666089818258, 7.694821200038405], [4.499336128659479, 7.693336947242358], [4.501602227760657, 7.692106794293181], [4.506822004432024, 7.687182320807494], [4.508853387673753, 7.685433367855694], [4.511965736229797, 7.682709860971329], [4.518908062657033, 7.680965013424668], [4.539893427839445, 7.657129932300563]]]}}, {"type": "Feature", "properties": {"name": "Atakunmosa West", "state": "os"}, "geometry": {"type": "Polygon", "coordinates": [[[4.527190756648167, 7.613978601631231], [4.541700772872446, 7.599241519180794], [4.542412667210897, 7.598959347895629], [4.54557410975741, 7.595589446995405], [4.546088450921332, 7.595653885218667], [4.553406720044165, 7.592842742998243], [4.560871649706939, 7.590698330263763], [4.569034875059458, 7.581477575929455], [4.57759546495879, 7.57635816179976], [4.586061382326989, 7.573736790020916], [4.58509920936109, 7.571120594739682], [4.581495566567185, 7.564693355014356], [4.581990326792209, 7.5578818583611], [4.581467503222768, 7.551592169043431], [4.586453811394335, 7.542602405576588], [4.58720362744549, 7.542571360979593], [4.591599876033513, 7.538231791264195], [4.600772407820386, 7.519239943368746], [4.603446442998973, 7.519300992047192], [4.603545130103726, 7.519234256056109], [4.612826999666368, 7.507500727576542], [4.613548041908643, 7.5057143007744], [4.62638194397158, 7.501785071024244], [4.629246865650373, 7.497699924012352], [4.634643572243135, 7.492157023627783], [4.641920155990476, 7.479706326285964], [4.637964999685039, 7.444199872426225], [4.64573800020861, 7.445188000725693], [4.6494049993413, 7.443743000639017], [4.6512629995878, 7.444404001443559], [4.65296299974267, 7.449673000708458], [4.653682999670764, 7.451505000655288], [4.651275315803218, 7.456778330155885], [4.673736476557224, 7.467821816024014], [4.674785358557472, 7.467381945920124], [4.676109105750697, 7.466803503778749], [4.677887569955431, 7.465980028755382], [4.678738380771676, 7.467774886701704], [4.679788639634069, 7.471031330931226], [4.691735571839217, 7.464377593351287], [4.695005742421131, 7.465577333027568], [4.696023635582378, 7.466114300234835], [4.697055195740745, 7.46680716042215], [4.708714554433186, 7.465260509964594], [4.708632502088335, 7.478914530781026], [4.708799464823471, 7.477802478601575], [4.709332529872427, 7.487709984927903], [4.716602025163354, 7.504365532643249], [4.765719248744404, 7.504206941697078], [4.778482000044335, 7.52266500058937], [4.782384000121567, 7.53573300067751], [4.782542999359976, 7.556979000180775], [4.774164999715026, 7.555227000325829], [4.770215000122221, 7.553451000263522], [4.761722964643127, 7.552964625317259], [4.743610999947748, 7.53454600079732], [4.735887193239421, 7.534247953780095], [4.731145999788112, 7.534065000199632], [4.727703000193344, 7.535045000426464], [4.723597999747938, 7.538110000576125], [4.721011000057672, 7.563500001423961], [4.719062000111251, 7.571366999987106], [4.712570999352181, 7.583688000700704], [4.708858999942947, 7.586000000299805], [4.708309542951099, 7.587335959387076], [4.704391677933643, 7.595326880930884], [4.692055892365602, 7.602694893354681], [4.684941638046212, 7.605875402427955], [4.68007536778407, 7.612338014287957], [4.678935379963889, 7.612851564947789], [4.677963571661564, 7.615190331068959], [4.681296999656865, 7.618322000659873], [4.66052622980169, 7.638770843799477], [4.655143999595964, 7.655862000630862], [4.659986999900184, 7.655780000446725], [4.662982000419049, 7.655499000078862], [4.664828000112152, 7.655468000447911], [4.666932000011855, 7.657275000141169], [4.667297606799139, 7.657544840821799], [4.6690470004188, 7.658836000181338], [4.653728999993405, 7.682384000621198], [4.66289489118634, 7.688552672667754], [4.650271345945896, 7.700090309919915], [4.645401612394551, 7.703239931777489], [4.640689642413122, 7.708786416859709], [4.636305862025949, 7.706928509243369], [4.646277479222363, 7.73654159871586], [4.636391854300712, 7.7425057379495], [4.635025845266568, 7.742378395746414], [4.62300614711603, 7.743950355824325], [4.616306733868726, 7.743830398853845], [4.61405224141788, 7.746046993873733], [4.610299643014173, 7.752269564988467], [4.596685650122708, 7.755050322714283], [4.599605148958517, 7.751096424560387], [4.596891229746518, 7.745346100941845], [4.59077465362742, 7.74501103243324], [4.589236833613029, 7.742880266910845], [4.588128715068194, 7.741022660567353], [4.587731464735384, 7.74051057130589], [4.601096687162453, 7.735965641401265], [4.600744285120697, 7.733870775016328], [4.60040946662366, 7.732370543965487], [4.599747981084533, 7.729978085620189], [4.596954740768695, 7.727166885843133], [4.590334652222452, 7.722003173807479], [4.578119946878076, 7.714567925369522], [4.579916018009897, 7.700152444979381], [4.575836355963133, 7.691986259058638], [4.568389117763616, 7.683364954129388], [4.563281320176827, 7.67341663926652], [4.563791124261002, 7.669693213071355], [4.563606386425647, 7.668369911941909], [4.552416849757833, 7.656637425776637], [4.539893427839445, 7.657129932300563], [4.536077781564416, 7.645872795393245], [4.533798203424396, 7.641434515190781], [4.53469833036371, 7.624565257980294], [4.5281037438927, 7.61772321675312], [4.527190756648167, 7.613978601631231]]]}}, {"type": "Feature", "properties": {"name": "Ila", "state": "os"}, "geometry": {"type": "Polygon", "coordinates": [[[4.998952800631287, 8.030323020890762], [4.98336396037854, 8.032349306775131], [4.97318069043655, 8.021380363912726], [4.971701372220593, 8.023653903105185], [4.969705532884063, 8.023610968571404], [4.969192027190331, 8.02421665207686], [4.970716475185213, 8.032603263629767], [4.966904640237033, 8.046708107393272], [4.962958672304921, 8.050407587340317], [4.961066676785777, 8.052181396654191], [4.960805415637481, 8.052426337805286], [4.949749947202349, 8.055476187975728], [4.945175648137706, 8.060812950257514], [4.939457416826372, 8.0680561071037], [4.926877498597719, 8.07987308457524], [4.88723135024668, 8.090929031449718], [4.877701283087788, 8.091309547197909], [4.861309052370927, 8.094740868196538], [4.854066372165391, 8.095502852974334], [4.851778984312716, 8.091691017126777], [4.854828835382477, 8.085972785815443], [4.856734753306284, 8.079111097998805], [4.857497213825411, 8.072630881909731], [4.852541446630482, 8.0680561071037], [4.850381374001245, 8.06661605778487], [4.843392371860546, 8.061956405863498], [4.830049992213446, 8.055476187975728], [4.818613528691458, 8.05356979431059], [4.812895298279443, 8.059288024722605], [4.808808985746168, 8.061739966026664], [4.80940051392264, 8.042394457038597], [4.806352909359305, 8.017491039779713], [4.806973000004007, 8.014586000243753], [4.811078000449413, 8.01175100080809], [4.810475999667688, 8.003006000426637], [4.809453000155884, 7.99680200031213], [4.813710352950466, 7.994807098968465], [4.826537966054332, 7.982892202413268], [4.845017904552719, 7.986536998183965], [4.846036873303092, 7.986576678071287], [4.861989374210282, 7.960773392877854], [4.867285380116243, 7.959630457079982], [4.879489653324868, 7.954970056922662], [4.880064081792, 7.953805930399426], [4.881947642569685, 7.944204532613128], [4.891204634186579, 7.940862784090257], [4.892488859773096, 7.937963299666592], [4.893586982353384, 7.93449505520266], [4.883666518595021, 7.916476762092941], [4.880444991443255, 7.908296239180117], [4.879863139971974, 7.897489730067036], [4.877260200697776, 7.890540386229873], [4.872227161054695, 7.883654164008533], [4.862790073902829, 7.883127256617627], [4.84512943307692, 7.874375353939456], [4.843560593646544, 7.863239260383637], [4.853709649780569, 7.855284439425361], [4.865482987649784, 7.841731218221184], [4.873983339159849, 7.845878715230583], [4.886938662289481, 7.850254149909119], [4.896238042551659, 7.855418980701472], [4.907802690042161, 7.865568377678528], [4.921879231241576, 7.861858931444601], [4.923782825317176, 7.863490582224642], [4.924838066423661, 7.86806297292793], [4.924486159908383, 7.874394416868881], [4.927299975813298, 7.880373954294612], [4.946279079416058, 7.901821934334862], [4.934921181567347, 7.914607132713058], [4.929453061609536, 7.923906189219281], [4.931741209389372, 7.931471592939715], [4.922864841439321, 7.951469552877597], [4.92379079960574, 7.956737240031657], [4.926597440719377, 7.959599252403621], [4.936678761715541, 7.962725658262571], [4.939591930223457, 7.967502847078777], [4.937898110209687, 7.974084602922119], [4.937595997357448, 7.979291093009579], [4.937624129050391, 7.982263862287482], [4.970878388227106, 7.980955108591445], [4.998578000074701, 8.008804000704117], [5.001968999969449, 8.018887000734537], [4.998952800631287, 8.030323020890762]]]}}, {"type": "Feature", "properties": {"name": "Atakunmosa East", "state": "os"}, "geometry": {"type": "Polygon", "coordinates": [[[4.844862303852267, 7.375388281144296], [4.846035191570877, 7.379520119158201], [4.847221090680819, 7.382574948874833], [4.845510591840366, 7.387918849974994], [4.827139712327892, 7.399952546972486], [4.837383985082909, 7.422225753915484], [4.838077646566205, 7.425827218551319], [4.838838462225283, 7.429579600218403], [4.842459889112661, 7.444151246982528], [4.8425679921192, 7.444952780346568], [4.84208528730619, 7.446588601282997], [4.838792320709103, 7.458071469822528], [4.849279582187023, 7.47539903233951], [4.851815371782038, 7.486196870189474], [4.849140868056679, 7.487865139564576], [4.837038865751083, 7.522087457769999], [4.843459706800104, 7.527982109986453], [4.836269805107463, 7.545408571848156], [4.829240221958742, 7.552949852154029], [4.824468928198542, 7.560119975056864], [4.820941428304309, 7.567811080616934], [4.802432935431682, 7.565859859345096], [4.795323353090339, 7.558758039951613], [4.782542999359976, 7.556979000180775], [4.782384000121567, 7.53573300067751], [4.778482000044335, 7.52266500058937], [4.765719248744404, 7.504206941697078], [4.716602025163354, 7.504365532643249], [4.709332529872427, 7.487709984927903], [4.708799464823471, 7.477802478601575], [4.708632502088335, 7.478914530781026], [4.708714554433186, 7.465260509964594], [4.697055195740745, 7.46680716042215], [4.696023635582378, 7.466114300234835], [4.695005742421131, 7.465577333027568], [4.691735571839217, 7.464377593351287], [4.679788639634069, 7.471031330931226], [4.678738380771676, 7.467774886701704], [4.677887569955431, 7.465980028755382], [4.676109105750697, 7.466803503778749], [4.674785358557472, 7.467381945920124], [4.673736476557224, 7.467821816024014], [4.651275315803218, 7.456778330155885], [4.653682999670764, 7.451505000655288], [4.65296299974267, 7.449673000708458], [4.6512629995878, 7.444404001443559], [4.6494049993413, 7.443743000639017], [4.64573800020861, 7.445188000725693], [4.648203999714838, 7.440768000143123], [4.648487000174953, 7.438900000334797], [4.648828999758564, 7.436610999997697], [4.654337000152509, 7.434904000419351], [4.670220999699438, 7.404220000052987], [4.670090500875972, 7.40265075322975], [4.664698015700935, 7.384617639292685], [4.682452103282003, 7.369761811258627], [4.683206352091531, 7.367769637558752], [4.683270201258836, 7.363223063693511], [4.687929161601573, 7.351805222433143], [4.682258701378032, 7.344053686028815], [4.69968061986475, 7.332854355743962], [4.712247748834614, 7.315739796754258], [4.733840865063939, 7.307331159905175], [4.741920204354017, 7.311840994666227], [4.745480867647984, 7.313828535058917], [4.752016549424241, 7.350784039551854], [4.754682872016986, 7.361068429264662], [4.795955180787018, 7.364520549783606], [4.814457892817529, 7.372009753947054], [4.844862303852267, 7.375388281144296]]]}}]}