{"type": "FeatureCollection", "features": [{"type": "Feature", "properties": {"name": "Kebbe", "state": "so"}, "geometry": {"type": "Polygon", "coordinates": [[[4.875030323590636, 12.229728729697172], [4.757488176738036, 12.236647087393237], [4.703177836887733, 12.225366317201804], [4.699480541393939, 12.168326150931193], [4.697586634815366, 12.157561361367755], [4.678312218134408, 12.16724236174565], [4.665114305580801, 12.17046580265469], [4.652256175781929, 12.148548851348437], [4.628061018701089, 12.113815717321529], [4.640064028132429, 12.096628637901347], [4.642935728001476, 12.081675092231762], [4.638569075202724, 12.073519110918255], [4.633934321012134, 12.063699092439208], [4.628051747590121, 12.05434358908542], [4.612127205706031, 12.046033770642055], [4.602917114633158, 12.042895730253804], [4.588181817337045, 12.03882752467058], [4.582023292341091, 11.996514089653544], [4.574037253216716, 11.960057374348423], [4.567135050941886, 11.919602419815874], [4.55075238991094, 11.89190849078426], [4.551249893068132, 11.892092759173522], [4.549734907739833, 11.810922439718865], [4.544024201955381, 11.803498521839344], [4.548973482340386, 11.79550353176262], [4.535399999410515, 11.784999998850935], [4.50969999955538, 11.755800000369788], [4.43643449335724, 11.710825178239418], [4.417208449410452, 11.708540894846465], [4.413611535344103, 11.730236979852805], [4.394931252175581, 11.756729935338285], [4.393904474611873, 11.75745593734166], [4.392991785942229, 11.757065012840144], [4.391785226706872, 11.755847818222264], [4.390938231714074, 11.756841628438451], [4.390253715436643, 11.758796244651023], [4.389169895674172, 11.759745626559493], [4.377875354164303, 11.762537904600663], [4.377704224870115, 11.758070247144246], [4.386317738972537, 11.74951401266162], [4.381041249254281, 11.74029895193513], [4.368773788779379, 11.746984187370401], [4.371557828131301, 11.724660566232217], [4.375101571580331, 11.714620246227412], [4.396825140767703, 11.692247603044507], [4.427280380585159, 11.67056132334642], [4.41923090058566, 11.614177970636888], [4.434182370619965, 11.603583873297168], [4.469356928779291, 11.576515768987576], [4.496795957567429, 11.552430962319079], [4.482785916736702, 11.531998347445835], [4.494707757856816, 11.532587415976536], [4.515534848654397, 11.531155109820531], [4.522761340163754, 11.53031450630948], [4.541985838175947, 11.560279274768789], [4.554129673345813, 11.564573467391654], [4.569935376116746, 11.573654653239714], [4.547455094876796, 11.597402481239556], [4.551020290753854, 11.61667991874333], [4.546163707988796, 11.634397927322539], [4.569878856424111, 11.632857723205404], [4.585991290066033, 11.654872282429949], [4.623140631734827, 11.656687954285701], [4.625313257101197, 11.661671383727423], [4.626740643965604, 11.663567862367017], [4.628859443108865, 11.668103189310784], [4.632654631605988, 11.671425256170664], [4.634991580197322, 11.672292985033266], [4.641052411839382, 11.670966223312632], [4.666810559160012, 11.667562122993616], [4.669310157337918, 11.674819254405122], [4.659198837656277, 11.678556244175354], [4.661502217253599, 11.693896467747834], [4.671034528220957, 11.690729400841235], [4.672735121029064, 11.683477102386405], [4.674280039392329, 11.682767198247632], [4.676514174789361, 11.681882357984477], [4.691892106935256, 11.685909385409843], [4.698879891393915, 11.692682421656457], [4.71253237436963, 11.691151885251372], [4.721083571749489, 11.694750074556339], [4.738207725606117, 11.707377495874766], [4.745074151950575, 11.721406943175964], [4.750389140746279, 11.719524582093811], [4.757076518366659, 11.723017771053321], [4.764821913300693, 11.718056344424781], [4.767298284688138, 11.720412989068222], [4.765748865218029, 11.725326614931362], [4.762659029390761, 11.730097335823416], [4.761541933813248, 11.734356007024132], [4.765789135060572, 11.73678175197631], [4.76833957371241, 11.739000909164702], [4.77266534512961, 11.737427794357245], [4.777228795672443, 11.737288168314365], [4.780458322293782, 11.739630806916239], [4.784929619306524, 11.738405173959677], [4.791204362791177, 11.740918419349612], [4.79372376943644, 11.7430034669365], [4.794769559567555, 11.747341057244057], [4.799428082839825, 11.74942605356955], [4.80044718019326, 11.7520648533104], [4.802612991396472, 11.757672809752421], [4.809315558566198, 11.759627422367714], [4.815210015629759, 11.766086852426326], [4.819800000669545, 11.766899998735994], [4.820778469350955, 11.762890749108806], [4.823576342074603, 11.760046265422886], [4.828282401711533, 11.759208578413222], [4.831562382098298, 11.756695499397836], [4.832668400726163, 11.75203775134122], [4.836838870917234, 11.753344690205324], [4.843969263570727, 11.752088126865601], [4.848532713214183, 11.744409002073837], [4.849829730757506, 11.735107461640098], [4.861501384980954, 11.735778282142064], [4.869772638696361, 11.733823499554887], [4.873052619083126, 11.734521637863338], [4.878614325190995, 11.75015946328864], [4.883890814009931, 11.751136797025595], [4.889452520117743, 11.75015946328864], [4.892700000804439, 11.746800000819405], [4.889737734708717, 11.713856010446591], [4.891011797956139, 11.712436405415815], [4.893739895879548, 11.711272840968888], [4.89387336336506, 11.709247922054033], [4.899149853083316, 11.708689361225083], [4.903855911820926, 11.712040711809436], [4.913981067572252, 11.716648753437255], [4.915121931332123, 11.72181525157265], [4.938794832315693, 11.722373787220533], [4.943073067368232, 11.72684202384039], [4.941011066707404, 11.730830321062513], [4.929299998795955, 11.76456157795451], [4.919599999340562, 11.789900000884359], [4.923069092764479, 11.794832004393527], [4.926214813363003, 11.820218502382033], [4.928157279734705, 11.826389696127649], [4.931299999295561, 11.83610000091437], [4.934999999050774, 11.845100001364017], [4.968217072160201, 11.875682862174415], [4.944400000859389, 11.880800001019281], [4.866699639077126, 11.932737119022875], [4.870713298979638, 12.028601556716524], [4.860745447244653, 12.04760619207218], [4.863345953852729, 12.059377242066091], [4.864590656034011, 12.06765077016695], [4.864552585033834, 12.090912382400575], [4.874579633743167, 12.118243822594366], [4.868582692637176, 12.13290109201182], [4.866349958383921, 12.136425673606027], [4.861730543030205, 12.159646444028226], [4.872676064848577, 12.2081874485919], [4.875030323590636, 12.229728729697172]]]}}, {"type": "Feature", "properties": {"name": "Silame", "state": "so"}, "geometry": {"type": "Polygon", "coordinates": [[[4.775187554062427, 12.854685830786536], [4.861245685240249, 12.873658981776657], [4.863752204600587, 12.875188712389217], [4.867510491216251, 12.88097418870791], [4.881091328801858, 12.893330278269787], [4.911869191410119, 12.931802025343245], [4.912586514955763, 12.934152275806923], [4.916999999050745, 12.935600000839429], [4.921899278029287, 12.936318104097268], [4.925599999940118, 12.936900001433969], [4.964109868375772, 12.930994110389918], [4.964899997436987, 12.9329000004347], [4.964631240439417, 12.95598499211377], [4.965761199020164, 12.955918822695537], [4.980077288136386, 12.957483932637444], [4.981737458217196, 12.99783075628443], [4.982954943316031, 13.02069935309271], [5.002614455992386, 13.015972707074809], [5.013007836342638, 13.013644801166663], [5.017462977034825, 13.028001177212616], [5.016371457276989, 13.079077410194373], [4.996979003678121, 13.083540006266333], [4.985312008842186, 13.084732233006207], [4.9361425013754, 13.085290213772396], [4.927913842250064, 13.086611763022518], [4.889528975082158, 13.094368121591572], [4.884721203021172, 13.10641762507339], [4.885323693933401, 13.12352116736804], [4.87794771531486, 13.120805734597013], [4.869304314042893, 13.112637511711853], [4.860085082260809, 13.116434497054456], [4.853788799113829, 13.124390513211665], [4.835550569603129, 13.119064260407356], [4.822479537900392, 13.117256198614712], [4.798798748063803, 13.115037314820256], [4.798648635925872, 13.110106304162684], [4.787327194794273, 13.109608291989161], [4.76085840139416, 13.10903526106847], [4.745405237361865, 13.105088219345873], [4.7214900158516, 13.091135111895937], [4.702156003796574, 13.073203390224307], [4.717221085184974, 13.061834726591428], [4.726346494295342, 13.054496577055431], [4.731627658689547, 13.052771055040182], [4.73001753588062, 13.052008995618678], [4.724706504101903, 13.049495324849431], [4.677757625114339, 12.999094190444566], [4.680609782715351, 12.980288461743157], [4.673522964912934, 12.980616572197107], [4.665738954888923, 12.969615038803056], [4.659440442322591, 12.968920189315327], [4.660688259755432, 12.959481617382778], [4.649517312973671, 12.9540962611336], [4.646215274015731, 12.948615238602429], [4.688168464003468, 12.938165021998202], [4.696617980435519, 12.930451105134466], [4.698222317905675, 12.922435792178135], [4.711041573609805, 12.907872049555465], [4.711724051124122, 12.907533924251254], [4.712638782154102, 12.90753843974727], [4.740491124965502, 12.893281175286063], [4.759246383713673, 12.8744438623944], [4.774253742116571, 12.855724654769062], [4.775187554062427, 12.854685830786536]]]}}, {"type": "Feature", "properties": {"name": "Binji", "state": "so"}, "geometry": {"type": "Polygon", "coordinates": [[[4.702156003796574, 13.073203390224307], [4.7214900158516, 13.091135111895937], [4.745405237361865, 13.105088219345873], [4.76085840139416, 13.10903526106847], [4.787327194794273, 13.109608291989161], [4.798648635925872, 13.110106304162684], [4.798798748063803, 13.115037314820256], [4.822479537900392, 13.117256198614712], [4.835550569603129, 13.119064260407356], [4.853788799113829, 13.124390513211665], [4.860085082260809, 13.116434497054456], [4.869304314042893, 13.112637511711853], [4.87794771531486, 13.120805734597013], [4.885323693933401, 13.12352116736804], [4.884721203021172, 13.10641762507339], [4.889528975082158, 13.094368121591572], [4.927913842250064, 13.086611763022518], [4.9361425013754, 13.085290213772396], [4.985312008842186, 13.084732233006207], [4.966096093959607, 13.116460991981228], [4.9736587070837, 13.123551008672166], [4.988048189872131, 13.129439226239356], [5.00301581982427, 13.131095765757038], [5.012911506360979, 13.133452055168277], [5.020502820448826, 13.139563769552353], [5.070968035146734, 13.172954402823507], [5.015797854387529, 13.18680974407448], [5.003673317769426, 13.19534033079168], [4.976339051905768, 13.21822642211174], [4.967237168160807, 13.223123388033969], [4.964392570260941, 13.236290584243136], [4.959556137705647, 13.242723461818343], [4.951795803233779, 13.248318855630714], [4.941495641210906, 13.2581353091972], [4.949999999200656, 13.273699999055736], [4.964799999120714, 13.286499999375508], [4.96224355479626, 13.290530873201305], [4.95320579271322, 13.296525697303139], [4.935072127376827, 13.292997682996713], [4.909775100240722, 13.306848079775136], [4.876024031284089, 13.309932204907398], [4.860202122729845, 13.308895444868938], [4.854426044326544, 13.33354205532163], [4.797498692610645, 13.338040412035411], [4.728071285161718, 13.35089076989317], [4.711620566136276, 13.303119807133442], [4.701197888571755, 13.284975098122345], [4.695433539126554, 13.254980104348363], [4.651363107621364, 13.25850567519683], [4.619781029870694, 13.248335992212333], [4.601362312720596, 13.239664535689826], [4.588918256872091, 13.229508319153638], [4.536162982435712, 13.200850877166317], [4.511322213749224, 13.184093253700723], [4.503440699228918, 13.171317519787749], [4.497530336755688, 13.15996189272721], [4.512950660244826, 13.136703523448887], [4.554715233621209, 13.111444510655701], [4.623046776687431, 13.07011233311772], [4.623164248831074, 13.070268986024928], [4.682985900379038, 13.078911467290425], [4.702156003796574, 13.073203390224307]]]}}, {"type": "Feature", "properties": {"name": "Kware", "state": "so"}, "geometry": {"type": "Polygon", "coordinates": [[[5.540179514572969, 12.981005427358639], [5.533173579097422, 12.999361154193934], [5.529056875774245, 13.01014638264951], [5.513896361028287, 13.033971600908728], [5.478802829986648, 13.036397866568336], [5.476892676256057, 13.072299997846699], [5.473893156643896, 13.077235051856235], [5.470729665441752, 13.085173415220993], [5.470932412201137, 13.089903393227075], [5.47448735670622, 13.094655994578545], [5.477890930022454, 13.105274255802328], [5.474539645987932, 13.106246510168376], [5.467337950586, 13.107288204786869], [5.455858020131586, 13.10971881237333], [5.433825109341399, 13.100343482565734], [5.421346923321892, 13.0981905793318], [5.413717403335568, 13.09124559990454], [5.40979568921972, 13.08279895770579], [5.408892823844781, 13.080817175672166], [5.406391526847528, 13.08279895770579], [5.403993501698778, 13.084752110721354], [5.403053583356211, 13.083870463950802], [5.402962065646875, 13.08265906816149], [5.401414911568963, 13.081989290873139], [5.401130519857645, 13.084913994085582], [5.399695852081948, 13.08567304437554], [5.388779819932779, 13.078305483411384], [5.385355092763348, 13.081013247663293], [5.381960656559102, 13.082241214360579], [5.380942900094794, 13.082398072313254], [5.376058775592071, 13.079477610303513], [5.375113293144011, 13.079979949115398], [5.375280767593381, 13.083270724964052], [5.372405878728387, 13.0851650128551], [5.369319600619122, 13.085535633362838], [5.367332544961016, 13.086276870781035], [5.366156390904791, 13.088161165405495], [5.369738683793287, 13.089263878125507], [5.369399998211406, 13.107200000179887], [5.36132595592818, 13.11296283606606], [5.356997966782785, 13.107858032322383], [5.356603007922502, 13.105800875410125], [5.343908186913325, 13.105904613107441], [5.335000000949321, 13.10920000067955], [5.326844590705321, 13.118491222292107], [5.326669644688423, 13.119314726093762], [5.326979408972591, 13.129151837986967], [5.327599998740993, 13.13769999925563], [5.330371629247338, 13.140894675349045], [5.333545326855415, 13.14321931671816], [5.338900000035039, 13.140200000329799], [5.344199999830153, 13.142700002303286], [5.341351040218399, 13.145262321898713], [5.328568344653434, 13.154909602196426], [5.328436975286252, 13.156271698280307], [5.336445159316725, 13.171086238439216], [5.347299999795212, 13.181400000909377], [5.347015427320173, 13.189765488286696], [5.342887993286297, 13.202243408106824], [5.336934850063301, 13.226643285059595], [5.296131631269816, 13.215800339014493], [5.294694696303225, 13.22342579226654], [5.297037900578687, 13.225244407603384], [5.303129840669669, 13.229057969249936], [5.313800008963312, 13.248002621623755], [5.317443420677364, 13.26950407715151], [5.300646617347581, 13.265315425366623], [5.288824154910856, 13.26527026231281], [5.284210351326692, 13.281273717008503], [5.280613378804446, 13.2957307487751], [5.285170436966155, 13.30520156140301], [5.290747274167416, 13.313074382177035], [5.295190863067944, 13.317866554597856], [5.292449113435907, 13.323305577890153], [5.286117066049826, 13.331083114594094], [5.282714305720674, 13.327749970784566], [5.281708201772119, 13.325103208446365], [5.276620842178147, 13.324985553740362], [5.27497504236436, 13.325591523230287], [5.274403276789826, 13.331558015090366], [5.223611559625851, 13.346368946269877], [5.220815919019515, 13.343195795449674], [5.220966964653769, 13.338607661214667], [5.213747851182461, 13.335441636622306], [5.211608732756872, 13.336829259063109], [5.209717051101052, 13.339663596597745], [5.20614209937844, 13.34018264661188], [5.201083268977754, 13.339737046027892], [5.194696698393955, 13.340687824583483], [5.191441437672268, 13.339731621317299], [5.190229272063277, 13.336470736235526], [5.190657095748406, 13.334042387746024], [5.190505931403663, 13.331947051015618], [5.186700001404006, 13.332600001089247], [5.179682432298478, 13.336185868782877], [5.176014568017933, 13.336547677733165], [5.167618259974745, 13.336194376369406], [5.167853929115608, 13.329989185552506], [5.164719581343661, 13.311156177715475], [5.13471255913737, 13.249599480331824], [5.149686957387246, 13.242854832984222], [5.157443674785839, 13.240945676601768], [5.161285726954759, 13.242669745312526], [5.17877895538453, 13.237764875248843], [5.187199999280608, 13.220600001888613], [5.194600000589617, 13.2137999976718], [5.198699999905102, 13.21040000006002], [5.19279593628346, 13.203133525591795], [5.22619519675095, 13.179084753858376], [5.233216914429079, 13.176403253407443], [5.243111205217986, 13.179684181679704], [5.257599998341277, 13.183600000739489], [5.27792141384225, 13.1813284220691], [5.273940688911694, 13.172216615204661], [5.254088887692035, 13.148802506730362], [5.249535052700594, 13.12064406257349], [5.229389437572536, 13.10678459073631], [5.243588981746143, 13.07979003298368], [5.245455456304342, 13.082422462826457], [5.246952839202208, 13.085131124601787], [5.256507563972946, 13.086450718725757], [5.256935386758755, 13.087492498779852], [5.256507563972946, 13.088603725381688], [5.257238144424889, 13.08957351380667], [5.259551406672131, 13.087501833742692], [5.263057183442299, 13.070670766242927], [5.270797080820671, 13.06533271882995], [5.267800000169927, 13.061200000379756], [5.299300000394737, 13.055399999110705], [5.292038706920835, 13.04250037908929], [5.292229127572227, 13.038134931382046], [5.292119394994131, 13.030498007277288], [5.300999510419103, 13.024241398621712], [5.304275247804469, 13.022592944908524], [5.307585767369289, 13.015549578750097], [5.308591542165971, 13.011379101364469], [5.309312920754735, 13.00949809556073], [5.311229229445416, 13.006312370419607], [5.313822331935114, 13.003469116106885], [5.318005494258216, 12.9996710956446], [5.345481271143797, 12.987952450045555], [5.349799234647037, 12.968673207602478], [5.362308995863543, 12.97317597908824], [5.370104891327742, 12.975862674922553], [5.398252505848518, 12.998311312617034], [5.413459965205277, 12.980219044873081], [5.423933413995883, 12.979266913737149], [5.448343509045742, 12.964149499899577], [5.540179514572969, 12.981005427358639]]]}}, {"type": "Feature", "properties": {"name": "Sokoto North", "state": "so"}, "geometry": {"type": "Polygon", "coordinates": [[[5.243588981746143, 13.07979003298368], [5.233500165800081, 13.077306020056824], [5.221556759836631, 13.087897634368403], [5.210813142112841, 13.084165718573104], [5.211514791374555, 13.079621166383788], [5.191229461170735, 13.075838697897666], [5.197490491792792, 13.06666694582293], [5.217603067627522, 13.050496968160587], [5.21796365529849, 13.045401875296363], [5.222962166370905, 13.043268915428143], [5.227379872782933, 13.049884447109605], [5.225417962169274, 13.051146114101925], [5.224800002018526, 13.0518000012691], [5.224199998631093, 13.052700002303311], [5.22911160461689, 13.058565951757316], [5.227952674376468, 13.065360347801857], [5.237208299923168, 13.065445400285057], [5.241901216867689, 13.055686218244432], [5.256063288090331, 13.065767861197912], [5.270797080820671, 13.06533271882995], [5.263057183442299, 13.070670766242927], [5.263282978926384, 13.078021476609933], [5.257238144424889, 13.08957351380667], [5.256507563972946, 13.088603725381688], [5.256935386758755, 13.087492498779852], [5.256507563972946, 13.086450718725757], [5.246952839202208, 13.085131124601787], [5.245455456304342, 13.082422462826457], [5.243588981746143, 13.07979003298368]]]}}, {"type": "Feature", "properties": {"name": "Sabon Birni", "state": "so"}, "geometry": {"type": "Polygon", "coordinates": [[[6.056517777773252, 13.394157678733961], [6.0882560281932, 13.375761216207195], [6.099859256599473, 13.355875413419653], [6.116300002143419, 13.366900001833642], [6.130029425717453, 13.356479476346806], [6.146419312801072, 13.344134868429478], [6.160363377567876, 13.337961843664175], [6.200047670663537, 13.357923531246001], [6.206469366967781, 13.359092109413382], [6.20993362923366, 13.359340575007593], [6.21149616621517, 13.30451823672729], [6.245412190620129, 13.303830615990194], [6.281209996044538, 13.302124837691167], [6.323708205769151, 13.311262448803006], [6.362450002165929, 13.300622686587758], [6.406403160277648, 13.309302716347304], [6.406973591258293, 13.306457757819317], [6.406840417851072, 13.30195700081498], [6.408623016239233, 13.299528306985849], [6.414841186071953, 13.296411862017862], [6.416109927131458, 13.293629948663238], [6.416680359011423, 13.291478747845986], [6.479609685338744, 13.317460668974718], [6.494005423811302, 13.31984013121712], [6.502095591838156, 13.319245264757228], [6.515444368362978, 13.313582148397472], [6.535000000349783, 13.30590000008499], [6.539242775134028, 13.306480591606089], [6.55214517406057, 13.308632868911843], [6.559999999400475, 13.312899999135709], [6.562399997661828, 13.314800002218362], [6.567754438816337, 13.32005428227933], [6.579556564883603, 13.330333553051105], [6.591437956296716, 13.343767377562472], [6.594900384844948, 13.344604049237546], [6.606134046748934, 13.34638113028501], [6.62428408244449, 13.348404105764928], [6.630814954646496, 13.354076960883106], [6.65305311321066, 13.37092340858851], [6.623119408234174, 13.41337804076403], [6.582333567040507, 13.454434980789756], [6.558644432394715, 13.477823501753278], [6.553669391829033, 13.48466836415372], [6.529711275355112, 13.519196307963284], [6.495342785840933, 13.568414243922291], [6.478800276611537, 13.578533851755878], [6.475520297124035, 13.580613169762046], [6.462026699172895, 13.59001714027886], [6.44132684625697, 13.598397172391628], [6.423084926827983, 13.604057019715754], [6.40300098990383, 13.611333770736962], [6.384984538605636, 13.627596837224303], [6.296361289142226, 13.679041032317855], [6.276970866212537, 13.676625580106474], [6.232807261346068, 13.673522167214287], [6.155662935995736, 13.644746247641251], [6.138607038883777, 13.656386934609372], [6.089178450225347, 13.677598082685392], [5.981809783294921, 13.712673590413942], [5.974530166134286, 13.69849174489815], [5.971384862821196, 13.696762663366258], [5.970140839628073, 13.693887611723937], [5.970219753338995, 13.683396143217465], [5.959420785041232, 13.677171812129473], [5.952454021336052, 13.671364225978323], [5.938861338779816, 13.648063654214297], [5.91169999905577, 13.64730000119414], [5.88940000220839, 13.62799999880093], [5.888549715696854, 13.619662370621938], [5.92399999880098, 13.621599998641102], [5.926800001119204, 13.612399998860894], [5.924539612712977, 13.593845175614433], [5.915372910331598, 13.565041318602027], [5.961867081300795, 13.487707648189485], [5.963956120078933, 13.48727893417555], [5.98176926434013, 13.483752896578949], [6.01125201956512, 13.468593770386235], [6.036288310756959, 13.436093474034635], [6.042072831096334, 13.42346332327378], [6.050928689107764, 13.404125805661465], [6.056517777773252, 13.394157678733961]]]}}, {"type": "Feature", "properties": {"name": "Sokoto South", "state": "so"}, "geometry": {"type": "Polygon", "coordinates": [[[5.270627713298381, 13.065155718761446], [5.256063288090331, 13.065767861197912], [5.241901216867689, 13.055686218244432], [5.237208299923168, 13.065445400285057], [5.227952674376468, 13.065360347801857], [5.22911160461689, 13.058565951757316], [5.224199998631093, 13.052700002303311], [5.224800002018526, 13.0518000012691], [5.225417962169274, 13.051146114101925], [5.227379872782933, 13.049884447109605], [5.222962166370905, 13.043268915428143], [5.224623591905299, 13.04262938683678], [5.22568786220512, 13.042172782148214], [5.229730670933748, 13.04035910139146], [5.22853274519008, 13.038514285206134], [5.227106507659244, 13.03652273293784], [5.226962346335256, 13.036412272808207], [5.237720031254469, 13.033850962252131], [5.247686103231104, 13.013661379269308], [5.245287076237616, 13.010679280424483], [5.247400000109963, 13.005600002138465], [5.251130064201163, 13.005532357832124], [5.256448554057556, 13.007429931845934], [5.257800002168437, 13.007900000284849], [5.26357359934218, 13.013465261412705], [5.269320185378319, 13.012531222837708], [5.277814956595023, 13.027335758938193], [5.283821899061422, 13.029986340697121], [5.292119394994131, 13.030498007277288], [5.292229127572227, 13.038134931382046], [5.292038706920835, 13.04250037908929], [5.299300000394737, 13.055399999110705], [5.272700001304088, 13.05919999988015], [5.267800000169927, 13.061200000379756], [5.268444109008499, 13.062491424139978], [5.269204683649264, 13.063602764056384], [5.270627713298381, 13.065155718761446]]]}}, {"type": "Feature", "properties": {"name": "Yabo", "state": "so"}, "geometry": {"type": "Polygon", "coordinates": [[[4.750326259249505, 12.750909215288118], [4.787178499987817, 12.747675328753473], [4.804194914163986, 12.745112134117733], [4.810922959127311, 12.745428442768457], [4.832574844253713, 12.734858827672781], [4.837780767768265, 12.727113742105587], [4.843197211781956, 12.719912293117886], [4.860868811746286, 12.726694793829722], [4.880250274730429, 12.720420614220018], [4.879050970326091, 12.689006156608912], [4.870124597372296, 12.66444012001557], [4.870399482350251, 12.661751059863548], [4.870320822248175, 12.660290106703087], [4.862599998591122, 12.648699999405494], [4.867599999840195, 12.629000001049235], [4.898142330903909, 12.628751426637052], [4.906501946607591, 12.633753161779055], [4.916933397058699, 12.640859076685103], [4.934138315430971, 12.645976392696411], [4.941826431644529, 12.638226580292496], [4.946147860235612, 12.618158114405503], [4.951750797561317, 12.61082131115461], [4.956814703735631, 12.608209037816891], [4.957352325649367, 12.615643526327744], [4.95786571443125, 12.626720811416362], [4.960717871132886, 12.636239100154398], [4.996497530037004, 12.665255020003201], [5.004138698042539, 12.672146200187058], [5.016531704774422, 12.67212786570849], [5.041277070680337, 12.665734721080582], [5.043152188622628, 12.688247344639308], [5.048533435869444, 12.683304742619839], [5.057305611065146, 12.677461502846143], [5.0688599028623, 12.66995929538524], [5.077210554123837, 12.667491400108077], [5.084308913825339, 12.663775712579138], [5.097965480622463, 12.667045142119662], [5.101658125721997, 12.670086541360831], [5.089003160867207, 12.689108764757748], [5.08012898906162, 12.70470394972756], [5.079132380155272, 12.709042477128662], [5.079692667682536, 12.720972284443405], [5.086988166870469, 12.73330467597009], [5.099068524292989, 12.738794941733204], [5.090331623205884, 12.750666637555355], [5.095037681044175, 12.752335725313515], [5.08520000077948, 12.774099997816677], [5.069282515875443, 12.775698376379012], [5.068178743754061, 12.776183027324919], [5.054432492065928, 12.78526759372454], [5.067422824903474, 12.808386664313161], [5.058554137163753, 12.834530139654248], [5.061454873443722, 12.83789260585911], [5.066632579829729, 12.841395172948921], [5.072267142714509, 12.844745454239387], [5.089066138591477, 12.846106506210333], [5.102722607362466, 12.857410799069157], [5.093641080671375, 12.862012682139607], [5.086795905306815, 12.870215297797813], [5.085512433352164, 12.8861331694103], [5.073821652347419, 12.904541978729412], [5.057934580716392, 12.933655312242934], [5.002599999390497, 12.932999997851653], [4.987199998780966, 12.930699999705269], [4.983600001838681, 12.929299998995816], [4.981400002008513, 12.929000001349038], [4.931000000749464, 12.93650000187364], [4.925599999940118, 12.936900001433969], [4.921899278029287, 12.936318104097268], [4.916999999050745, 12.935600000839429], [4.912586514955763, 12.934152275806923], [4.911869191410119, 12.931802025343245], [4.881091328801858, 12.893330278269787], [4.867510491216251, 12.88097418870791], [4.863752204600587, 12.875188712389217], [4.861245685240249, 12.873658981776657], [4.775187554062427, 12.854685830786536], [4.806835267033989, 12.819476618151441], [4.806305366699348, 12.804185508354578], [4.770250369558937, 12.789276137383865], [4.750326259249505, 12.750909215288118]]]}}, {"type": "Feature", "properties": {"name": "Wurno", "state": "so"}, "geometry": {"type": "Polygon", "coordinates": [[[5.36132595592818, 13.11296283606606], [5.366378211385381, 13.116176798120762], [5.368988571865145, 13.117164026198907], [5.37407017669733, 13.11873850887514], [5.376022861166177, 13.116689283983305], [5.376735459673796, 13.114755481680163], [5.379372305187758, 13.109732643946415], [5.384024850666378, 13.111102075800204], [5.383844318060881, 13.11642484373158], [5.391463215255214, 13.120927623311218], [5.401046462024624, 13.130816020842758], [5.403812782933642, 13.132597820632952], [5.414451598162771, 13.126705162213511], [5.418273488430771, 13.127816211648906], [5.416032187235714, 13.146705716695521], [5.431480599250278, 13.143523265086685], [5.445196148983143, 13.142476159247394], [5.444702358227289, 13.143774350405977], [5.450220922057952, 13.150619150753244], [5.454300001344052, 13.153299998296347], [5.460391969314003, 13.16038991786047], [5.468018659133861, 13.164987671244091], [5.477557529756268, 13.16695788170091], [5.495238228161725, 13.1692256598364], [5.516483510006026, 13.152031018916432], [5.525332316433321, 13.158544696080924], [5.516609815290792, 13.162898492171735], [5.509056081173242, 13.173819090178938], [5.522168616588431, 13.178684998913639], [5.541631770389927, 13.196040099571007], [5.634325980959318, 13.256630898996832], [5.71175966137929, 13.246199732731554], [5.721959234231349, 13.237895747290963], [5.733834443704666, 13.231701789006422], [5.860999499227546, 13.22064118004647], [5.851601116198594, 13.29114228179094], [5.804537248095585, 13.310159046303], [5.772557292285285, 13.30844583420793], [5.750856608146023, 13.304448338719908], [5.712144717804506, 13.289083274973223], [5.63614469612088, 13.29051521690377], [5.609235070342265, 13.301843188912073], [5.602487745712949, 13.293973878191991], [5.606765980765431, 13.294095316345818], [5.607060703888408, 13.292058618110786], [5.589877257729313, 13.28721002132545], [5.54635833906616, 13.314625238763824], [5.53850560285133, 13.317541947003292], [5.523541084553472, 13.306206103229158], [5.52213596310429, 13.310900736979477], [5.51020463863324, 13.324734502595277], [5.507351144639642, 13.327769978901472], [5.497165549050919, 13.336164545857173], [5.485311565376492, 13.377247041917485], [5.478200000030029, 13.367299999595332], [5.463770950668902, 13.354141478246675], [5.44305368328088, 13.334439917768066], [5.429489684601322, 13.31002021076415], [5.421909233424458, 13.311017074178665], [5.416680279171601, 13.31212728544591], [5.403293242788948, 13.31405547867746], [5.39432188035056, 13.309821111655026], [5.336978689315117, 13.244515503987373], [5.33653960881594, 13.236292978238396], [5.336934850063301, 13.226643285059595], [5.342887993286297, 13.202243408106824], [5.347015427320173, 13.189765488286696], [5.348227948161309, 13.183221991401808], [5.32888395183295, 13.157893969131408], [5.328436975286252, 13.156271698280307], [5.328568344653434, 13.154909602196426], [5.341351040218399, 13.145262321898713], [5.344199999830153, 13.142700002303286], [5.338900000035039, 13.140200000329799], [5.333545326855415, 13.14321931671816], [5.330371629247338, 13.140894675349045], [5.327599998740993, 13.13769999925563], [5.326979408972591, 13.129151837986967], [5.326669644688423, 13.119314726093762], [5.326844590705321, 13.118491222292107], [5.335000000949321, 13.10920000067955], [5.343908186913325, 13.105904613107441], [5.356603007922502, 13.105800875410125], [5.356997966782785, 13.107858032322383], [5.36132595592818, 13.11296283606606]]]}}, {"type": "Feature", "properties": {"name": "Gudu", "state": "so"}, "geometry": {"type": "Polygon", "coordinates": [[[4.728071285161718, 13.35089076989317], [4.76109126375087, 13.446748378135169], [4.760408963402995, 13.484828158392872], [4.763767667743707, 13.516280776936355], [4.746447316890226, 13.51763436903093], [4.727428331952012, 13.518529284398994], [4.723160314097242, 13.542936848756597], [4.758551591782577, 13.595122852337795], [4.704315069185157, 13.650782438758597], [4.749846652600979, 13.687528203363968], [4.807890041392341, 13.711815667758913], [4.801356069227268, 13.768725558237975], [4.744634967130082, 13.765739391759553], [4.728591585233517, 13.762276573804911], [4.708388808296888, 13.758525131030012], [4.667108044100985, 13.735763921367948], [4.64384795891624, 13.726054985349322], [4.636685037784332, 13.72306504711429], [4.46508027563425, 13.681269359893122], [4.444792527153481, 13.674646263114596], [4.428223828766704, 13.667317732727213], [4.394354468384051, 13.653460349115846], [4.377786259228515, 13.640852167893286], [4.374746530028403, 13.635487952007452], [4.36909477030747, 13.620974466198732], [4.348835016822591, 13.606697714328106], [4.333449036643799, 13.588493024133811], [4.313246260606491, 13.564811610167737], [4.287695690303906, 13.541127834581971], [4.232408444793919, 13.499422486058961], [4.142499922933155, 13.476943968389492], [4.126472938375457, 13.468159089370545], [4.126404704113838, 13.249674072800246], [4.178570395607323, 13.254068556918412], [4.213913641401462, 13.263686177575096], [4.258026999346612, 13.264426462611198], [4.300238917991692, 13.25961456895726], [4.374447310295182, 13.201090244319346], [4.391845489377886, 13.197134640151546], [4.407076012747837, 13.19554189494255], [4.429755687175259, 13.192668034002622], [4.467546761673759, 13.180518868551019], [4.497530336755688, 13.15996189272721], [4.503440699228918, 13.171317519787749], [4.511322213749224, 13.184093253700723], [4.536162982435712, 13.200850877166317], [4.588918256872091, 13.229508319153638], [4.601362312720596, 13.239664535689826], [4.619781029870694, 13.248335992212333], [4.651363107621364, 13.25850567519683], [4.695433539126554, 13.254980104348363], [4.701197888571755, 13.284975098122345], [4.711620566136276, 13.303119807133442], [4.728071285161718, 13.35089076989317]]]}}, {"type": "Feature", "properties": {"name": "Tureta", "state": "so"}, "geometry": {"type": "Polygon", "coordinates": [[[5.674533037369827, 12.734807395444989], [5.661260537743658, 12.721933638126927], [5.65213363665805, 12.718131354878153], [5.637302422169114, 12.692163025203513], [5.634355192737985, 12.69142103505277], [5.628365663844363, 12.689473296855226], [5.622471206780801, 12.68752554426851], [5.61900803269458, 12.681200571848933], [5.603646971830358, 12.677283367833184], [5.576505579968568, 12.67930243575887], [5.575970799912511, 12.683360366587692], [5.574624820579061, 12.689969951052433], [5.574425882448566, 12.69356288112209], [5.578000002298324, 12.70149999892584], [5.576800000020057, 12.721400000209883], [5.579135901800498, 12.723515326171423], [5.581417626622226, 12.728059414310565], [5.58170284301184, 12.731676080187015], [5.575800001568894, 12.750999998251359], [5.532520519306559, 12.784173057640544], [5.506827157347459, 12.721282912076788], [5.488344014564689, 12.692220591706985], [5.496452409151402, 12.670724686794927], [5.45980000136899, 12.63709999956535], [5.458700001004274, 12.633900002183395], [5.458534307212574, 12.63213261402899], [5.458799999320547, 12.62880000081941], [5.461983070562326, 12.622782046154555], [5.45165123261836, 12.613599143385784], [5.448989218677525, 12.613088867157558], [5.448573832616319, 12.600873408181315], [5.428453690785261, 12.610305526578827], [5.374026708865586, 12.620816833230322], [5.374600114803513, 12.633076663857025], [5.382857866997028, 12.678783637554886], [5.374272170724169, 12.685396564799703], [5.364807060697331, 12.681127914721515], [5.353534674885395, 12.622384694198331], [5.336017117096333, 12.616990720645276], [5.308782949373665, 12.617881925410586], [5.291253024107846, 12.622520924401215], [5.271959950991004, 12.605075581273127], [5.26157029473336, 12.452449788726824], [5.332934251014933, 12.456558440419712], [5.337788958693523, 12.437901387638988], [5.314606384277283, 12.368089035280775], [5.294606629292559, 12.37488145461549], [5.289838180087997, 12.369315418271981], [5.292036716721157, 12.361479815940811], [5.287262325695849, 12.359001394998415], [5.276165744753371, 12.342041245107453], [5.292868167831728, 12.348439418744249], [5.311578238345078, 12.35577355010929], [5.341824464027866, 12.342084551061248], [5.348032137872906, 12.345550779245116], [5.352807206987052, 12.343957970184249], [5.384537242999386, 12.32426108528091], [5.39261931892645, 12.329487383835726], [5.39646995332572, 12.344877203220392], [5.422277869128379, 12.353262235563761], [5.43867349658467, 12.343040293874537], [5.469656470269911, 12.25259491362442], [5.475761024251938, 12.252433949367344], [5.500670084756678, 12.25710443632073], [5.519275897764544, 12.260593000966253], [5.541099998566153, 12.272842643173476], [5.566670184881161, 12.351511994782754], [5.652600001688768, 12.348299998646098], [5.691546668144269, 12.321700888984878], [5.750572373816055, 12.323924794593665], [5.772623778264801, 12.383487566398117], [5.765153279999936, 12.409535243256926], [5.735906600409351, 12.448566272415576], [5.723343045345302, 12.473693380744976], [5.717236595592453, 12.486925722044475], [5.728314097417694, 12.551139775780086], [5.725484097313313, 12.576486351963638], [5.723075590566111, 12.620634885991251], [5.689997315223991, 12.627355332582567], [5.677433761059262, 12.63192389756989], [5.694111665021353, 12.689136611365598], [5.686345871664685, 12.713864632047205], [5.674533037369827, 12.734807395444989]]]}}, {"type": "Feature", "properties": {"name": "Shagari", "state": "so"}, "geometry": {"type": "Polygon", "coordinates": [[[5.276165744753371, 12.342041245107453], [5.287262325695849, 12.359001394998415], [5.292036716721157, 12.361479815940811], [5.289838180087997, 12.369315418271981], [5.294606629292559, 12.37488145461549], [5.314606384277283, 12.368089035280775], [5.337788958693523, 12.437901387638988], [5.332934251014933, 12.456558440419712], [5.26157029473336, 12.452449788726824], [5.271959950991004, 12.605075581273127], [5.291253024107846, 12.622520924401215], [5.225280392875902, 12.652263858890024], [5.199791000754146, 12.67721806895878], [5.180644026100993, 12.765174222012774], [5.170048889144994, 12.76714377956182], [5.150749027945324, 12.77167294435094], [5.139986163830429, 12.776592174789073], [5.137518316217381, 12.780741879634093], [5.131086782229261, 12.790966994131509], [5.1295135792883, 12.798847494216545], [5.120299998845894, 12.800099998915869], [5.116999998651067, 12.798700000904375], [5.091499999025757, 12.782999999950107], [5.08520000077948, 12.774099997816677], [5.095037681044175, 12.752335725313515], [5.090331623205884, 12.750666637555355], [5.099068524292989, 12.738794941733204], [5.086988166870469, 12.73330467597009], [5.079692667682536, 12.720972284443405], [5.079132380155272, 12.709042477128662], [5.08012898906162, 12.70470394972756], [5.089003160867207, 12.689108764757748], [5.101658125721997, 12.670086541360831], [5.097965480622463, 12.667045142119662], [5.084308913825339, 12.663775712579138], [5.077210554123837, 12.667491400108077], [5.0688599028623, 12.66995929538524], [5.057305611065146, 12.677461502846143], [5.048533435869444, 12.683304742619839], [5.043152188622628, 12.688247344639308], [5.041277070680337, 12.665734721080582], [5.016531704774422, 12.67212786570849], [5.004138698042539, 12.672146200187058], [4.996497530037004, 12.665255020003201], [4.960717871132886, 12.636239100154398], [4.95786571443125, 12.626720811416362], [4.957352325649367, 12.615643526327744], [4.956814703735631, 12.608209037816891], [4.951750797561317, 12.61082131115461], [4.946147860235612, 12.618158114405503], [4.941826431644529, 12.638226580292496], [4.934138315430971, 12.645976392696411], [4.916933397058699, 12.640859076685103], [4.906501946607591, 12.633753161779055], [4.898142330903909, 12.628751426637052], [4.867599999840195, 12.629000001049235], [4.829444285325565, 12.617113972731715], [4.828404327297903, 12.599433598082157], [4.827971748897141, 12.582293322079181], [4.829777737752465, 12.564013989054388], [4.872987806741946, 12.552902950610758], [4.884443352079074, 12.509478351045118], [4.880834434761425, 12.501840901736273], [4.883747248037139, 12.497193389763197], [4.88270227808772, 12.493408272773593], [4.891740461053473, 12.474874999981296], [4.899197482977513, 12.442222788351046], [4.905495069242079, 12.428299586057108], [4.947646016550493, 12.399514749705986], [4.954815976676059, 12.45816725201712], [4.947282849623832, 12.488886262091398], [4.945424843082094, 12.50452622700385], [4.953969950253054, 12.513425074407735], [4.95676268604916, 12.515745400829644], [4.955098927673419, 12.521952171755345], [4.958664123550534, 12.525606556097728], [4.965853936210237, 12.529376899024726], [4.999448147214252, 12.53242712691042], [5.016044754262055, 12.52867209584059], [5.060778060758935, 12.491576766554601], [5.071409759652738, 12.476473180692778], [5.071904679057752, 12.418218751594168], [5.122010144252783, 12.41443663384365], [5.130536166910645, 12.404998969327039], [5.136240480313973, 12.396084996225625], [5.138526350111022, 12.376713522011471], [5.11852430904969, 12.346565766696813], [5.119807779205701, 12.340854011403565], [5.129005984838386, 12.326992034055195], [5.124100525718745, 12.285797163208542], [5.12800687132011, 12.285681663278183], [5.133470723994776, 12.288787709385304], [5.147715273840845, 12.306466014694877], [5.160244080000325, 12.316112444233966], [5.181869850613168, 12.322488582682013], [5.188619150153727, 12.322922046914982], [5.199515453875165, 12.322904343760513], [5.203597103423647, 12.32247722694251], [5.241628344572518, 12.331262201289633], [5.264017775400077, 12.338019024558378], [5.276165744753371, 12.342041245107453]]]}}, {"type": "Feature", "properties": {"name": "Bodinga", "state": "so"}, "geometry": {"type": "Polygon", "coordinates": [[[5.08520000077948, 12.774099997816677], [5.091499999025757, 12.782999999950107], [5.116999998651067, 12.798700000904375], [5.120299998845894, 12.800099998915869], [5.1295135792883, 12.798847494216545], [5.131086782229261, 12.790966994131509], [5.137518316217381, 12.780741879634093], [5.139986163830429, 12.776592174789073], [5.150749027945324, 12.77167294435094], [5.170048889144994, 12.76714377956182], [5.180644026100993, 12.765174222012774], [5.199791000754146, 12.67721806895878], [5.225280392875902, 12.652263858890024], [5.291253024107846, 12.622520924401215], [5.308782949373665, 12.617881925410586], [5.336017117096333, 12.616990720645276], [5.353534674885395, 12.622384694198331], [5.364807060697331, 12.681127914721515], [5.374272170724169, 12.685396564799703], [5.383197290922283, 12.726526224905399], [5.322696494747504, 12.76535045585888], [5.315082114847769, 12.776320609208824], [5.313942679211323, 12.77862232236231], [5.310269138410035, 12.782106404786816], [5.296053675336907, 12.796010644875423], [5.275250562263693, 12.81297186585897], [5.270560078884557, 12.822986885236617], [5.270407806575065, 12.823202361000199], [5.258156400797304, 12.840538370849174], [5.257629342320342, 12.86073184070193], [5.254442063150748, 12.872179500783375], [5.257714949685237, 12.876327371910747], [5.254770920941269, 12.880940652089464], [5.249993088210488, 12.883619233340994], [5.247212861084734, 12.890081974703435], [5.245491352743784, 12.902923399595238], [5.241507515259684, 12.909142766425589], [5.236203071014984, 12.931558337847036], [5.227632681203318, 12.9372429030376], [5.209616393581769, 12.945780110563703], [5.18782146858598, 12.949580874857531], [5.185635322811947, 12.95132653718997], [5.182972048021668, 12.953897618880035], [5.180727709815983, 12.955451239083459], [5.179240923629777, 12.959724357892867], [5.180001500069238, 12.962874445599255], [5.17653137602224, 12.966858322653536], [5.169493309568622, 12.972622801601062], [5.167618385879848, 12.975027387304124], [5.169020696048335, 12.978508481281438], [5.169156621381035, 12.981934703124125], [5.151214250837029, 12.992760810263235], [5.147620227191794, 12.993602536128208], [5.141714439569796, 12.993264799331087], [5.136791157685821, 12.992792970019593], [5.128937827918492, 12.997763074206546], [5.10971549097718, 12.992429069246214], [5.108445441404058, 12.991524198383104], [5.1098072236245, 12.987287090227085], [5.117538956058013, 12.986523079276765], [5.116866214604158, 12.981211935082797], [5.12028663132304, 12.975813257176128], [5.118733596578295, 12.972087993666037], [5.118136276767814, 12.967198501109976], [5.106977060742793, 12.966510974801679], [5.106199997931583, 12.931100000164918], [5.057934580716392, 12.933655312242934], [5.073821652347419, 12.904541978729412], [5.085512433352164, 12.8861331694103], [5.086795905306815, 12.870215297797813], [5.093641080671375, 12.862012682139607], [5.102722607362466, 12.857410799069157], [5.089066138591477, 12.846106506210333], [5.072267142714509, 12.844745454239387], [5.066632579829729, 12.841395172948921], [5.061454873443722, 12.83789260585911], [5.058554137163753, 12.834530139654248], [5.067422824903474, 12.808386664313161], [5.054432492065928, 12.78526759372454], [5.068178743754061, 12.776183027324919], [5.069282515875443, 12.775698376379012], [5.08520000077948, 12.774099997816677]]]}}, {"type": "Feature", "properties": {"name": "Tangaza", "state": "so"}, "geometry": {"type": "Polygon", "coordinates": [[[5.070968035146734, 13.172954402823507], [5.080573209186298, 13.175280207015987], [5.088337959329408, 13.179139147553656], [5.095790192363552, 13.182643586132656], [5.103851699896097, 13.188316488914893], [5.104042604382755, 13.1885116139199], [5.106688023133813, 13.190312385808], [5.13471255913737, 13.249599480331824], [5.127599999140671, 13.252300002343304], [5.112300001344011, 13.264099999715256], [5.097615630856751, 13.2891153951594], [5.07763059417664, 13.303379027719984], [5.071865742909779, 13.310274089377799], [5.069373916672987, 13.319499545367762], [5.070790194212123, 13.332632027745944], [5.12591522091077, 13.335230910178439], [5.12115256423948, 13.381172400086257], [5.129976010684402, 13.380132755022657], [5.151246889032734, 13.378904594971118], [5.15366280169701, 13.389517930608065], [5.15446108581051, 13.398752131605647], [5.146814595617116, 13.400863154311196], [5.142943102342372, 13.401931977878519], [5.119084414014537, 13.408028152877023], [5.119024928357817, 13.425338730797819], [5.153925945126332, 13.42954494004698], [5.168027819328472, 13.427637505866244], [5.179699446572272, 13.473510838854168], [5.183990283824585, 13.520001595996916], [5.173306558251113, 13.549934564428668], [5.171680449992834, 13.55540370871421], [5.170398734414107, 13.563608135607012], [5.167517987365272, 13.586008900590343], [5.152791412593672, 13.630971979373385], [5.149488793573028, 13.70589074616106], [5.157771456987177, 13.727835571954131], [5.158419948222104, 13.74324727903877], [5.077932117972921, 13.751699834279975], [5.005710552000437, 13.73608118509867], [4.950179262862719, 13.734384195873986], [4.90888240979541, 13.745928096904208], [4.873527551055702, 13.78142202590584], [4.839505079296032, 13.775277826210754], [4.804246070299939, 13.769129528305143], [4.801356069227268, 13.768725558237975], [4.807890041392341, 13.711815667758913], [4.749846652600979, 13.687528203363968], [4.704315069185157, 13.650782438758597], [4.758551591782577, 13.595122852337795], [4.723160314097242, 13.542936848756597], [4.727428331952012, 13.518529284398994], [4.746447316890226, 13.51763436903093], [4.763767667743707, 13.516280776936355], [4.760408963402995, 13.484828158392872], [4.76109126375087, 13.446748378135169], [4.728071285161718, 13.35089076989317], [4.797498692610645, 13.338040412035411], [4.854426044326544, 13.33354205532163], [4.860202122729845, 13.308895444868938], [4.876024031284089, 13.309932204907398], [4.909775100240722, 13.306848079775136], [4.935072127376827, 13.292997682996713], [4.95320579271322, 13.296525697303139], [4.96224355479626, 13.290530873201305], [4.964799999120714, 13.286499999375508], [4.949999999200656, 13.273699999055736], [4.941495641210906, 13.2581353091972], [4.951795803233779, 13.248318855630714], [4.959556137705647, 13.242723461818343], [4.964392570260941, 13.236290584243136], [4.967237168160807, 13.223123388033969], [4.976339051905768, 13.21822642211174], [5.003673317769426, 13.19534033079168], [5.015797854387529, 13.18680974407448], [5.070968035146734, 13.172954402823507]]]}}, {"type": "Feature", "properties": {"name": "Gada", "state": "so"}, "geometry": {"type": "Polygon", "coordinates": [[[5.981809783294921, 13.712673590413942], [5.859496297716021, 13.758683375737235], [5.85398212797287, 13.75923743905662], [5.838348747896418, 13.760874696210294], [5.824978340877806, 13.76380031493261], [5.712039794800717, 13.807989817576072], [5.70416810717245, 13.814612663443711], [5.694499235951014, 13.81698063235035], [5.692974676440201, 13.815193858409884], [5.631608975274048, 13.83633168655814], [5.557167683741682, 13.87526150781241], [5.5444042831312, 13.880037864755707], [5.530000892327394, 13.885713987110876], [5.48545058437702, 13.877492136752778], [5.451741276338907, 13.871105305365575], [5.421999223185651, 13.860377949183032], [5.419892269013076, 13.859696172240604], [5.428100000914355, 13.835999998601096], [5.43246477143208, 13.783773137020717], [5.434047073713543, 13.77582906835687], [5.445300001793669, 13.759399998711046], [5.448021340412595, 13.759523393789664], [5.457108670428852, 13.763510485020902], [5.462667091313278, 13.765176107691275], [5.471693383442926, 13.76432408279021], [5.471744133984657, 13.774521590798827], [5.475146043555128, 13.776733747664366], [5.481374134708574, 13.775133615424068], [5.490477085049463, 13.7745460991232], [5.482599999690308, 13.755899999185658], [5.471299998396262, 13.748300001244104], [5.46510000206348, 13.747200000879388], [5.460804393907722, 13.733144279884641], [5.450343868374887, 13.725718465334978], [5.449477064914674, 13.71332650811189], [5.448764551842658, 13.698142440121558], [5.451877927424448, 13.687703230319869], [5.459299998995789, 13.678100000614563], [5.468758265181862, 13.670554349603606], [5.474200619562964, 13.670734312938237], [5.489572528049791, 13.676647268156955], [5.492855715418955, 13.660114830435134], [5.500573755674338, 13.662437010359781], [5.521600001339038, 13.662399999660295], [5.52724504492295, 13.654823303152966], [5.514300724099201, 13.652032588133466], [5.51581681289565, 13.648154727658607], [5.521620560740359, 13.633384102294542], [5.530655555609428, 13.600251278573694], [5.536123360804481, 13.570686259663205], [5.529319621703223, 13.566981360401485], [5.526617876613784, 13.565854422643554], [5.524683708286545, 13.564797211122425], [5.530555804606763, 13.556297981067019], [5.534284309273517, 13.529156948934087], [5.530920465307304, 13.517523310852141], [5.534097853732987, 13.506427244321912], [5.558708908589324, 13.493872671686518], [5.575091640666756, 13.504923720853071], [5.573999468001091, 13.535514513683893], [5.560683239739774, 13.556581408705085], [5.545400000809423, 13.568999997551884], [5.585744283871634, 13.58516086058529], [5.591999705422097, 13.586225469929559], [5.598488360749286, 13.587958179326563], [5.60442074222351, 13.594157564120337], [5.611956951252353, 13.611666350821508], [5.623729948278537, 13.60743296855668], [5.632573300317631, 13.611855298383375], [5.642224079877451, 13.618629129630676], [5.644030444649331, 13.617751338253697], [5.650899998835939, 13.611900001883612], [5.658199999130716, 13.607400000309838], [5.677949086081526, 13.602361538654122], [5.689335648021768, 13.601279165900849], [5.695819959623464, 13.592256415301392], [5.675945278751669, 13.583298191058702], [5.681677306562506, 13.548168667350183], [5.701743040309111, 13.516145732939265], [5.703294582179296, 13.501070841746014], [5.696470816974681, 13.491502077658822], [5.701962319305665, 13.483934986810254], [5.743663225177727, 13.50013107089228], [5.761751722963709, 13.506956946805701], [5.76984639209735, 13.502479001105087], [5.772264721239935, 13.50179824399379], [5.774088851219574, 13.503468238268624], [5.775352819576995, 13.505737291642731], [5.776432143628597, 13.5133572779161], [5.775654530432291, 13.525591342066832], [5.788781956821879, 13.543186468181034], [5.794925618722402, 13.55937542873312], [5.800021922973428, 13.577011556738], [5.821528949801234, 13.578719259586194], [5.833297556337186, 13.579195082786896], [5.836710339610534, 13.572968995322924], [5.849960135851632, 13.570955273866844], [5.862305028854053, 13.570037433880543], [5.877027471240865, 13.568651389749903], [5.900697702137279, 13.573069245449346], [5.915372910331598, 13.565041318602027], [5.924539612712977, 13.593845175614433], [5.926800001119204, 13.612399998860894], [5.92399999880098, 13.621599998641102], [5.888549715696854, 13.619662370621938], [5.88940000220839, 13.62799999880093], [5.91169999905577, 13.64730000119414], [5.938861338779816, 13.648063654214297], [5.952454021336052, 13.671364225978323], [5.959420785041232, 13.677171812129473], [5.970219753338995, 13.683396143217465], [5.970140839628073, 13.693887611723937], [5.971384862821196, 13.696762663366258], [5.974530166134286, 13.69849174489815], [5.981809783294921, 13.712673590413942]]]}}, {"type": "Feature", "properties": {"name": "Tambuwal", "state": "so"}, "geometry": {"type": "Polygon", "coordinates": [[[5.124100525718745, 12.285797163208542], [5.129005984838386, 12.326992034055195], [5.119807779205701, 12.340854011403565], [5.11852430904969, 12.346565766696813], [5.138526350111022, 12.376713522011471], [5.136240480313973, 12.396084996225625], [5.130536166910645, 12.404998969327039], [5.122010144252783, 12.41443663384365], [5.071904679057752, 12.418218751594168], [5.071409759652738, 12.476473180692778], [5.060778060758935, 12.491576766554601], [5.016044754262055, 12.52867209584059], [4.999448147214252, 12.53242712691042], [4.965853936210237, 12.529376899024726], [4.958664123550534, 12.525606556097728], [4.955098927673419, 12.521952171755345], [4.95676268604916, 12.515745400829644], [4.953969950253054, 12.513425074407735], [4.945424843082094, 12.50452622700385], [4.947282849623832, 12.488886262091398], [4.954815976676059, 12.45816725201712], [4.947646016550493, 12.399514749705986], [4.905495069242079, 12.428299586057108], [4.899197482977513, 12.442222788351046], [4.891740461053473, 12.474874999981296], [4.88270227808772, 12.493408272773593], [4.883747248037139, 12.497193389763197], [4.880834434761425, 12.501840901736273], [4.884443352079074, 12.509478351045118], [4.872987806741946, 12.552902950610758], [4.829777737752465, 12.564013989054388], [4.827971748897141, 12.582293322079181], [4.828404327297903, 12.599433598082157], [4.829444285325565, 12.617113972731715], [4.867599999840195, 12.629000001049235], [4.862599998591122, 12.648699999405494], [4.870320822248175, 12.660290106703087], [4.870399482350251, 12.661751059863548], [4.870124597372296, 12.66444012001557], [4.879050970326091, 12.689006156608912], [4.880250274730429, 12.720420614220018], [4.860868811746286, 12.726694793829722], [4.843197211781956, 12.719912293117886], [4.837780767768265, 12.727113742105587], [4.832574844253713, 12.734858827672781], [4.810922959127311, 12.745428442768457], [4.804194914163986, 12.745112134117733], [4.787178499987817, 12.747675328753473], [4.750326259249505, 12.750909215288118], [4.730348161738334, 12.701841414849468], [4.730444673383033, 12.699805786807644], [4.730847065139983, 12.691101553593853], [4.731931972182792, 12.672115020691706], [4.75745667168809, 12.63697051787517], [4.793289137883448, 12.577756439308303], [4.794689747433949, 12.575441617636614], [4.794911445606772, 12.563793253156177], [4.795889500600026, 12.51239919256875], [4.811936707313237, 12.503556599557498], [4.803132702412313, 12.485234751082942], [4.781608605552776, 12.475277207377246], [4.769369473722293, 12.469615103654178], [4.758514092751227, 12.451379287923828], [4.757453541148038, 12.44959761403868], [4.753997118272423, 12.436643122781959], [4.749819278137238, 12.42098394205533], [4.75387713881895, 12.363726621886144], [4.709199998581141, 12.364899998835938], [4.703000001349039, 12.38390000178373], [4.701365325249583, 12.386413732807569], [4.699766288383557, 12.388532765774585], [4.691144436666491, 12.399958087595735], [4.68479047100351, 12.397781996242202], [4.681244368632747, 12.396558973118147], [4.664342282570317, 12.412276095365542], [4.629810477971205, 12.43293946278601], [4.599341234810197, 12.400652326443776], [4.597093150928231, 12.403132376957672], [4.59581998520423, 12.401994267821237], [4.591256534661397, 12.398442604042998], [4.587833946979117, 12.395935515411736], [4.585770708851157, 12.388917866266581], [4.586416948183683, 12.38068139473063], [4.590190037640184, 12.36384336467961], [4.592519297927311, 12.346801725419368], [4.576490153198051, 12.333016244404178], [4.559918919622476, 12.304762211307036], [4.556584477191905, 12.304222520053315], [4.548545784560361, 12.3014877158854], [4.549080072687275, 12.300783847096909], [4.551890302095785, 12.297081652096608], [4.557093738085598, 12.289848004681744], [4.556326565118923, 12.288984579974453], [4.552036524665937, 12.28415629617615], [4.549203694395032, 12.250755803637503], [4.548676402094316, 12.250851499597104], [4.543672206407223, 12.251759685361264], [4.523663283733583, 12.255804117366154], [4.521122757409387, 12.251402331652343], [4.53025048317329, 12.239621642724671], [4.562149196927919, 12.22998702937798], [4.555940631854696, 12.212892328318333], [4.552585096724897, 12.154313090177027], [4.55090716683236, 12.131805501922429], [4.552319659125033, 12.097726129157593], [4.574841791215761, 12.074708071320458], [4.588181817337045, 12.03882752467058], [4.602917114633158, 12.042895730253804], [4.612127205706031, 12.046033770642055], [4.628051747590121, 12.05434358908542], [4.633934321012134, 12.063699092439208], [4.638569075202724, 12.073519110918255], [4.642935728001476, 12.081675092231762], [4.640064028132429, 12.096628637901347], [4.628061018701089, 12.113815717321529], [4.652256175781929, 12.148548851348437], [4.665114305580801, 12.17046580265469], [4.678312218134408, 12.16724236174565], [4.697586634815366, 12.157561361367755], [4.699480541393939, 12.168326150931193], [4.703177836887733, 12.225366317201804], [4.757488176738036, 12.236647087393237], [4.875030323590636, 12.229728729697172], [4.933583687337375, 12.230651819925583], [4.950399998760986, 12.23129999999503], [4.952949494923303, 12.314414079046571], [4.966848472179322, 12.307863787783617], [4.997599999940121, 12.300700000604593], [5.038448001374206, 12.298296010252727], [5.064399999360546, 12.297400001309086], [5.084944098691267, 12.293941747413783], [5.102097787183197, 12.284901751414736], [5.11670000100429, 12.283399998711047], [5.124100525718745, 12.285797163208542]]]}}, {"type": "Feature", "properties": {"name": "Goronyo", "state": "so"}, "geometry": {"type": "Polygon", "coordinates": [[[5.915372910331598, 13.565041318602027], [5.900697702137279, 13.573069245449346], [5.877027471240865, 13.568651389749903], [5.862305028854053, 13.570037433880543], [5.849960135851632, 13.570955273866844], [5.836710339610534, 13.572968995322924], [5.833297556337186, 13.579195082786896], [5.821528949801234, 13.578719259586194], [5.800021922973428, 13.577011556738], [5.794925618722402, 13.55937542873312], [5.788781956821879, 13.543186468181034], [5.775654530432291, 13.525591342066832], [5.776432143628597, 13.5133572779161], [5.775352819576995, 13.505737291642731], [5.774088851219574, 13.503468238268624], [5.772264721239935, 13.50179824399379], [5.76984639209735, 13.502479001105087], [5.761751722963709, 13.506956946805701], [5.743663225177727, 13.50013107089228], [5.701962319305665, 13.483934986810254], [5.696470816974681, 13.491502077658822], [5.703294582179296, 13.501070841746014], [5.701743040309111, 13.516145732939265], [5.681677306562506, 13.548168667350183], [5.675945278751669, 13.583298191058702], [5.695819959623464, 13.592256415301392], [5.689335648021768, 13.601279165900849], [5.677949086081526, 13.602361538654122], [5.658199999130716, 13.607400000309838], [5.650899998835939, 13.611900001883612], [5.644030444649331, 13.617751338253697], [5.642224079877451, 13.618629129630676], [5.632573300317631, 13.611855298383375], [5.623729948278537, 13.60743296855668], [5.611956951252353, 13.611666350821508], [5.60442074222351, 13.594157564120337], [5.598488360749286, 13.587958179326563], [5.591999705422097, 13.586225469929559], [5.585744283871634, 13.58516086058529], [5.545400000809423, 13.568999997551884], [5.560683239739774, 13.556581408705085], [5.573999468001091, 13.535514513683893], [5.575091640666756, 13.504923720853071], [5.558708908589324, 13.493872671686518], [5.551018734726881, 13.483929104344725], [5.533644756400463, 13.453639313703434], [5.504328898260098, 13.394465896184215], [5.50409235677688, 13.394288230617406], [5.485311565376492, 13.377247041917485], [5.497165549050919, 13.336164545857173], [5.507351144639642, 13.327769978901472], [5.51020463863324, 13.324734502595277], [5.52213596310429, 13.310900736979477], [5.523541084553472, 13.306206103229158], [5.53850560285133, 13.317541947003292], [5.54635833906616, 13.314625238763824], [5.589877257729313, 13.28721002132545], [5.607060703888408, 13.292058618110786], [5.606765980765431, 13.294095316345818], [5.602487745712949, 13.293973878191991], [5.609235070342265, 13.301843188912073], [5.63614469612088, 13.29051521690377], [5.712144717804506, 13.289083274973223], [5.750856608146023, 13.304448338719908], [5.772557292285285, 13.30844583420793], [5.804537248095585, 13.310159046303], [5.851601116198594, 13.29114228179094], [5.860999499227546, 13.22064118004647], [5.819618949854714, 13.223514561647733], [5.772142065404068, 13.229679262288187], [5.744264401281157, 13.230100737658972], [5.733834443704666, 13.231701789006422], [5.721959234231349, 13.237895747290963], [5.716440984264068, 13.215257484845097], [5.719970528317276, 13.214936437666495], [5.705350112217957, 13.185335402706698], [5.721347369685418, 13.107001794996904], [5.765367948172297, 13.104795034962933], [5.78483358590131, 13.10672303034363], [5.806278778942556, 13.111221627176405], [5.853623168074819, 13.12118251366212], [5.901800565943404, 13.114677785651338], [5.913137589628093, 13.113277926135424], [5.940275400389453, 13.105582583869193], [5.997306826149156, 13.08746143259907], [6.023259832275471, 13.085413831882875], [6.011100001763737, 13.10790000188365], [6.011899999985076, 13.131299999095745], [6.015993555658099, 13.139404525698353], [5.997992975595423, 13.18247168701879], [5.983187407073217, 13.254462513933902], [5.991798693554927, 13.31545138207565], [6.028123952258625, 13.355499745017255], [6.056517777773252, 13.394157678733961], [6.050928689107764, 13.404125805661465], [6.042072831096334, 13.42346332327378], [6.036288310756959, 13.436093474034635], [6.01125201956512, 13.468593770386235], [5.98176926434013, 13.483752896578949], [5.963956120078933, 13.48727893417555], [5.961867081300795, 13.487707648189485], [5.915372910331598, 13.565041318602027]]]}}, {"type": "Feature", "properties": {"name": "Dange Shuni", "state": "so"}, "geometry": {"type": "Polygon", "coordinates": [[[5.588209408337548, 12.804081079078571], [5.576651095671593, 12.812865256626367], [5.571395874020425, 12.819697380130037], [5.568768024424855, 12.82810592704692], [5.56246185323198, 12.837039947835365], [5.548707324183738, 12.846031207774047], [5.546996029443278, 12.855856402750817], [5.542186384094407, 12.866398388874586], [5.543537432906248, 12.873904549755196], [5.544524160061997, 12.881251827409983], [5.544714303722174, 12.884032190333357], [5.548136892303773, 12.885515038388348], [5.546235453903137, 12.892002396893133], [5.549467898824503, 12.909424756947033], [5.546045311142223, 12.911092790699797], [5.558915275119887, 12.926364224229587], [5.555034872261615, 12.928415971719744], [5.551721806716046, 12.92856274827227], [5.540179514572969, 12.981005427358639], [5.448343509045742, 12.964149499899577], [5.423933413995883, 12.979266913737149], [5.413459965205277, 12.980219044873081], [5.398252505848518, 12.998311312617034], [5.370104891327742, 12.975862674922553], [5.362308995863543, 12.97317597908824], [5.349799234647037, 12.968673207602478], [5.345481271143797, 12.987952450045555], [5.318005494258216, 12.9996710956446], [5.313822331935114, 13.003469116106885], [5.311229229445416, 13.006312370419607], [5.309312920754735, 13.00949809556073], [5.308591542165971, 13.011379101364469], [5.307585767369289, 13.015549578750097], [5.304275247804469, 13.022592944908524], [5.300999510419103, 13.024241398621712], [5.292119394994131, 13.030498007277288], [5.283821899061422, 13.029986340697121], [5.277814956595023, 13.027335758938193], [5.269320185378319, 13.012531222837708], [5.26357359934218, 13.013465261412705], [5.251130064201163, 13.005532357832124], [5.241098717631758, 13.005451067213016], [5.238492912218192, 12.996451566786448], [5.225000799047677, 12.990917506737617], [5.222064464903156, 12.980690536938766], [5.217599999140702, 12.970899999135725], [5.21349999982516, 12.963599998840948], [5.205623374019524, 12.956898510857627], [5.200032306845515, 12.957627913197712], [5.199600000039993, 12.95389999758686], [5.198200897753281, 12.948903284259188], [5.209616393581769, 12.945780110563703], [5.227632681203318, 12.9372429030376], [5.236203071014984, 12.931558337847036], [5.241507515259684, 12.909142766425589], [5.245491352743784, 12.902923399595238], [5.247212861084734, 12.890081974703435], [5.249993088210488, 12.883619233340994], [5.254770920941269, 12.880940652089464], [5.257714949685237, 12.876327371910747], [5.254442063150748, 12.872179500783375], [5.257629342320342, 12.86073184070193], [5.258156400797304, 12.840538370849174], [5.270407806575065, 12.823202361000199], [5.270560078884557, 12.822986885236617], [5.275250562263693, 12.81297186585897], [5.296053675336907, 12.796010644875423], [5.310269138410035, 12.782106404786816], [5.313942679211323, 12.77862232236231], [5.315082114847769, 12.776320609208824], [5.322696494747504, 12.76535045585888], [5.383197290922283, 12.726526224905399], [5.374272170724169, 12.685396564799703], [5.382857866997028, 12.678783637554886], [5.374600114803513, 12.633076663857025], [5.374026708865586, 12.620816833230322], [5.377936976410354, 12.61913488156955], [5.415550672225777, 12.613696117282018], [5.448573832616319, 12.600873408181315], [5.448989218677525, 12.613088867157558], [5.45165123261836, 12.613599143385784], [5.461983070562326, 12.622782046154555], [5.458799999320547, 12.62880000081941], [5.458534307212574, 12.63213261402899], [5.458700001004274, 12.633900002183395], [5.45980000136899, 12.63709999956535], [5.496452409151402, 12.670724686794927], [5.488344014564689, 12.692220591706985], [5.506827157347459, 12.721282912076788], [5.532520519306559, 12.784173057640544], [5.575800001568894, 12.750999998251359], [5.58170284301184, 12.731676080187015], [5.581417626622226, 12.728059414310565], [5.579135901800498, 12.723515326171423], [5.576800000020057, 12.721400000209883], [5.578000002298324, 12.70149999892584], [5.574425882448566, 12.69356288112209], [5.574624820579061, 12.689969951052433], [5.575970799912511, 12.683360366587692], [5.576505579968568, 12.67930243575887], [5.603646971830358, 12.677283367833184], [5.61900803269458, 12.681200571848933], [5.622471206780801, 12.68752554426851], [5.628365663844363, 12.689473296855226], [5.634355192737985, 12.69142103505277], [5.637302422169114, 12.692163025203513], [5.65213363665805, 12.718131354878153], [5.661260537743658, 12.721933638126927], [5.674533037369827, 12.734807395444989], [5.649277917741756, 12.768875985338525], [5.620376442019221, 12.787068784696714], [5.588209408337548, 12.804081079078571]]]}}, {"type": "Feature", "properties": {"name": "Wamakko", "state": "so"}, "geometry": {"type": "Polygon", "coordinates": [[[4.964109868375772, 12.930994110389918], [4.966699998606089, 12.930799998021541], [4.971110213665497, 12.929952663084975], [4.981400002008513, 12.929000001349038], [5.027899998785983, 12.934500001374033], [5.106199997931583, 12.931100000164918], [5.106977060742793, 12.966510974801679], [5.118136276767814, 12.967198501109976], [5.118733596578295, 12.972087993666037], [5.12028663132304, 12.975813257176128], [5.116866214604158, 12.981211935082797], [5.117538956058013, 12.986523079276765], [5.1098072236245, 12.987287090227085], [5.108445441404058, 12.991524198383104], [5.10971549097718, 12.992429069246214], [5.128937827918492, 12.997763074206546], [5.136791157685821, 12.992792970019593], [5.141714439569796, 12.993264799331087], [5.147620227191794, 12.993602536128208], [5.151214250837029, 12.992760810263235], [5.153904564643994, 12.99121287107721], [5.157077290084942, 12.988668918335975], [5.16402942182043, 12.98641082230165], [5.169156621381035, 12.981934703124125], [5.169020696048335, 12.978508481281438], [5.167618385879848, 12.975027387304124], [5.169493309568622, 12.972622801601062], [5.17653137602224, 12.966858322653536], [5.180001500069238, 12.962874445599255], [5.179240923629777, 12.959724357892867], [5.180727709815983, 12.955451239083459], [5.182972048021668, 12.953897618880035], [5.185635322811947, 12.95132653718997], [5.18782146858598, 12.949580874857531], [5.198200897753281, 12.948903284259188], [5.199600000039993, 12.95389999758686], [5.200032306845515, 12.957627913197712], [5.205623374019524, 12.956898510857627], [5.21349999982516, 12.963599998840948], [5.217599999140702, 12.970899999135725], [5.222064464903156, 12.980690536938766], [5.225000799047677, 12.990917506737617], [5.238492912218192, 12.996451566786448], [5.241098717631758, 13.005451067213016], [5.247400000109963, 13.005600002138465], [5.245287076237616, 13.010679280424483], [5.247686103231104, 13.013661379269308], [5.237720031254469, 13.033850962252131], [5.226962346335256, 13.036412272808207], [5.227106507659244, 13.03652273293784], [5.22853274519008, 13.038514285206134], [5.229730670933748, 13.04035910139146], [5.21796365529849, 13.045401875296363], [5.217603067627522, 13.050496968160587], [5.197490491792792, 13.06666694582293], [5.191229461170735, 13.075838697897666], [5.211514791374555, 13.079621166383788], [5.210813142112841, 13.084165718573104], [5.221556759836631, 13.087897634368403], [5.233500165800081, 13.077306020056824], [5.243588981746143, 13.07979003298368], [5.229389437572536, 13.10678459073631], [5.249535052700594, 13.12064406257349], [5.254088887692035, 13.148802506730362], [5.273940688911694, 13.172216615204661], [5.27792141384225, 13.1813284220691], [5.257599998341277, 13.183600000739489], [5.243111205217986, 13.179684181679704], [5.233216914429079, 13.176403253407443], [5.22619519675095, 13.179084753858376], [5.19279593628346, 13.203133525591795], [5.198699999905102, 13.21040000006002], [5.194600000589617, 13.2137999976718], [5.187199999280608, 13.220600001888613], [5.17877895538453, 13.237764875248843], [5.161285726954759, 13.242669745312526], [5.157443674785839, 13.240945676601768], [5.149686957387246, 13.242854832984222], [5.13471255913737, 13.249599480331824], [5.106688023133813, 13.190312385808], [5.104042604382755, 13.1885116139199], [5.103851699896097, 13.188316488914893], [5.095790192363552, 13.182643586132656], [5.088337959329408, 13.179139147553656], [5.080573209186298, 13.175280207015987], [5.070968035146734, 13.172954402823507], [5.020502820448826, 13.139563769552353], [5.012911506360979, 13.133452055168277], [5.00301581982427, 13.131095765757038], [4.988048189872131, 13.129439226239356], [4.9736587070837, 13.123551008672166], [4.966096093959607, 13.116460991981228], [4.985312008842186, 13.084732233006207], [4.996979003678121, 13.083540006266333], [5.016371457276989, 13.079077410194373], [5.017462977034825, 13.028001177212616], [5.013007836342638, 13.013644801166663], [5.002614455992386, 13.015972707074809], [4.982954943316031, 13.02069935309271], [4.981737458217196, 12.99783075628443], [4.980077288136386, 12.957483932637444], [4.965761199020164, 12.955918822695537], [4.964631240439417, 12.95598499211377], [4.964899997436987, 12.9329000004347], [4.964109868375772, 12.930994110389918]]]}}, {"type": "Feature", "properties": {"name": "Illela", "state": "so"}, "geometry": {"type": "Polygon", "coordinates": [[[5.183990283824585, 13.520001595996916], [5.243412839630878, 13.512048721171595], [5.267864604767738, 13.516143168972121], [5.285951910052631, 13.520388220839777], [5.285789177728418, 13.531001284881427], [5.299641263433614, 13.535842372327693], [5.295299999395525, 13.55050000237327], [5.282099998616104, 13.549199998181393], [5.280805843614814, 13.577476911830047], [5.282124965594733, 13.578689853553954], [5.283651099818428, 13.585237269684285], [5.307223945828468, 13.608422348712452], [5.308043941374819, 13.610154895332187], [5.307295250375546, 13.613238799231226], [5.307330901300077, 13.615664313057664], [5.317776926164242, 13.616599861594409], [5.323548426119032, 13.61667776806462], [5.326495017930768, 13.62808717368415], [5.327358674663174, 13.6317586766217], [5.34031957718679, 13.632353009783628], [5.340645049029831, 13.629616755908614], [5.340600809579769, 13.627308466012948], [5.340425701684808, 13.625797221864332], [5.336239416915589, 13.625331364051249], [5.334617131675316, 13.606644712783293], [5.336108980145355, 13.599947867100411], [5.345112603064251, 13.595141820838421], [5.355855307976128, 13.591932386870212], [5.369410937564737, 13.57849936455409], [5.372299998845904, 13.568], [5.370723302038812, 13.561894532306894], [5.367898894818211, 13.548734209616157], [5.363586481930668, 13.536285072598048], [5.3567479516567, 13.532334478553366], [5.331778105075557, 13.528633635234144], [5.33619999873099, 13.504900001234091], [5.334218462212334, 13.494571413440042], [5.328060466017746, 13.484947300577517], [5.330459385092581, 13.484550955861948], [5.334199998231384, 13.484499997576904], [5.342, 13.481600001438949], [5.347600001938588, 13.485100000964337], [5.34840432230169, 13.486255403164364], [5.350099999415477, 13.48779999777173], [5.355199999880142, 13.500799999220646], [5.37130000129406, 13.503600000639551], [5.371061734011846, 13.496758962156434], [5.417599997841648, 13.50010000201354], [5.420483617325146, 13.49038477613658], [5.424272239872039, 13.491728419930666], [5.428589928182703, 13.492142127856937], [5.45083800536969, 13.483202387380345], [5.486696844184053, 13.48881181871053], [5.48490793705173, 13.49943283815503], [5.492233312617316, 13.535877373042354], [5.490250831810499, 13.560068977801109], [5.488844307418901, 13.570596450665732], [5.491192130612376, 13.571429095176654], [5.500994043040691, 13.57324800369247], [5.50686325343645, 13.57177672091899], [5.513032544216571, 13.570693661982943], [5.524683708286545, 13.564797211122425], [5.526617876613784, 13.565854422643554], [5.529319621703223, 13.566981360401485], [5.536123360804481, 13.570686259663205], [5.530655555609428, 13.600251278573694], [5.521620560740359, 13.633384102294542], [5.51581681289565, 13.648154727658607], [5.514300724099201, 13.652032588133466], [5.52724504492295, 13.654823303152966], [5.521600001339038, 13.662399999660295], [5.500573755674338, 13.662437010359781], [5.492855715418955, 13.660114830435134], [5.489572528049791, 13.676647268156955], [5.474200619562964, 13.670734312938237], [5.468758265181862, 13.670554349603606], [5.459299998995789, 13.678100000614563], [5.451877927424448, 13.687703230319869], [5.448764551842658, 13.698142440121558], [5.449477064914674, 13.71332650811189], [5.450343868374887, 13.725718465334978], [5.460804393907722, 13.733144279884641], [5.46510000206348, 13.747200000879388], [5.471299998396262, 13.748300001244104], [5.482599999690308, 13.755899999185658], [5.490477085049463, 13.7745460991232], [5.481374134708574, 13.775133615424068], [5.475146043555128, 13.776733747664366], [5.471744133984657, 13.774521590798827], [5.471693383442926, 13.76432408279021], [5.462667091313278, 13.765176107691275], [5.457108670428852, 13.763510485020902], [5.448021340412595, 13.759523393789664], [5.445300001793669, 13.759399998711046], [5.434047073713543, 13.77582906835687], [5.43246477143208, 13.783773137020717], [5.428100000914355, 13.835999998601096], [5.419892269013076, 13.859696172240604], [5.350397653429013, 13.834135462081974], [5.332954801423, 13.810195839266612], [5.281272459556419, 13.756080685575228], [5.267011676947391, 13.75053992467781], [5.252472752015933, 13.744856516914751], [5.247521939186186, 13.742921164180416], [5.224942364698393, 13.739227129628375], [5.204739586862502, 13.735994803417498], [5.17859481829629, 13.741997661163168], [5.158419948222104, 13.74324727903877], [5.157771456987177, 13.727835571954131], [5.149488793573028, 13.70589074616106], [5.152791412593672, 13.630971979373385], [5.167517987365272, 13.586008900590343], [5.170398734414107, 13.563608135607012], [5.171680449992834, 13.55540370871421], [5.173306558251113, 13.549934564428668], [5.183990283824585, 13.520001595996916]]]}}, {"type": "Feature", "properties": {"name": "Isa", "state": "so"}, "geometry": {"type": "Polygon", "coordinates": [[[6.144388405300731, 13.079048209207542], [6.190853311431226, 13.10076534104769], [6.229355021217316, 13.13545889681069], [6.261105669690949, 13.13579691059897], [6.258309332110059, 13.160332855876675], [6.300037315669613, 13.18245069324496], [6.327321070211269, 13.17955000283041], [6.333742673885354, 13.172136946063233], [6.336900000234891, 13.168599999690286], [6.347899999385504, 13.15729999929556], [6.355912950722143, 13.164134973650164], [6.369346605261683, 13.14902604671471], [6.362132411081973, 13.143994240042218], [6.359030961409815, 13.137130268846875], [6.402601602781772, 13.129135537774914], [6.412645467914047, 13.138048243731532], [6.4371213735526, 13.153363374420223], [6.448754913608411, 13.1583701358731], [6.45182098305196, 13.158092409037522], [6.453198266886545, 13.157197729291795], [6.450798960203883, 13.14094213437204], [6.46339598623581, 13.136312974863927], [6.464361566732975, 13.134037296184317], [6.466248142038182, 13.130642136025813], [6.464227865423709, 13.12821173618272], [6.460910418381161, 13.12456790088794], [6.452320110384846, 13.125665578303824], [6.452365363370859, 13.11693458036666], [6.462800000119955, 13.116900001433976], [6.475624905365123, 13.11956240478122], [6.481804577918979, 13.120835518344563], [6.50871287989554, 13.131519960677679], [6.520486953410227, 13.121819284032767], [6.519296178176148, 13.112948276042175], [6.523003981348722, 13.101906329813346], [6.518725746296184, 13.09343355601385], [6.526783089068374, 13.085238301306617], [6.519447034053428, 13.076946757986548], [6.52009576720593, 13.074176161700564], [6.521867597111964, 13.066608898182153], [6.525432793888399, 13.058042298113605], [6.528943141013201, 13.052912881724183], [6.536189795322855, 13.049048419349106], [6.542899684772692, 13.044245632230172], [6.546019232401704, 13.040627689316466], [6.551296491040262, 13.032534530144517], [6.560280015010733, 13.02774738313525], [6.574038297829247, 13.02539388701831], [6.58126297001013, 13.022535604134873], [6.606790565332346, 13.046604267073292], [6.65717722874615, 13.092758286565697], [6.683200001578882, 13.107200000179887], [6.684200000030046, 13.118299999445469], [6.685600000739498, 13.127700001254084], [6.687695734070928, 13.132893988966487], [6.743458595038192, 13.11846701613996], [6.792771964354699, 13.132260001997565], [6.753069698307968, 13.207041330792833], [6.748262537785934, 13.249290282620507], [6.744196504065485, 13.264388108324567], [6.73537079042967, 13.281849305601042], [6.712553535916982, 13.31145674013652], [6.679165839831683, 13.343887329136976], [6.66132580404269, 13.362428557332123], [6.65305311321066, 13.37092340858851], [6.630814954646496, 13.354076960883106], [6.62428408244449, 13.348404105764928], [6.606134046748934, 13.34638113028501], [6.594900384844948, 13.344604049237546], [6.591437956296716, 13.343767377562472], [6.579556564883603, 13.330333553051105], [6.567754438816337, 13.32005428227933], [6.562399997661828, 13.314800002218362], [6.559999999400475, 13.312899999135709], [6.55214517406057, 13.308632868911843], [6.539242775134028, 13.306480591606089], [6.535000000349783, 13.30590000008499], [6.515444368362978, 13.313582148397472], [6.502095591838156, 13.319245264757228], [6.494005423811302, 13.31984013121712], [6.479609685338744, 13.317460668974718], [6.416680359011423, 13.291478747845986], [6.416109927131458, 13.293629948663238], [6.414841186071953, 13.296411862017862], [6.408623016239233, 13.299528306985849], [6.406840417851072, 13.30195700081498], [6.406973591258293, 13.306457757819317], [6.406403160277648, 13.309302716347304], [6.362450002165929, 13.300622686587758], [6.323708205769151, 13.311262448803006], [6.281209996044538, 13.302124837691167], [6.245412190620129, 13.303830615990194], [6.21149616621517, 13.30451823672729], [6.20993362923366, 13.359340575007593], [6.206469366967781, 13.359092109413382], [6.200047670663537, 13.357923531246001], [6.160363377567876, 13.337961843664175], [6.146419312801072, 13.344134868429478], [6.130029425717453, 13.356479476346806], [6.116300002143419, 13.366900001833642], [6.099859256599473, 13.355875413419653], [6.0882560281932, 13.375761216207195], [6.056517777773252, 13.394157678733961], [6.028123952258625, 13.355499745017255], [5.991798693554927, 13.31545138207565], [5.983187407073217, 13.254462513933902], [5.997992975595423, 13.18247168701879], [6.015993555658099, 13.139404525698353], [6.011899999985076, 13.131299999095745], [6.011100001763737, 13.10790000188365], [6.026799999120726, 13.079500000724522], [6.046889104448667, 13.031196431570095], [6.102000001898602, 13.059799998770984], [6.113650082285517, 13.064680438751282], [6.144388405300731, 13.079048209207542]]]}}, {"type": "Feature", "properties": {"name": "Rabah", "state": "so"}, "geometry": {"type": "Polygon", "coordinates": [[[6.034077602699256, 12.784066278436057], [6.030171060146358, 12.795346479356567], [6.009253555107534, 12.879831672893431], [6.005788094045329, 12.919101791314688], [6.021200000779459, 12.926100000714484], [6.034879430141643, 12.933061137361676], [6.043884559424953, 12.93795398978483], [6.048729423124428, 12.948325019284255], [6.055399998711039, 12.96669999970527], [6.05719999988014, 12.985499999725278], [6.047699998855933, 13.028900001034287], [6.023259832275471, 13.085413831882875], [5.997306826149156, 13.08746143259907], [5.940275400389453, 13.105582583869193], [5.913137589628093, 13.113277926135424], [5.901800565943404, 13.114677785651338], [5.853623168074819, 13.12118251366212], [5.806278778942556, 13.111221627176405], [5.78483358590131, 13.10672303034363], [5.765367948172297, 13.104795034962933], [5.721347369685418, 13.107001794996904], [5.705350112217957, 13.185335402706698], [5.719970528317276, 13.214936437666495], [5.716440984264068, 13.215257484845097], [5.721959234231349, 13.237895747290963], [5.71175966137929, 13.246199732731554], [5.634325980959318, 13.256630898996832], [5.541631770389927, 13.196040099571007], [5.522168616588431, 13.178684998913639], [5.509056081173242, 13.173819090178938], [5.516609815290792, 13.162898492171735], [5.525332316433321, 13.158544696080924], [5.516483510006026, 13.152031018916432], [5.495238228161725, 13.1692256598364], [5.477557529756268, 13.16695788170091], [5.468018659133861, 13.164987671244091], [5.460391969314003, 13.16038991786047], [5.454300001344052, 13.153299998296347], [5.450220922057952, 13.150619150753244], [5.444702358227289, 13.143774350405977], [5.445196148983143, 13.142476159247394], [5.431480599250278, 13.143523265086685], [5.416032187235714, 13.146705716695521], [5.418273488430771, 13.127816211648906], [5.414451598162771, 13.126705162213511], [5.403812782933642, 13.132597820632952], [5.401046462024624, 13.130816020842758], [5.391463215255214, 13.120927623311218], [5.383844318060881, 13.11642484373158], [5.384024850666378, 13.111102075800204], [5.379372305187758, 13.109732643946415], [5.376735459673796, 13.114755481680163], [5.376022861166177, 13.116689283983305], [5.37407017669733, 13.11873850887514], [5.368988571865145, 13.117164026198907], [5.366378211385381, 13.116176798120762], [5.36132595592818, 13.11296283606606], [5.369399998211406, 13.107200000179887], [5.369738683793287, 13.089263878125507], [5.366156390904791, 13.088161165405495], [5.367332544961016, 13.086276870781035], [5.369319600619122, 13.085535633362838], [5.372405878728387, 13.0851650128551], [5.375280767593381, 13.083270724964052], [5.375113293144011, 13.079979949115398], [5.376058775592071, 13.079477610303513], [5.380942900094794, 13.082398072313254], [5.381960656559102, 13.082241214360579], [5.385355092763348, 13.081013247663293], [5.388779819932779, 13.078305483411384], [5.399695852081948, 13.08567304437554], [5.401130519857645, 13.084913994085582], [5.401414911568963, 13.081989290873139], [5.402962065646875, 13.08265906816149], [5.403053583356211, 13.083870463950802], [5.403993501698778, 13.084752110721354], [5.406391526847528, 13.08279895770579], [5.408892823844781, 13.080817175672166], [5.40979568921972, 13.08279895770579], [5.413717403335568, 13.09124559990454], [5.421346923321892, 13.0981905793318], [5.433825109341399, 13.100343482565734], [5.455858020131586, 13.10971881237333], [5.467337950586, 13.107288204786869], [5.474539645987932, 13.106246510168376], [5.477890930022454, 13.105274255802328], [5.47448735670622, 13.094655994578545], [5.470932412201137, 13.089903393227075], [5.470729665441752, 13.085173415220993], [5.473893156643896, 13.077235051856235], [5.476892676256057, 13.072299997846699], [5.478802829986648, 13.036397866568336], [5.513896361028287, 13.033971600908728], [5.529056875774245, 13.01014638264951], [5.548408741170533, 12.952045848237333], [5.547505177921664, 12.949257346449428], [5.546601614672852, 12.94588174834405], [5.551721806716046, 12.92856274827227], [5.555034872261615, 12.928415971719744], [5.558915275119887, 12.926364224229587], [5.546045311142223, 12.911092790699797], [5.549467898824503, 12.909424756947033], [5.546235453903137, 12.892002396893133], [5.548136892303773, 12.885515038388348], [5.544714303722174, 12.884032190333357], [5.544524160061997, 12.881251827409983], [5.543537432906248, 12.873904549755196], [5.542186384094407, 12.866398388874586], [5.546996029443278, 12.855856402750817], [5.548707324183738, 12.846031207774047], [5.56246185323198, 12.837039947835365], [5.568768024424855, 12.82810592704692], [5.571395874020425, 12.819697380130037], [5.576651095671593, 12.812865256626367], [5.588209408337548, 12.804081079078571], [5.6346804001804, 12.882928361554718], [5.674884543686801, 12.867935781711026], [5.681712693086354, 12.865173592287476], [5.688884638015679, 12.856550403278561], [5.733987466948065, 12.826781768863611], [5.81313276316655, 12.839669228252319], [5.832255026248504, 12.819369875819177], [5.836032163553568, 12.814770255442966], [5.847814536012095, 12.810546122705432], [5.883320047382313, 12.820349435378205], [5.947500002423226, 12.772500001373999], [5.950699999805181, 12.765299997596856], [5.953200000879406, 12.763999998800955], [5.958900001134168, 12.76079999962036], [5.961300001194161, 12.758599999790192], [5.961673507626301, 12.754693031857983], [5.986103859905256, 12.754733576893102], [6.024413255967033, 12.748793268794373], [6.034077602699256, 12.784066278436057]]]}}, {"type": "Feature", "properties": {"name": "Gwadabawa", "state": "so"}, "geometry": {"type": "Polygon", "coordinates": [[[5.336934850063301, 13.226643285059595], [5.33653960881594, 13.236292978238396], [5.336978689315117, 13.244515503987373], [5.388643264175357, 13.305198670082632], [5.403293242788948, 13.31405547867746], [5.416680279171601, 13.31212728544591], [5.421909233424458, 13.311017074178665], [5.429489684601322, 13.31002021076415], [5.44305368328088, 13.334439917768066], [5.504328898260098, 13.394465896184215], [5.533644756400463, 13.453639313703434], [5.551018734726881, 13.483929104344725], [5.558708908589324, 13.493872671686518], [5.534097853732987, 13.506427244321912], [5.530920465307304, 13.517523310852141], [5.534284309273517, 13.529156948934087], [5.530555804606763, 13.556297981067019], [5.524683708286545, 13.564797211122425], [5.513032544216571, 13.570693661982943], [5.50686325343645, 13.57177672091899], [5.500994043040691, 13.57324800369247], [5.491192130612376, 13.571429095176654], [5.488844307418901, 13.570596450665732], [5.490250831810499, 13.560068977801109], [5.492233312617316, 13.535877373042354], [5.48490793705173, 13.49943283815503], [5.486696844184053, 13.48881181871053], [5.45083800536969, 13.483202387380345], [5.428589928182703, 13.492142127856937], [5.424272239872039, 13.491728419930666], [5.420483617325146, 13.49038477613658], [5.417599997841648, 13.50010000201354], [5.371061734011846, 13.496758962156434], [5.37130000129406, 13.503600000639551], [5.355199999880142, 13.500799999220646], [5.350099999415477, 13.48779999777173], [5.34840432230169, 13.486255403164364], [5.347600001938588, 13.485100000964337], [5.342, 13.481600001438949], [5.334199998231384, 13.484499997576904], [5.330459385092581, 13.484550955861948], [5.328060466017746, 13.484947300577517], [5.334218462212334, 13.494571413440042], [5.33619999873099, 13.504900001234091], [5.331778105075557, 13.528633635234144], [5.3567479516567, 13.532334478553366], [5.363586481930668, 13.536285072598048], [5.367898894818211, 13.548734209616157], [5.370723302038812, 13.561894532306894], [5.372299998845904, 13.568], [5.369410937564737, 13.57849936455409], [5.355855307976128, 13.591932386870212], [5.345112603064251, 13.595141820838421], [5.336108980145355, 13.599947867100411], [5.334617131675316, 13.606644712783293], [5.336239416915589, 13.625331364051249], [5.340425701684808, 13.625797221864332], [5.340600809579769, 13.627308466012948], [5.340645049029831, 13.629616755908614], [5.34031957718679, 13.632353009783628], [5.327358674663174, 13.6317586766217], [5.326495017930768, 13.62808717368415], [5.323548426119032, 13.61667776806462], [5.317776926164242, 13.616599861594409], [5.307330901300077, 13.615664313057664], [5.307295250375546, 13.613238799231226], [5.308043941374819, 13.610154895332187], [5.307223945828468, 13.608422348712452], [5.283651099818428, 13.585237269684285], [5.282124965594733, 13.578689853553954], [5.280805843614814, 13.577476911830047], [5.282099998616104, 13.549199998181393], [5.295299999395525, 13.55050000237327], [5.299641263433614, 13.535842372327693], [5.285789177728418, 13.531001284881427], [5.285951910052631, 13.520388220839777], [5.267864604767738, 13.516143168972121], [5.243412839630878, 13.512048721171595], [5.183990283824585, 13.520001595996916], [5.179699446572272, 13.473510838854168], [5.168027819328472, 13.427637505866244], [5.153925945126332, 13.42954494004698], [5.119024928357817, 13.425338730797819], [5.119084414014537, 13.408028152877023], [5.142943102342372, 13.401931977878519], [5.146814595617116, 13.400863154311196], [5.15446108581051, 13.398752131605647], [5.15366280169701, 13.389517930608065], [5.151246889032734, 13.378904594971118], [5.129976010684402, 13.380132755022657], [5.12115256423948, 13.381172400086257], [5.12591522091077, 13.335230910178439], [5.070790194212123, 13.332632027745944], [5.069373916672987, 13.319499545367762], [5.071865742909779, 13.310274089377799], [5.07763059417664, 13.303379027719984], [5.097615630856751, 13.2891153951594], [5.112300001344011, 13.264099999715256], [5.127599999140671, 13.252300002343304], [5.13471255913737, 13.249599480331824], [5.164719581343661, 13.311156177715475], [5.167853929115608, 13.329989185552506], [5.167618259974745, 13.336194376369406], [5.176014568017933, 13.336547677733165], [5.179682432298478, 13.336185868782877], [5.186700001404006, 13.332600001089247], [5.190505931403663, 13.331947051015618], [5.190657095748406, 13.334042387746024], [5.190229272063277, 13.336470736235526], [5.191441437672268, 13.339731621317299], [5.194696698393955, 13.340687824583483], [5.201083268977754, 13.339737046027892], [5.20614209937844, 13.34018264661188], [5.209717051101052, 13.339663596597745], [5.211608732756872, 13.336829259063109], [5.213747851182461, 13.335441636622306], [5.220966964653769, 13.338607661214667], [5.220815919019515, 13.343195795449674], [5.223611559625851, 13.346368946269877], [5.274403276789826, 13.331558015090366], [5.27497504236436, 13.325591523230287], [5.276620842178147, 13.324985553740362], [5.281708201772119, 13.325103208446365], [5.282714305720674, 13.327749970784566], [5.286117066049826, 13.331083114594094], [5.292449113435907, 13.323305577890153], [5.295190863067944, 13.317866554597856], [5.290747274167416, 13.313074382177035], [5.285170436966155, 13.30520156140301], [5.280613378804446, 13.2957307487751], [5.284210351326692, 13.281273717008503], [5.288824154910856, 13.26527026231281], [5.300646617347581, 13.265315425366623], [5.317443420677364, 13.26950407715151], [5.313800008963312, 13.248002621623755], [5.303129840669669, 13.229057969249936], [5.297037900578687, 13.225244407603384], [5.294694696303225, 13.22342579226654], [5.296131631269816, 13.215800339014493], [5.336934850063301, 13.226643285059595]]]}}]}