{"type": "FeatureCollection", "features": [{"type": "Feature", "properties": {"name": "Jalingo", "state": "ta"}, "geometry": {"type": "Polygon", "coordinates": [[[11.442772074671552, 8.809143425728564], [11.463180033731646, 8.818120059093474], [11.473740762626164, 8.823599520401615], [11.480899119698677, 8.833850672970243], [11.481505964228916, 8.841225754065363], [11.479554746554356, 8.846327911104254], [11.47588500808672, 8.851353774157417], [11.472224806029999, 8.856379638109843], [11.454968523778405, 8.864414524810513], [11.44875639918854, 8.868099492397732], [11.428360527916084, 8.889708625552657], [11.42557996804112, 8.888633489643894], [11.412177938161392, 8.89694143839671], [11.397345354904246, 8.909370344266051], [11.39285262075191, 8.918168669948216], [11.38963838800123, 8.94997857115419], [11.394316145074072, 8.96097370137528], [11.389489438686667, 8.970327867437163], [11.32298501224858, 8.998918870209764], [11.318416446361937, 9.019096699952797], [11.299000044716365, 9.032421681315611], [11.271455602793878, 9.04769807640514], [11.2642007017011, 9.056411510582791], [11.25615663472098, 9.054854277802747], [11.248082687765873, 9.055464396764535], [11.244276713699435, 9.050572074941329], [11.23744649855712, 9.050264038254795], [11.235804781665365, 9.045152269261848], [11.23476137473773, 9.040646542603895], [11.230450709232912, 9.039188089558763], [11.23018274004147, 9.036055930736666], [11.23119041510563, 9.032420397983003], [11.21834659621851, 9.015579055728892], [11.221946716367938, 9.007699013398792], [11.225616454835574, 9.002674102727724], [11.21474983863419, 8.991458068435179], [11.218669441141856, 8.98125375165938], [11.22590973634533, 8.972929128576482], [11.227950599340716, 8.966100820896202], [11.229989554874123, 8.959272513215979], [11.250057220364454, 8.957060814105319], [11.252017021168626, 8.951958656167108], [11.255766869445495, 8.945206641573293], [11.259596824833636, 8.936728477237466], [11.27323149403827, 8.935479466404274], [11.285532392206164, 8.937828370582906], [11.299072516583408, 8.922921820785461], [11.303411418102485, 8.924110807267994], [11.31063481594407, 8.924749614603058], [11.312429299772418, 8.921699179873315], [11.316113848275506, 8.920544906322391], [11.324330097655945, 8.919986481291119], [11.325602678820644, 8.916437331118004], [11.32719246795807, 8.911938159618444], [11.328993674218736, 8.911404647606446], [11.334086279558221, 8.910063458961531], [11.335149208968858, 8.905457851798474], [11.336509195243195, 8.895566383981475], [11.339123366150488, 8.892566392225262], [11.343636680388556, 8.888691239609045], [11.347815256169213, 8.889885865740155], [11.35338244994017, 8.888574208133264], [11.368589411072492, 8.87343280398079], [11.373849326285438, 8.87275137237799], [11.377352560672193, 8.871611552730997], [11.378419938129696, 8.865810035205016], [11.381837730626842, 8.85914088864115], [11.385099375635718, 8.855814541008328], [11.388879851224203, 8.856909623880085], [11.39067810321194, 8.855223985898306], [11.39273458203536, 8.851006205971657], [11.396271477147025, 8.849305766048303], [11.408560514156477, 8.842195493926965], [11.414530023242037, 8.835377648959366], [11.419534691972501, 8.833892245031109], [11.428507035571272, 8.829788336362697], [11.432977262390807, 8.82190145558775], [11.440865450779995, 8.817942863872133], [11.44293991244706, 8.816352768065826], [11.442772074671552, 8.809143425728564]]]}}, {"type": "Feature", "properties": {"name": "Yorro", "state": "ta"}, "geometry": {"type": "Polygon", "coordinates": [[[11.442772074671552, 8.809143425728564], [11.464036941951349, 8.779835701056811], [11.469985961782754, 8.762802124218695], [11.473907470853135, 8.752596855060858], [11.477656364050006, 8.745844841366363], [11.486526488906406, 8.739324570372673], [11.490196228273362, 8.734297752239513], [11.495129804696774, 8.722707386836476], [11.495976448054705, 8.720718384146153], [11.503227233849827, 8.712393761063254], [11.510557175273448, 8.702342987339023], [11.517806052707215, 8.69401836425618], [11.521636963175354, 8.685540199021034], [11.525385857271544, 8.678788185326539], [11.531097412015981, 8.666934012794513], [11.568596839972258, 8.670351981558724], [11.576976775857588, 8.674188614413083], [11.587226868125526, 8.674649239071186], [11.5939865107689, 8.676683426399052], [11.636946677946867, 8.67342567455529], [11.645656585882762, 8.670357703944944], [11.675367355219294, 8.657853127320038], [11.685947417739214, 8.651409150312077], [11.698237418821861, 8.645041466390637], [11.707197188999146, 8.636794090574881], [11.710777283045218, 8.63349437726373], [11.757611853704134, 8.6172123458731], [11.767514065721628, 8.620681816112949], [11.776933865205763, 8.625129248715893], [11.78416538212673, 8.6297836297108], [11.788899319847758, 8.64121437084657], [11.788320124973836, 8.64247377694329], [11.78788095004586, 8.643428721158614], [11.774134752317025, 8.654263168610385], [11.76584807342988, 8.662246391957467], [11.76143169441724, 8.666501044987285], [11.760457038861318, 8.663658142309487], [11.757125853775165, 8.666721343815027], [11.751676559325801, 8.673396111141642], [11.743142417588558, 8.677604538118999], [11.732385634689365, 8.682909012041307], [11.730873762813928, 8.684747931371987], [11.721466063707908, 8.696258544895954], [11.712677001942154, 8.701053619429047], [11.70209693942229, 8.707497597336271], [11.693057060335093, 8.717472076175397], [11.665105819977668, 8.764657974186207], [11.653855377623643, 8.776396304146147], [11.650857206994544, 8.811857621931779], [11.645619799114513, 8.826354004433824], [11.641076682243124, 8.830847008382761], [11.63420677192505, 8.837662696776079], [11.627265930278497, 8.875411986973688], [11.585817337300341, 8.918530463610068], [11.58547687465807, 8.92543602035613], [11.585145950225467, 8.932341576202816], [11.558197021375463, 8.958810805774135], [11.556077002751522, 8.967366219175744], [11.55744647957141, 8.974348068108895], [11.563956260872772, 8.981559753180136], [11.568746567200378, 8.988697051727627], [11.57362747213017, 8.994107246352371], [11.630557059560715, 9.020889282614348], [11.657647133408545, 9.027297973822499], [11.694087028693446, 9.05315876076827], [11.71034717598144, 9.071190834189679], [11.694935798947995, 9.106829643073638], [11.695397376887456, 9.132802963086306], [11.696866988720615, 9.138058662277501], [11.698466300779216, 9.143839836239522], [11.694826125725172, 9.144886970857044], [11.682776451372206, 9.146076201955225], [11.67594623622989, 9.145768166168011], [11.669277191289382, 9.142007828198757], [11.62989616397681, 9.141966820012783], [11.60963630706999, 9.135865211310488], [11.602806091028356, 9.135558128804632], [11.592636107670273, 9.13337039932452], [11.513516425942328, 9.069258690236438], [11.506766318810605, 9.067224502908516], [11.470636367674274, 9.070789337258134], [11.463637351582577, 9.07393455513568], [11.44808673881198, 9.076695443240169], [11.427665709904659, 9.074047089101953], [11.420836448943021, 9.073739053314682], [11.414166450721154, 9.069977760265488], [11.403868728559019, 9.063284303228045], [11.39586734789981, 9.058775901986337], [11.389286994998884, 9.053288460993713], [11.38269710478761, 9.047801970584544], [11.371236801137513, 9.036906242429211], [11.350755692121538, 8.999652862689516], [11.347507476688747, 8.99604606597319], [11.340757369557025, 8.994011878645324], [11.335706711295757, 8.99205589276528], [11.371335659113413, 8.977598899669545], [11.389489438686667, 8.970327867437163], [11.394316145074072, 8.96097370137528], [11.38963838800123, 8.94997857115419], [11.39285262075191, 8.918168669948216], [11.397345354904246, 8.909370344266051], [11.412177938161392, 8.89694143839671], [11.42557996804112, 8.888633489643894], [11.428360527916084, 8.889708625552657], [11.44875639918854, 8.868099492397732], [11.454968523778405, 8.864414524810513], [11.472224806029999, 8.856379638109843], [11.47588500808672, 8.851353774157417], [11.479554746554356, 8.846327911104254], [11.481505964228916, 8.841225754065363], [11.480899119698677, 8.833850672970243], [11.473740762626164, 8.823599520401615], [11.463180033731646, 8.818120059093474], [11.442772074671552, 8.809143425728564]]]}}, {"type": "Feature", "properties": {"name": "Ardo-Kola", "state": "ta"}, "geometry": {"type": "Polygon", "coordinates": [[[11.21834659621851, 9.015579055728892], [11.202656745912122, 9.017211914298457], [11.126067161970013, 9.043178557744284], [11.08061599683083, 9.098227500898474], [11.073535919447181, 9.10309982269871], [11.069956778682467, 9.106398581829126], [11.066287041114094, 9.111424445781608], [11.062456130645955, 9.119902611016755], [11.060585976061986, 9.123277664132956], [11.057246207846276, 9.121397972238697], [11.014476776082404, 9.084872245657664], [10.96619605960052, 9.020417213183862], [10.96311664601643, 9.01335716190357], [10.956775664765189, 9.00269126898695], [10.932826995669359, 8.930680274774886], [10.89166641237506, 8.82502269843883], [10.911170714656805, 8.813515855772152], [10.914739906221769, 8.813051861354381], [10.91816633041185, 8.815050608199044], [10.924219709372153, 8.812498246796679], [10.935523311551663, 8.803667307200499], [10.946373653621265, 8.799289098113434], [10.958366138286692, 8.785583403151577], [10.965790056166213, 8.776255916377465], [10.975688614238209, 8.771116280092315], [10.982351104919587, 8.765405574307863], [10.996935794551348, 8.76321787000876], [10.997579655176992, 8.76312129091491], [11.012941695402958, 8.747759250688944], [11.029178897388249, 8.731522048703653], [11.032224607080025, 8.724288486724333], [11.032365547032441, 8.67731185196044], [11.059177399417479, 8.652626038261133], [11.067886353172696, 8.64955806675141], [11.071636199650925, 8.642806053056972], [11.080347060868235, 8.639738084245266], [11.087257384920406, 8.638319016109733], [11.097517013599372, 8.638779639868517], [11.16483592993427, 8.591635704224416], [11.175256728815043, 8.588644027599855], [11.203335761935932, 8.574336052167098], [11.217177391223686, 8.571498870976143], [11.22580623606899, 8.570156096826452], [11.234346389774146, 8.57054042929741], [11.276411147856265, 8.58799555255274], [11.275275689921216, 8.592644676110979], [11.25736084942372, 8.605967937070716], [11.257690971661077, 8.624042364063882], [11.255911517302707, 8.634586938436485], [11.264243470759595, 8.645647148996773], [11.268333196220055, 8.666115491237008], [11.278743338134575, 8.6913972631732], [11.306404572313227, 8.70775605799571], [11.325120021671694, 8.713212645047577], [11.344472073227621, 8.718773790877776], [11.372919195264672, 8.70988488727778], [11.383321817947603, 8.703100567237414], [11.385734020009068, 8.693753282787839], [11.389955374740794, 8.691310928256769], [11.39532486155315, 8.693750744001704], [11.39493954162657, 8.682342149570616], [11.403134578697916, 8.672508890373024], [11.408464571782588, 8.665846398792326], [11.417576859784276, 8.6657387616346], [11.420837769147795, 8.674222101568773], [11.425787047734104, 8.67688709766145], [11.433210965613625, 8.676696740861928], [11.44672630377596, 8.66660782688973], [11.468438393117424, 8.652001362872625], [11.531097412015981, 8.666934012794513], [11.525385857271544, 8.678788185326539], [11.521636963175354, 8.685540199021034], [11.517806052707215, 8.69401836425618], [11.510557175273448, 8.702342987339023], [11.503227233849827, 8.712393761063254], [11.495976448054705, 8.720718384146153], [11.495129804696774, 8.722707386836476], [11.490196228273362, 8.734297752239513], [11.486526488906406, 8.739324570372673], [11.477656364050006, 8.745844841366363], [11.473907470853135, 8.752596855060858], [11.469985961782754, 8.762802124218695], [11.464036941951349, 8.779835701056811], [11.442772074671552, 8.809143425728564], [11.44293991244706, 8.816352768065826], [11.440865450779995, 8.817942863872133], [11.432977262390807, 8.82190145558775], [11.428507035571272, 8.829788336362697], [11.419534691972501, 8.833892245031109], [11.414530023242037, 8.835377648959366], [11.408560514156477, 8.842195493926965], [11.396271477147025, 8.849305766048303], [11.39273458203536, 8.851006205971657], [11.39067810321194, 8.855223985898306], [11.388879851224203, 8.856909623880085], [11.385099375635718, 8.855814541008328], [11.381837730626842, 8.85914088864115], [11.378419938129696, 8.865810035205016], [11.377352560672193, 8.871611552730997], [11.373849326285438, 8.87275137237799], [11.368589411072492, 8.87343280398079], [11.35338244994017, 8.888574208133264], [11.347815256169213, 8.889885865740155], [11.343636680388556, 8.888691239609045], [11.339123366150488, 8.892566392225262], [11.336509195243195, 8.895566383981475], [11.335149208968858, 8.905457851798474], [11.334086279558221, 8.910063458961531], [11.328993674218736, 8.911404647606446], [11.32719246795807, 8.911938159618444], [11.325602678820644, 8.916437331118004], [11.324330097655945, 8.919986481291119], [11.316113848275506, 8.920544906322391], [11.312429299772418, 8.921699179873315], [11.31063481594407, 8.924749614603058], [11.303411418102485, 8.924110807267994], [11.299072516583408, 8.922921820785461], [11.285532392206164, 8.937828370582906], [11.27323149403827, 8.935479466404274], [11.259596824833636, 8.936728477237466], [11.255766869445495, 8.945206641573293], [11.252017021168626, 8.951958656167108], [11.250057220364454, 8.957060814105319], [11.229989554874123, 8.959272513215979], [11.227950599340716, 8.966100820896202], [11.22590973634533, 8.972929128576482], [11.218669441141856, 8.98125375165938], [11.21474983863419, 8.991458068435179], [11.225616454835574, 9.002674102727724], [11.221946716367938, 9.007699013398792], [11.21834659621851, 9.015579055728892]]]}}, {"type": "Feature", "properties": {"name": "Lau", "state": "ta"}, "geometry": {"type": "Polygon", "coordinates": [[[11.335706711295757, 8.99205589276528], [11.340757369557025, 8.994011878645324], [11.347507476688747, 8.99604606597319], [11.350755692121538, 8.999652862689516], [11.371236801137513, 9.036906242429211], [11.38269710478761, 9.047801970584544], [11.389286994998884, 9.053288460993713], [11.39586734789981, 9.058775901986337], [11.403868728559019, 9.063284303228045], [11.414166450721154, 9.069977760265488], [11.420836448943021, 9.073739053314682], [11.427665709904659, 9.074047089101953], [11.44808673881198, 9.076695443240169], [11.463637351582577, 9.07393455513568], [11.470636367674274, 9.070789337258134], [11.506766318810605, 9.067224502908516], [11.513516425942328, 9.069258690236438], [11.592636107670273, 9.13337039932452], [11.602806091028356, 9.135558128804632], [11.60963630706999, 9.135865211310488], [11.62989616397681, 9.141966820012783], [11.669277191289382, 9.142007828198757], [11.67594623622989, 9.145768166168011], [11.682776451372206, 9.146076201955225], [11.694826125725172, 9.144886970857044], [11.698466300779216, 9.143839836239522], [11.699786186283518, 9.148571013941194], [11.701156616384765, 9.155552863773721], [11.702615737626218, 9.160809517145537], [11.698645782976541, 9.173695955803794], [11.696385679655464, 9.180379079630882], [11.689566739313591, 9.190191704783388], [11.683644574137816, 9.192817455361308], [11.682039173668954, 9.199213081218772], [11.677740007795194, 9.210555454970347], [11.67951657173245, 9.21749064527711], [11.678965799032426, 9.22393424816704], [11.687405585699253, 9.229547500716649], [11.670155524957579, 9.253614426164859], [11.647747040193792, 9.305399895089124], [11.639609317815825, 9.306711252322486], [11.62492226465082, 9.309078004446405], [11.611575875826077, 9.30356668825209], [11.599039086384778, 9.301582478049], [11.59326322381878, 9.303695276016242], [11.590727836220708, 9.310813159100064], [11.581815102385121, 9.316744524340379], [11.552684670061524, 9.322064146443267], [11.552571839319, 9.322084750810632], [11.53069396355562, 9.326079954826128], [11.530127978823202, 9.343040829570668], [11.53588286740046, 9.366643437744528], [11.534854498936, 9.372394674174927], [11.530245228834303, 9.37844728691283], [11.526142197904164, 9.380780392701013], [11.523856480092547, 9.385103564178166], [11.524361715620728, 9.390823663381411], [11.523993202224574, 9.396087665113726], [11.52219857900127, 9.40048360073763], [11.52008334297193, 9.403977516349357], [11.497537092862615, 9.38296292320041], [11.496321719371906, 9.374484108654713], [11.490783428912152, 9.366896199400117], [11.474890967644114, 9.363280342913527], [11.46133977620974, 9.359034931317069], [11.4496469501467, 9.359801813802733], [11.443501212610897, 9.355266486858909], [11.436542033787873, 9.352641324437627], [11.429767088280528, 9.350284577271452], [11.423886514950766, 9.346234235821385], [11.415543209351654, 9.342617425154117], [11.401416779161082, 9.335842134307086], [11.386706351716782, 9.321338654355486], [11.326766013940414, 9.285770417071149], [11.314967155110196, 9.281780242963919], [11.306756972556286, 9.274490356444858], [11.260186194637242, 9.21011161795684], [11.208216666865724, 9.187010764934882], [11.194625854000037, 9.184671401663877], [11.184455872440594, 9.182483673083084], [11.174206734353334, 9.182022095143623], [11.130355834554166, 9.16793918674415], [11.082386970582263, 9.132909774666416], [11.072376250863329, 9.127268790622225], [11.06391716024882, 9.125158310207894], [11.060585976061986, 9.123277664132956], [11.062456130645955, 9.119902611016755], [11.066287041114094, 9.111424445781608], [11.069956778682467, 9.106398581829126], [11.073535919447181, 9.10309982269871], [11.08061599683083, 9.098227500898474], [11.126067161970013, 9.043178557744284], [11.202656745912122, 9.017211914298457], [11.21834659621851, 9.015579055728892], [11.23119041510563, 9.032420397983003], [11.23018274004147, 9.036055930736666], [11.230450709232912, 9.039188089558763], [11.23476137473773, 9.040646542603895], [11.235804781665365, 9.045152269261848], [11.23744649855712, 9.050264038254795], [11.244276713699435, 9.050572074941329], [11.248082687765873, 9.055464396764535], [11.25615663472098, 9.054854277802747], [11.2642007017011, 9.056411510582791], [11.271455602793878, 9.04769807640514], [11.299000044716365, 9.032421681315611], [11.318416446361937, 9.019096699952797], [11.32298501224858, 8.998918870209764], [11.32983785883016, 8.995492446918945], [11.335706711295757, 8.99205589276528]]]}}, {"type": "Feature", "properties": {"name": "Donga", "state": "ta"}, "geometry": {"type": "Polygon", "coordinates": [[[10.755395889308886, 7.617162704395355], [10.745367050049367, 7.626400471204818], [10.7382869717664, 7.631271838824375], [10.733077048966663, 7.632767676686967], [10.724447249940681, 7.634109496655981], [10.717616080617688, 7.633802890790832], [10.712566375637778, 7.631845474089403], [10.704106330842535, 7.629734516135045], [10.684266090407789, 7.615001677585383], [10.654095649694511, 7.601533890176938], [10.615205764634368, 7.591133594939492], [10.593736648727429, 7.574597836021383], [10.561776161440719, 7.562778472648461], [10.558607100737163, 7.557445526190122], [10.551936150133258, 7.553685664861575], [10.547057151766182, 7.548275471136151], [10.54046630917287, 7.542788505884914], [10.535346030794756, 7.542558669746882], [10.505825995972998, 7.515279770644952], [10.43977642144472, 7.500196933941425], [10.424067497417127, 7.506410599969286], [10.418776512426177, 7.50963258667457], [10.413476944305557, 7.512855530258548], [10.40623664910214, 7.52117967670074], [10.397196770015, 7.531153678899216], [10.388236999837716, 7.539401531355622], [10.384325981358984, 7.549606799614139], [10.380657196172706, 7.554631710285264], [10.375197411131694, 7.561306476712559], [10.3628263469584, 7.569400787016775], [10.359246253811591, 7.572699547945831], [10.31563663492284, 7.660703659146577], [10.315226554861681, 7.669335842275359], [10.321725844672017, 7.676547527346543], [10.326605797219827, 7.681957721971344], [10.356786727625433, 7.695426941100493], [10.361576079772306, 7.702562808826599], [10.364665984847363, 7.709621905926269], [10.369376183164377, 7.718483925193027], [10.368967056384577, 7.727115631681102], [10.368717194143244, 7.732294559346485], [10.371636390806827, 7.742806911010177], [10.376346588224521, 7.75166988355835], [10.37314701082596, 7.782666683420757], [10.376147269680814, 7.791452885342437], [10.375656128327705, 7.801811694853882], [10.373617171895035, 7.808639525893454], [10.369946480145984, 7.813665867385907], [10.36440658619506, 7.822066783555272], [10.362285614289704, 7.830621719416854], [10.360246657857033, 7.837450503737784], [10.357436180235595, 7.896147728434983], [10.340395926830581, 7.929982661870383], [10.341606140011379, 7.940418720447667], [10.342906951794419, 7.94912672002215], [10.342407227311753, 7.959485531332234], [10.32758712844327, 7.983039855804748], [10.325296402307174, 7.995047569589701], [10.326665878227743, 8.002030372703587], [10.328226622860427, 8.004654770701165], [10.322503848174108, 8.011538688859446], [10.323493704071211, 8.015993039946864], [10.321114242728186, 8.018848392839118], [10.317782997387496, 8.016468932395355], [10.31445175204675, 8.01861044841354], [10.315403536044414, 8.0212278541822], [10.324207541844657, 8.02574882974477], [10.319210673833595, 8.031459536428486], [10.311120506706061, 8.026700613742378], [10.3020785546816, 8.027414454213726], [10.298271416892419, 8.032411321325469], [10.299699094237837, 8.04145327334993], [10.292417942833822, 8.047639870683554], [10.282900099260246, 8.060584139346588], [10.273762969285656, 8.06077449614611], [10.272326618878424, 8.066930281807117], [10.243185043055348, 8.045501709136602], [10.238226890858357, 8.041855811696394], [10.205341339331369, 8.00486087822702], [10.169425011355258, 7.947760582385001], [10.149189948757169, 7.921453953836931], [10.111753464350954, 7.881994724177218], [10.092110776191419, 7.869906853818293], [10.088636398351127, 7.867768764217146], [10.072294234691242, 7.857711792365365], [10.027776422843715, 7.820280558201262], [9.980288931788834, 7.769876467724828], [9.974874495961274, 7.761498927633454], [9.964159965909744, 7.74512100243237], [9.963021277609926, 7.743380071433194], [9.950667380595178, 7.73279094734437], [9.948856353737767, 7.731238841599293], [9.921538353012636, 7.72516822803135], [9.888845444361834, 7.702283382272299], [9.880717278179873, 7.697423935166512], [9.86487865392678, 7.687732220265787], [9.833513259729216, 7.647260666046975], [9.815083504300333, 7.633218764934099], [9.812353133790168, 7.63114070867681], [9.797699928409031, 7.614686011949914], [9.839988707612804, 7.579274177561274], [9.855010985768445, 7.588206768427654], [9.87094974503475, 7.59768343114547], [9.904337882687173, 7.607801437286525], [9.978198051199172, 7.59768343114547], [10.000494957076683, 7.591229439287247], [10.016646385322474, 7.586554050129337], [10.06723499330036, 7.55822372394573], [10.130977631412634, 7.514717101712904], [10.14123916575494, 7.505433082770594], [10.152225494311153, 7.495493412191252], [10.179543495036341, 7.478292941865845], [10.22334575680128, 7.451266289107991], [10.2270975107416, 7.448951245303761], [10.246915816711635, 7.434061049677723], [10.24533081106813, 7.424551963702186], [10.242504119569503, 7.422845364322143], [10.244416237419443, 7.419021606162232], [10.244416237419443, 7.41106843905726], [10.249982834040622, 7.403115748592995], [10.25316429099928, 7.398343562705293], [10.250778198055457, 7.392776489443463], [10.244416237419443, 7.391981125428629], [10.238848685718324, 7.386414051267479], [10.235668182041024, 7.376075267859392], [10.229305267224333, 7.361759662578436], [10.231691360168213, 7.345853805908462], [10.249982834040622, 7.315632343058212], [10.25228309568837, 7.311688422882469], [10.255550384842422, 7.306088447923571], [10.261912346377756, 7.290977955268488], [10.265093803336413, 7.28382015217835], [10.267479897179555, 7.278253078916521], [10.273841857815512, 7.274276257043653], [10.288952827111359, 7.259165765287889], [10.313607215800403, 7.248826505239094], [10.323150635193713, 7.247236252051437], [10.333490371883215, 7.255984305631273], [10.342238426362314, 7.256779671444747], [10.350191115927316, 7.250417233268763], [10.358144759672996, 7.248826505239094], [10.36212062826445, 7.252007961298432], [10.370383182837656, 7.252268032643656], [10.38279914926136, 7.250417233268763], [10.388365745882538, 7.262346744706576], [10.393933295785018, 7.263937472736245], [10.402681351163494, 7.256779671444747], [10.403273242666046, 7.25776621064216], [10.404457092221094, 7.259739398754277], [10.40745353705114, 7.264732837650399], [10.408248901065974, 7.278253078916521], [10.420178413403107, 7.318017961160024], [10.4390020368146, 7.337547779006854], [10.4810667040652, 7.353265762804767], [10.503576278922196, 7.383690833964863], [10.539675713363522, 7.416456699217349], [10.562106132592021, 7.448606491096712], [10.606837272622101, 7.480030537279504], [10.714886665187521, 7.583506584061638], [10.755395889308886, 7.617162704395355]]]}}, {"type": "Feature", "properties": {"name": "Takum", "state": "ta"}, "geometry": {"type": "Polygon", "coordinates": [[[9.839988707612804, 7.579274177561274], [9.845761299344531, 7.574437618201557], [9.870810509297598, 7.540160178749318], [9.880417806636501, 7.517241526575219], [9.883843071600495, 7.509750266561582], [9.884653090967447, 7.507860184799711], [9.888607979274866, 7.46171760558309], [9.882676124803368, 7.414256095942108], [9.865207671796668, 7.362840176433053], [9.855978965656789, 7.325266361053764], [9.840817450864733, 7.279782772656858], [9.838424866614332, 7.275501425050777], [9.828292847237151, 7.257370948710388], [9.824958801407604, 7.254598140991448], [9.835214615162386, 7.217160702404556], [9.83455562614131, 7.199362754887261], [9.824008941959164, 7.172336103028783], [9.823288903360265, 7.171513202672202], [9.761715888677372, 7.101144313859038], [9.737985610947248, 7.078073026049367], [9.72089952089624, 7.048319831195329], [9.70065629515193, 7.013068895413255], [9.699752808345465, 7.011495589949561], [9.645699501031174, 6.894820213282287], [9.64141464157251, 6.866475581582847], [9.643392562816587, 6.843403816233206], [9.647469716654143, 6.809260050211208], [9.64866638244763, 6.799238681619897], [9.64602947218242, 6.738594055071644], [9.622298241170938, 6.664106369313515], [9.609120637107765, 6.58723291077024], [9.606478690639108, 6.571820736937525], [9.605353341083855, 6.562257027040232], [9.599481695324016, 6.512357233199793], [9.59801375982721, 6.499882084190858], [9.637777328161235, 6.523332596322291], [9.655553817854468, 6.52583312979516], [9.708845138592324, 6.521250725140874], [9.795555114576928, 6.801666259390402], [9.87472152687701, 6.775833130194826], [10.100792137846952, 6.967604517434609], [10.066135154813594, 6.965113380977812], [10.061078800246491, 6.997236105062257], [10.036391892971551, 7.00943084185991], [10.02360228971395, 7.004671920073122], [10.000402545441148, 7.016271793108785], [9.977202800269083, 7.02251787699845], [9.965631663270699, 7.023191286648625], [9.947359968188039, 7.070443882878919], [9.94798457702666, 7.085327411830633], [9.937134234957, 7.085898483128517], [9.932946382669456, 7.091038117615085], [9.926093536087876, 7.091609188912969], [9.923999610393764, 7.085708126328996], [9.913046807664102, 7.067555891791017], [9.896105495872007, 7.051961294078524], [9.883494353181902, 7.057671999862976], [9.860002088225826, 7.059984582222739], [9.8374094663738, 7.066835338779924], [9.82266834416879, 7.081613881775297], [9.827739774071347, 7.097894314171299], [9.862241958599554, 7.094027689826078], [9.885071950210374, 7.094421065879544], [9.895232201105273, 7.11708641140882], [9.884738231584151, 7.151537279721708], [9.885963925694682, 7.170406229863659], [9.893102308824552, 7.210262201739283], [9.902025287736876, 7.229595321666807], [9.915112322875473, 7.244169520706862], [9.93355314626075, 7.241195194702527], [9.995398520625258, 7.217253207569513], [10.008146164214168, 7.225903333072438], [10.023728371067534, 7.236476897990485], [10.026304535725785, 7.249706526934744], [10.028634456115299, 7.255937853848934], [10.03559401984819, 7.257157580058333], [10.041539596175483, 7.256743921594762], [10.061417716054791, 7.246408811017886], [10.073689637167092, 7.247491518318952], [10.085686738951892, 7.25918977808584], [10.088027465595133, 7.269353189198398], [10.160239500552564, 7.285023363237656], [10.168676910311206, 7.278745311147247], [10.168736396867246, 7.275830471698953], [10.170402018638299, 7.274045875916499], [10.172424560645027, 7.271606928017377], [10.185928002575281, 7.262505490336139], [10.186879786572945, 7.260304487761971], [10.185987489131378, 7.25399891731621], [10.184753228079046, 7.246901915590968], [10.185073630443753, 7.246847869933276], [10.21175537700907, 7.235785349014691], [10.23487281802619, 7.206675529152392], [10.235668182041024, 7.22337722827649], [10.23805332170349, 7.240873813875453], [10.249982834040622, 7.261551379792365], [10.263503075306744, 7.267913818867669], [10.267479897179555, 7.278253078916521], [10.265093803336413, 7.28382015217835], [10.261912346377756, 7.290977955268488], [10.255550384842422, 7.306088447923571], [10.25228309568837, 7.311688422882469], [10.249982834040622, 7.315632343058212], [10.231691360168213, 7.345853805908462], [10.229305267224333, 7.361759662578436], [10.235668182041024, 7.376075267859392], [10.238848685718324, 7.386414051267479], [10.244416237419443, 7.391981125428629], [10.250778198055457, 7.392776489443463], [10.25316429099928, 7.398343562705293], [10.249982834040622, 7.403115748592995], [10.244416237419443, 7.41106843905726], [10.244416237419443, 7.419021606162232], [10.242504119569503, 7.422845364322143], [10.24533081106813, 7.424551963702186], [10.246915816711635, 7.434061049677723], [10.2270975107416, 7.448951245303761], [10.22334575680128, 7.451266289107991], [10.179543495036341, 7.478292941865845], [10.152225494311153, 7.495493412191252], [10.14123916575494, 7.505433082770594], [10.130977631412634, 7.514717101712904], [10.06723499330036, 7.55822372394573], [10.016646385322474, 7.586554050129337], [10.000494957076683, 7.591229439287247], [9.978198051199172, 7.59768343114547], [9.904337882687173, 7.607801437286525], [9.87094974503475, 7.59768343114547], [9.855010985768445, 7.588206768427654], [9.839988707612804, 7.579274177561274]]]}}, {"type": "Feature", "properties": {"name": "Ussa", "state": "ta"}, "geometry": {"type": "Polygon", "coordinates": [[[10.100792137846952, 6.967604517434609], [10.136251539177238, 6.997154180421148], [10.16499900779803, 7.021110534223851], [10.188660944247204, 7.065155380916167], [10.199878692647587, 7.073064804097498], [10.213398933014389, 7.093742846655118], [10.222147941674223, 7.11442041437067], [10.224717061043577, 7.120942151259328], [10.232486725082367, 7.140665531089439], [10.237257956789335, 7.163729190849551], [10.23805332170349, 7.181225777347777], [10.23487281802619, 7.206675529152392], [10.21175537700907, 7.235785349014691], [10.185073630443753, 7.246847869933276], [10.184753228079046, 7.246901915590968], [10.185987489131378, 7.25399891731621], [10.186879786572945, 7.260304487761971], [10.185928002575281, 7.262505490336139], [10.172424560645027, 7.271606928017377], [10.170402018638299, 7.274045875916499], [10.168736396867246, 7.275830471698953], [10.168676910311206, 7.278745311147247], [10.160239500552564, 7.285023363237656], [10.088027465595133, 7.269353189198398], [10.085686738951892, 7.25918977808584], [10.073689637167092, 7.247491518318952], [10.061417716054791, 7.246408811017886], [10.041539596175483, 7.256743921594762], [10.03559401984819, 7.257157580058333], [10.028634456115299, 7.255937853848934], [10.026304535725785, 7.249706526934744], [10.023728371067534, 7.236476897990485], [10.008146164214168, 7.225903333072438], [9.995398520625258, 7.217253207569513], [9.93355314626075, 7.241195194702527], [9.915112322875473, 7.244169520706862], [9.902025287736876, 7.229595321666807], [9.893102308824552, 7.210262201739283], [9.885963925694682, 7.170406229863659], [9.884738231584151, 7.151537279721708], [9.895232201105273, 7.11708641140882], [9.885071950210374, 7.094421065879544], [9.862241958599554, 7.094027689826078], [9.827739774071347, 7.097894314171299], [9.82266834416879, 7.081613881775297], [9.8374094663738, 7.066835338779924], [9.860002088225826, 7.059984582222739], [9.883494353181902, 7.057671999862976], [9.896105495872007, 7.051961294078524], [9.913046807664102, 7.067555891791017], [9.923999610393764, 7.085708126328996], [9.926093536087876, 7.091609188912969], [9.932946382669456, 7.091038117615085], [9.937134234957, 7.085898483128517], [9.94798457702666, 7.085327411830633], [9.947359968188039, 7.070443882878919], [9.965631663270699, 7.023191286648625], [9.977202800269083, 7.02251787699845], [10.000402545441148, 7.016271793108785], [10.02360228971395, 7.004671920073122], [10.036391892971551, 7.00943084185991], [10.061078800246491, 6.997236105062257], [10.066135154813594, 6.965113380977812], [10.100792137846952, 6.967604517434609]]]}}, {"type": "Feature", "properties": {"name": "Gashaka", "state": "ta"}, "geometry": {"type": "Polygon", "coordinates": [[[11.852672103235022, 7.391217192719296], [11.79608631133425, 7.454699515770074], [11.771935462951319, 7.487935542990954], [11.76295089666661, 7.547452450270384], [11.768424988122774, 7.579620838331095], [11.766158003189332, 7.61492443121756], [11.769160168606959, 7.627530097935733], [11.772744076677839, 7.651549338631128], [11.771650214186081, 7.665281773135348], [11.769414799953097, 7.682449340864423], [11.764838116785711, 7.693901062284226], [11.758036511775629, 7.724809170107164], [11.726546126202834, 7.719184560918791], [11.682721879611108, 7.734147097110906], [11.648690082781172, 7.742868969627295], [11.632977594740282, 7.750405304561184], [11.632064532851984, 7.764457564065367], [11.636128042175471, 7.773030081672971], [11.648801104987058, 7.790767609137902], [11.646158023574003, 7.817150573939898], [11.64786520391607, 7.845522852597639], [11.650643614411308, 7.857326742235387], [11.646420377398556, 7.86579704289926], [11.632421042097462, 7.867192002009347], [11.619674114368934, 7.873714750635258], [11.609931854871263, 7.887607322020358], [11.59942983371991, 7.897724400061065], [11.590420504602662, 7.908017723639091], [11.551552773441813, 7.903331756655291], [11.549972534205153, 7.90186214392287], [11.544662476392205, 7.896922112165782], [11.541168212742889, 7.892353534587983], [11.514193535403365, 7.815756320797618], [11.50028218617399, 7.799769877677761], [11.48981380506308, 7.799793719604509], [11.482190131569382, 7.810238837952056], [11.480612754874812, 7.812400818043386], [11.472526550160183, 7.815851211863958], [11.411566733717848, 7.898370742815587], [11.39323329927737, 7.938458919643494], [11.382875443047283, 7.951067923745711], [11.372522354123419, 7.964821815174673], [11.354151726421094, 7.996901034555151], [11.351863861028392, 8.002626419074033], [11.350749015554698, 8.011782646152255], [11.346135139125408, 8.015225410124629], [11.341521262696176, 8.018668174996321], [11.331997871204862, 8.021456719052367], [11.313987732248108, 8.024029731586893], [11.306966781691699, 8.020174025910592], [11.303485870276745, 8.018822670429927], [11.296875953962171, 8.016260146688467], [11.223406791790069, 8.012955666071207], [11.172396659878018, 8.005471230113244], [11.127176285057544, 7.984405517700509], [11.07781600980104, 7.942392825868239], [11.074646949996804, 7.937059879409958], [11.072007643937638, 7.933385509433776], [11.068225860734913, 7.928120612876057], [11.033837318137785, 7.895431519149327], [11.003107071034549, 7.857717513852208], [10.9763870241419, 7.80807161391391], [10.969956397569717, 7.79913282402066], [10.96670627557421, 7.795526504844361], [10.91823577875823, 7.770854473255383], [10.90798664067097, 7.77039384769796], [10.896185875277979, 7.766402721208692], [10.881306647783617, 7.755352496720377], [10.88155651092427, 7.750173569054994], [10.880347251924206, 7.739738941299152], [10.88246631636747, 7.731183528796862], [10.884667397182682, 7.720901489012533], [10.887045860278306, 7.707167624586248], [10.878906250223338, 7.698151588325175], [10.831896782110846, 7.678735732568043], [10.789056777848089, 7.63962793368222], [10.792797088814666, 7.637183666293197], [10.80166721277169, 7.630663871940214], [10.808747291954035, 7.625791550139979], [10.817787170141855, 7.615817547042184], [10.82495593956503, 7.609218597060647], [10.83228588098865, 7.599168778416413], [10.873247146638562, 7.566408633751507], [10.885787009962598, 7.554861546423297], [10.89123725859264, 7.548187733277302], [10.910396576440917, 7.5057954789782], [10.91235637724509, 7.50069379768064], [10.916425705182178, 7.487036704780166], [10.920426368981794, 7.475105761621649], [10.92191696199825, 7.44403076211006], [10.928867340055774, 7.406280518631092], [10.95609664874138, 7.338301659094327], [10.963425635984379, 7.328250886269416], [10.967176436643285, 7.321499824957016], [10.972636222583674, 7.314823626808959], [10.978006363203122, 7.309875487663646], [10.983216286002857, 7.308379649801054], [10.991756438808636, 7.308763503832665], [10.998596191261242, 7.309071541418575], [11.005266190382429, 7.312831879387772], [11.01201724989619, 7.314865589175668], [11.016976357173178, 7.318548678978402], [11.023727416686995, 7.320582867205587], [11.030225754115293, 7.327795505558186], [11.033487319983863, 7.331402778915162], [11.064574241807861, 7.352367401234631], [11.069826126074929, 7.358988762321587], [11.076666831808893, 7.35929679990744], [11.083497046951209, 7.359603882413296], [11.092206954887104, 7.356534480981566], [11.097416877686783, 7.355038643118917], [11.102626801385838, 7.353543757638363], [11.107996941106023, 7.348594666111012], [11.115085601619285, 7.343723774232842], [11.122246742093523, 7.337124826049944], [11.124286651807608, 7.330296515671705], [11.128366470336402, 7.316638470389137], [11.099645215154624, 7.271001018782044], [11.10059700005155, 7.260531391210804], [11.120965185694786, 7.259579607213141], [11.128579461273148, 7.260341034411283], [11.13608515810364, 7.262817216041753], [11.130086898591571, 7.209449767692661], [11.13415622742798, 7.19579267569145], [11.139616013368368, 7.189117908364835], [11.148575782646276, 7.180869579267721], [11.155905724069953, 7.170819759724168], [11.186276435708976, 7.144503592966487], [11.191567420699982, 7.141281605361826], [11.196947097730401, 7.136332512035835], [11.21094608319521, 7.130042552921509], [11.234725952240979, 7.098240851733976], [11.243605614407613, 7.091718674177514], [11.252475739264014, 7.085197925643797], [11.259647369430581, 7.078599929842937], [11.267163376988321, 7.070307265068266], [11.268687247618459, 7.068625926745199], [11.272437095895327, 7.061873913950024], [11.27601718904208, 7.05857467727958], [11.28488731389848, 7.052053927846544], [11.288541107386266, 7.022366379904554], [11.304245549192785, 7.018083349666881], [11.325525469324987, 7.022606533964392], [11.358693252391731, 7.016877553056702], [11.378443158624918, 7.010545521858376], [11.392162560154077, 7.005118067444926], [11.402866708431873, 7.005570355387647], [11.391861034559156, 7.033159919894445], [11.388544255712873, 7.048989997890146], [11.392617225904303, 7.055168629029083], [11.457125663718443, 7.066721916283484], [11.506186485418027, 7.079308510179658], [11.513106345881226, 7.077890872865567], [11.525067329093986, 7.078428744790813], [11.533606528618463, 7.078812598822424], [11.564857483186358, 7.069837569848005], [11.563972778720824, 7.048622323561403], [11.570218864409128, 7.040889074870961], [11.576167517317117, 7.009658650026722], [11.579439276101766, 6.999843372773455], [11.59728523302715, 7.007576620564635], [11.604721048937336, 7.012632976031057], [11.610669700946005, 7.014120139033253], [11.618927001679822, 7.013446807624121], [11.69437632170991, 6.972692975100756], [11.701387405804212, 6.976110458231119], [11.75860977202342, 7.000832557776391], [11.762777328411005, 7.003333092148523], [11.817049583771336, 7.046899346627583], [11.8178294110985, 7.047525342220808], [11.864166260064906, 7.084721566447172], [11.882499695404647, 7.132222175912716], [11.794998169430016, 7.250277519991585], [11.79138755778962, 7.253610610741134], [11.786664963217504, 7.25583267184038], [11.755554198567438, 7.257222175662946], [11.751665114553418, 7.259999274946608], [11.749721526727114, 7.264999391308891], [11.749721526727114, 7.270555496439044], [11.75194358782636, 7.275277138629065], [11.755554198567438, 7.278610229378614], [11.764444351325778, 7.2838888172152], [11.799439429985739, 7.296663283983435], [11.84638786290958, 7.381388663955704], [11.852672103235022, 7.391217192719296]]]}}, {"type": "Feature", "properties": {"name": "Mayo-Belwa", "state": "ta"}, "geometry": {"type": "Polygon", "coordinates": [[[11.757611853704134, 8.6172123458731], [11.759707985435227, 8.60746941008523], [11.766763123719215, 8.596907212597841], [11.7900008337715, 8.572766354783482], [11.792665337935034, 8.56448241433202], [11.80704013299578, 8.567858510661779], [11.8132087447878, 8.572417162422141], [11.813480048665383, 8.587452676799671], [11.814702281285292, 8.601035518074752], [11.819620998210553, 8.610244889689966], [11.825495288876539, 8.62080731830315], [11.829449139366318, 8.628263148625479], [11.843570030632463, 8.631426227938107], [11.849896191056416, 8.627472379246967], [11.885989662992586, 8.645840602162082], [11.906677245558512, 8.669921875394266], [11.910934628030702, 8.670050926309273], [12.022621155042316, 8.772261619777964], [12.033056259438865, 8.780249596042097], [12.043630156206802, 8.787454325756585], [12.041357430900746, 8.789682316086044], [12.040139147203945, 8.793184883175854], [12.042834599737034, 8.800512862278822], [12.049656181387718, 8.804968563248622], [12.051960732801604, 8.801616039049009], [12.054758696356828, 8.797545731750176], [12.063209533892916, 8.80650043514703], [12.075967788582602, 8.817914009124252], [12.08347140078456, 8.83211419721249], [12.096004499408195, 8.843154896081614], [12.09908828010009, 8.848865602765386], [12.117708206168857, 8.849866866562706], [12.128153801157055, 8.862425803608005], [12.138427072551394, 8.876123615112817], [12.143159018274105, 8.877751797207736], [12.1478776927014, 8.882974625278791], [12.158312797997269, 8.890963553924905], [12.160932311776833, 8.898317027009227], [12.16740444565869, 8.902457288972755], [12.174923543286923, 8.903456663294435], [12.182647705227453, 8.903506278891712], [12.190767288279801, 8.911497115899238], [12.196910858449428, 8.915528297293122], [12.172124459176473, 8.940244424440664], [12.173252297155841, 8.948898257848384], [12.180229127871996, 8.95892616091362], [12.18623483556928, 8.965279068973928], [12.197656248936767, 8.96699228106894], [12.204394883417194, 8.97030448956059], [12.207630949908435, 8.978604050336685], [12.209743910653003, 8.98197336667755], [12.206774343860957, 8.987626966411426], [12.200442801893814, 8.998389267550692], [12.187551493406772, 9.002543133558788], [12.179027653403523, 9.005289705355665], [12.169144054654453, 9.006551668224972], [12.166698456268819, 9.013238907349717], [12.162909928150725, 9.017789866309329], [12.154876868872464, 9.020854612850144], [12.147224522293925, 9.020626184151126], [12.138315820119033, 9.016514475662575], [12.132719328234487, 9.003379851099282], [12.108049076403802, 8.990702082135442], [12.097578402920988, 8.987564781889205], [12.082269743753727, 9.002571562927358], [12.077269938556867, 9.010112452028068], [12.076796523740654, 9.014234422680488], [12.077884590101803, 9.017782935234322], [12.062547755174819, 9.024799856827997], [12.064649236972741, 9.058152492843305], [12.067132079881617, 9.058680324737225], [12.069451951246606, 9.067991153369064], [12.087854703631706, 9.07074676784913], [12.090133678326652, 9.083151972985206], [12.09145410971945, 9.083427216792643], [12.124779761576804, 9.098441687933587], [12.166739378119871, 9.103064560281268], [12.177732064882946, 9.10423798939172], [12.194260954779281, 9.098742619076631], [12.224411694044477, 9.111632910430501], [12.22144212725243, 9.11696290261591], [12.213799963697397, 9.124127028839382], [12.211265622910219, 9.14351908583717], [12.210947806995762, 9.145950894018597], [12.20768237314303, 9.208657664219857], [12.210403846660256, 9.215611645860804], [12.208741590152329, 9.231312835718825], [12.211789058018667, 9.23416852855479], [12.20710862816071, 9.252012337899146], [12.201594129265686, 9.258615318642114], [12.195931011107348, 9.256331037047744], [12.168890816358157, 9.246475309188213], [12.156286856553209, 9.241067963615649], [12.149319554154147, 9.24303279792531], [12.145477874304504, 9.24016926839704], [12.142052016687273, 9.241419085022812], [12.144367273630849, 9.243540336617286], [12.147569656014866, 9.24983215283163], [12.144616161007093, 9.256016464987908], [12.1291973609695, 9.265737457317869], [12.115872271688033, 9.274138440936326], [12.078366870434763, 9.267500241842754], [12.074195598048448, 9.273887130786477], [12.0745784538326, 9.2950641756712], [12.081191026744534, 9.306693381894092], [12.077229826095675, 9.315255525821897], [12.072606507684213, 9.314498954962858], [12.05992432394845, 9.312423611060865], [12.060518375622564, 9.308069332933428], [12.05415527824357, 9.303279800922098], [12.045639158920096, 9.301075020296025], [12.038030021168595, 9.302519904370115], [12.019926415671591, 9.292265258834675], [12.027850528379247, 9.278375588662527], [12.018355747919486, 9.272749232990748], [11.951078866796308, 9.2517595312774], [11.94893735257682, 9.236649953232813], [11.923783221418603, 9.225617245739329], [11.919244123617432, 9.210408654136131], [11.902487044241752, 9.192780683881494], [11.9007597667499, 9.188715652905103], [11.886856771322982, 9.182714833922489], [11.887458609327382, 9.17927230467319], [11.882360457868913, 9.17927837419768], [11.874287804138874, 9.176877382185467], [11.860213817014085, 9.177814140310375], [11.847768594744878, 9.166983070712206], [11.84193230133468, 9.171418205086127], [11.826404248956976, 9.208600429566218], [11.808558291132272, 9.205388158236985], [11.797879403911395, 9.204773546262174], [11.792021035742266, 9.204436373340002], [11.782979084617125, 9.197654910445806], [11.772446483818214, 9.202702467844688], [11.760789401309864, 9.208288913402669], [11.74822818088586, 9.214308648725194], [11.731081071834069, 9.213842867354515], [11.72041797580897, 9.220605850079949], [11.707609201703349, 9.22408061193073], [11.687456982853519, 9.229547500716649], [11.687405585699253, 9.229547500716649], [11.678965799032426, 9.22393424816704], [11.67951657173245, 9.21749064527711], [11.677740007795194, 9.210555454970347], [11.682039173668954, 9.199213081218772], [11.683644574137816, 9.192817455361308], [11.689566739313591, 9.190191704783388], [11.696385679655464, 9.180379079630882], [11.698645782976541, 9.173695955803794], [11.702615737626218, 9.160809517145537], [11.695397376887456, 9.132802963086306], [11.694935798947995, 9.106829643073638], [11.706756592242982, 9.07449054660151], [11.729636192256521, 9.061677933290014], [11.73517704038818, 9.053277017120706], [11.752534866890642, 9.049715041715842], [11.758300781156152, 9.042886734934939], [11.767517090141666, 9.033712387416813], [11.791758537126839, 9.019927025112167], [11.831108167308116, 9.008385974033501], [11.829851437593845, 8.993513718083648], [11.87153959467662, 8.947066639214086], [11.873633521270051, 8.937624937640805], [11.869606162894172, 8.929570220889048], [11.869515969886152, 8.929389834873007], [11.86240246470203, 8.915162826303458], [11.864686748094982, 8.909870905118225], [11.854026761925581, 8.895213425259442], [11.849838911436677, 8.875073668315167], [11.850600337735443, 8.869934031130697], [11.843366776655444, 8.8666979646394], [11.845079987851193, 8.8598451171585], [11.840684855321854, 8.844998610597429], [11.836499156910634, 8.820424321825044], [11.831702254955133, 8.792261647257249], [11.831200425159523, 8.769498510348], [11.82706959798361, 8.73908943632847], [11.785472864181372, 8.710955445637353], [11.769168402799608, 8.712018703300544], [11.75427214124636, 8.700077908069034], [11.749666524190786, 8.68899039499081], [11.743142417588558, 8.677604538118999], [11.751676559325801, 8.673396111141642], [11.757125853775165, 8.666721343815027], [11.760457038861318, 8.663658142309487], [11.76143169441724, 8.666501044987285], [11.788899319847758, 8.64121437084657], [11.78416538212673, 8.6297836297108], [11.776933865205763, 8.625129248715893], [11.767514065721628, 8.620681816112949], [11.757611853704134, 8.6172123458731]]]}}, {"type": "Feature", "properties": {"name": "Zing", "state": "ta"}, "geometry": {"type": "Polygon", "coordinates": [[[11.743142417588558, 8.677604538118999], [11.749666524190786, 8.68899039499081], [11.75427214124636, 8.700077908069034], [11.769168402799608, 8.712018703300544], [11.785472864181372, 8.710955445637353], [11.82706959798361, 8.73908943632847], [11.831200425159523, 8.769498510348], [11.831702254955133, 8.792261647257249], [11.836499156910634, 8.820424321825044], [11.840684855321854, 8.844998610597429], [11.845079987851193, 8.8598451171585], [11.843366776655444, 8.8666979646394], [11.850600337735443, 8.869934031130697], [11.849838911436677, 8.875073668315167], [11.854026761925581, 8.895213425259442], [11.864686748094982, 8.909870905118225], [11.86240246470203, 8.915162826303458], [11.869515969886152, 8.929389834873007], [11.869606162894172, 8.929570220889048], [11.873633521270051, 8.937624937640805], [11.87153959467662, 8.947066639214086], [11.829851437593845, 8.993513718083648], [11.831108167308116, 9.008385974033501], [11.791758537126839, 9.019927025112167], [11.767517090141666, 9.033712387416813], [11.758300781156152, 9.042886734934939], [11.752534866890642, 9.049715041715842], [11.73517704038818, 9.053277017120706], [11.729636192256521, 9.061677933290014], [11.722637177064144, 9.064823151167559], [11.715636252611034, 9.067968369944367], [11.71034717598144, 9.071190834189679], [11.694087028693446, 9.05315876076827], [11.657647133408545, 9.027297973822499], [11.630557059560715, 9.020889282614348], [11.57362747213017, 8.994107246352371], [11.568746567200378, 8.988697051727627], [11.563956260872772, 8.981559753180136], [11.55744647957141, 8.974348068108895], [11.556077002751522, 8.967366219175744], [11.558197021375463, 8.958810805774135], [11.585145950225467, 8.932341576202816], [11.58547687465807, 8.92543602035613], [11.585817337300341, 8.918530463610068], [11.627265930278497, 8.875411986973688], [11.63420677192505, 8.837662696776079], [11.641076682243124, 8.830847008382761], [11.645619799114513, 8.826354004433824], [11.650857206994544, 8.811857621931779], [11.653855377623643, 8.776396304146147], [11.665105819977668, 8.764657974186207], [11.693057060335093, 8.717472076175397], [11.70209693942229, 8.707497597336271], [11.712677001942154, 8.701053619429047], [11.721466063707908, 8.696258544895954], [11.730873762813928, 8.684747931371987], [11.732385634689365, 8.682909012041307], [11.743142417588558, 8.677604538118999]]]}}, {"type": "Feature", "properties": {"name": "Karim Lamido", "state": "ta"}, "geometry": {"type": "Polygon", "coordinates": [[[11.060585976061986, 9.123277664132956], [11.06391716024882, 9.125158310207894], [11.072376250863329, 9.127268790622225], [11.082386970582263, 9.132909774666416], [11.130355834554166, 9.16793918674415], [11.174206734353334, 9.182022095143623], [11.184455872440594, 9.182483673083084], [11.194625854000037, 9.184671401663877], [11.208216666865724, 9.187010764934882], [11.260186194637242, 9.21011161795684], [11.306756972556286, 9.274490356444858], [11.314967155110196, 9.281780242963919], [11.326766013940414, 9.285770417071149], [11.386706351716782, 9.321338654355486], [11.401416779161082, 9.335842134307086], [11.415543209351654, 9.342617425154117], [11.423886514950766, 9.346234235821385], [11.429767088280528, 9.350284577271452], [11.436542033787873, 9.352641324437627], [11.443501212610897, 9.355266486858909], [11.4496469501467, 9.359801813802733], [11.46133977620974, 9.359034931317069], [11.474890967644114, 9.363280342913527], [11.490783428912152, 9.366896199400117], [11.496321719371906, 9.374484108654713], [11.497537092862615, 9.38296292320041], [11.502762317626889, 9.389338322405706], [11.525925635759506, 9.407815932559288], [11.50630664833318, 9.433984756191592], [11.497426987065865, 9.440506934647374], [11.484306335269196, 9.464138030645643], [11.479106903061165, 9.465633391867584], [11.469977378653141, 9.477334023146682], [11.458643791278007, 9.482822397635573], [11.443759674169655, 9.488472193237158], [11.440220056810233, 9.493780855302305], [11.440232304677181, 9.502202749057687], [11.439062727363023, 9.516255983426959], [11.4334548248803, 9.519719080171456], [11.43435013505075, 9.53109821371163], [11.43615627319349, 9.539826393173541], [11.429598808038634, 9.549625397194347], [11.427641868877174, 9.548500061128948], [11.42015361799514, 9.546006203323657], [11.405684470561937, 9.544509887921038], [11.337729453851239, 9.548734664573146], [11.278014183108098, 9.547817751787875], [11.274511337228489, 9.54842758206729], [11.269281387426133, 9.548886299263359], [11.254666327688938, 9.554347037585785], [11.244061469960911, 9.56222152660223], [11.227822402781726, 9.569080125247638], [11.227089881592804, 9.569368361560691], [11.222452164136087, 9.5692615508799], [11.182134627810854, 9.555564879715462], [11.150912285173888, 9.550780295774075], [11.11423819293833, 9.525595789114448], [11.09451077605155, 9.533096588237015], [11.083577508395365, 9.546691365314302], [11.076408086064362, 9.551371838339719], [11.020428657556522, 9.549492836225454], [11.008193015994948, 9.55210876620663], [10.99238205039137, 9.559283257116647], [10.984711647224799, 9.565485001731474], [10.979952811772876, 9.571175575292614], [10.978140830734787, 9.574613571059501], [10.969134278724027, 9.615353467688408], [10.956344676365745, 9.605686906825326], [10.917232286440935, 9.554528495593672], [10.777672575728843, 9.450402660754264], [10.773542915872895, 9.447321510579286], [10.72131347323824, 9.45251761709443], [10.617839911282942, 9.462811803122293], [10.60422740317216, 9.466481633320768], [10.540963806034881, 9.483537022315772], [10.566149712039646, 9.465291977742652], [10.578940391785693, 9.438833237863662], [10.57991981464778, 9.417640685968934], [10.57835006690209, 9.409849166605795], [10.56000995589477, 9.389730452898107], [10.560370444640341, 9.382023810650367], [10.564390182161219, 9.37834167502831], [10.566579819103424, 9.37264728564378], [10.561260223080865, 9.36275863630209], [10.56144046790331, 9.358905792268558], [10.561619759444397, 9.35505199405435], [10.559869765976941, 9.351113318724742], [10.580260277289995, 9.326922418135155], [10.577750205607572, 9.29785346976189], [10.580149650785813, 9.245836258136876], [10.588199614620578, 9.238471985094066], [10.592309951643017, 9.232863427005611], [10.596610068999553, 9.223401069803572], [10.596870421832534, 9.217621803303643], [10.597229958196067, 9.209915161055903], [10.595719337277615, 9.20825481380865], [10.599657059325864, 9.201160430909226], [10.599906920667877, 9.195981026603135], [10.610486984087117, 9.189537047796591], [10.614236832363986, 9.182785035001416], [10.610369681915358, 9.17574977892923], [10.61511039692732, 9.15665531209305], [10.613539695900272, 9.148863792729912], [10.617739677344275, 9.141327857994327], [10.625610352335968, 9.137816428985047], [10.62963962626776, 9.13413429426231], [10.633660316170676, 9.130452155942294], [10.635760306892678, 9.12668418902416], [10.63611984325621, 9.11897754677642], [10.62252521456702, 9.094029426916563], [10.627246856757097, 9.089944840182284], [10.632547379058337, 9.08672332831901], [10.637916564597845, 9.081773758352313], [10.640036583221786, 9.073219299131381], [10.627225875573743, 9.019009589820769], [10.596746444892574, 8.976116180217616], [10.566246986309409, 8.969553946857218], [10.50977706935629, 8.968743324045192], [10.501750356593732, 8.966029046003712], [10.497977257244656, 8.964753150837282], [10.463807106013178, 8.963215828148009], [10.426877021757207, 8.947713851613003], [10.420206070253982, 8.943953513643805], [10.406956673311868, 8.934706687963342], [10.400446892010507, 8.927494048711424], [10.397196770015, 8.923887252894474], [10.388815879948936, 8.920049666758757], [10.380526542665848, 8.914486885061763], [10.375645637736056, 8.909076691336281], [10.372397423202585, 8.90547084790137], [10.369147301207022, 8.901864052084363], [10.36255645771439, 8.896377562574514], [10.357596397156044, 8.892694472771723], [10.350927353114912, 8.888934134802525], [10.325076102580113, 8.85662937174817], [10.276936531096055, 8.825052261852477], [10.266937256149504, 8.819411277808285], [10.261806488079003, 8.819181442569572], [10.256927489711927, 8.813771247944771], [10.248636245866123, 8.808208466247777], [10.245595932106653, 8.804408074273283], [10.263627052246704, 8.781200408771895], [10.268916129775619, 8.777978897807941], [10.274207114766568, 8.77475643176399], [10.276246071199296, 8.76792812318439], [10.281545639319859, 8.764705658939079], [10.290086746306372, 8.765089988712077], [10.295296669106051, 8.763593674208721], [10.304165839781717, 8.757072449034354], [10.30449676511364, 8.750166893187611], [10.308166503581333, 8.745141983415863], [10.313457488572283, 8.741919518271175], [10.321996688996023, 8.742303848044173], [10.328837394730044, 8.742611885630083], [10.333876610017569, 8.744568824791486], [10.349336624185923, 8.743534088227648], [10.354626655895515, 8.74031162308296], [10.379877090055686, 8.713765144445915], [10.381997107780364, 8.705210686124303], [10.387617110641202, 8.69508266423361], [10.383751999854951, 8.683539999771199], [10.41090300007346, 8.68977399857124], [10.41393200036157, 8.690469000044345], [10.451890999869818, 8.695614999932332], [10.475785499201493, 8.703452633832057], [10.490018249942352, 8.710147717743041], [10.507652000139728, 8.717264000033651], [10.543786000023943, 8.719173999980171], [10.547076224588125, 8.726476670362104], [10.560577393032304, 8.730544089937837], [10.576873864837069, 8.752889525930925], [10.590375032381871, 8.756956946405978], [10.60241326286183, 8.755768667689892], [10.610964861339312, 8.75615299926153], [10.661173905951046, 8.744569671053512], [10.673767090079195, 8.726984977974382], [10.684097290357727, 8.725720406171831], [10.703056334582243, 8.723113060219589], [10.718436240739948, 8.723804474297083], [10.73381614689771, 8.724495888374577], [10.764567375184242, 8.72587966891166], [10.776275635412276, 8.731596946941579], [10.787826537664614, 8.7407665253549], [10.831347466312593, 8.761754991399755], [10.882077216590346, 8.810750007906563], [10.89166641237506, 8.82502269843883], [10.899466514867811, 8.840944289647325], [10.932826995669359, 8.930680274774886], [10.93721580506542, 8.946448325629774], [10.94159698461317, 8.962216377383982], [10.96619605960052, 9.020417213183862], [11.014476776082404, 9.084872245657664], [11.060585976061986, 9.123277664132956]]]}}, {"type": "Feature", "properties": {"name": "Bali", "state": "ta"}, "geometry": {"type": "Polygon", "coordinates": [[[11.531097412015981, 8.666934012794513], [11.468438393117424, 8.652001362872625], [11.44672630377596, 8.66660782688973], [11.433210965613625, 8.676696740861928], [11.425787047734104, 8.67688709766145], [11.420837769147795, 8.674222101568773], [11.417576859784276, 8.6657387616346], [11.408464571782588, 8.665846398792326], [11.403134578697916, 8.672508890373024], [11.39493954162657, 8.682342149570616], [11.39532486155315, 8.693750744001704], [11.389955374740794, 8.691310928256769], [11.385734020009068, 8.693753282787839], [11.383321817947603, 8.703100567237414], [11.372919195264672, 8.70988488727778], [11.344472073227621, 8.718773790877776], [11.325120021671694, 8.713212645047577], [11.306404572313227, 8.70775605799571], [11.278743338134575, 8.6913972631732], [11.268333196220055, 8.666115491237008], [11.264243470759595, 8.645647148996773], [11.255911517302707, 8.634586938436485], [11.257690971661077, 8.624042364063882], [11.25736084942372, 8.605967937070716], [11.275275689921216, 8.592644676110979], [11.276411147856265, 8.58799555255274], [11.234346389774146, 8.57054042929741], [11.22580623606899, 8.570156096826452], [11.217177391223686, 8.571498870976143], [11.203335761935932, 8.574336052167098], [11.175256728815043, 8.588644027599855], [11.16483592993427, 8.591635704224416], [11.12592601787145, 8.617567062769751], [11.116966247694222, 8.625814437686188], [11.110397338666303, 8.631417274287799], [11.077285366626427, 8.575009703734906], [11.071396828001241, 8.540719031658057], [11.020985603203087, 8.484818459304506], [10.97455596938255, 8.453318595776636], [10.919166565384728, 8.430065154783108], [10.862506866298872, 8.361773491253643], [10.8525867460815, 8.354406356568177], [10.847706795332385, 8.348996161943376], [10.842746734774039, 8.34531307303996], [10.82932663031977, 8.339518546843522], [10.819327353574579, 8.333878516980008], [10.812737465161945, 8.328392029268798], [10.796147345823385, 8.317265511694075], [10.763795853096212, 8.277748107589161], [10.752085686305406, 8.272030829559185], [10.682637214935596, 8.220463752899946], [10.66425704992298, 8.21098709108145], [10.655715942037148, 8.210602760409131], [10.653707198328561, 8.209256210905437], [10.62616896082892, 8.228467409743189], [10.614203912680466, 8.227184359570572], [10.608902809417145, 8.226615906199186], [10.567976080431833, 8.147141907772891], [10.536567195020098, 8.149045476667482], [10.47926103896583, 8.173644628996499], [10.401595430584678, 8.14680430767271], [10.344488367344354, 8.148517519767779], [10.331658908831628, 8.14532705519946], [10.316212552667196, 8.141485813319662], [10.269955830597155, 8.103985509423751], [10.27109797319298, 8.072195908614333], [10.272326618878424, 8.066930281807117], [10.273762969285656, 8.06077449614611], [10.282900099260246, 8.060584139346588], [10.292417942833822, 8.047639870683554], [10.299699094237837, 8.04145327334993], [10.298271416892419, 8.032411321325469], [10.3020785546816, 8.027414454213726], [10.311120506706061, 8.026700613742378], [10.319210673833595, 8.031459536428486], [10.324207541844657, 8.02574882974477], [10.315403536044414, 8.0212278541822], [10.31445175204675, 8.01861044841354], [10.317782997387496, 8.016468932395355], [10.321114242728186, 8.018848392839118], [10.323493704071211, 8.015993039946864], [10.322503848174108, 8.011538688859446], [10.328226622860427, 8.004654770701165], [10.330384622552344, 8.00205891628599], [10.341420448894667, 7.99727897914164], [10.341420448894667, 7.989283989964235], [10.355126143856523, 7.991568271558549], [10.357029712751114, 7.987761134668688], [10.35093829336762, 7.978243291095055], [10.358933281645704, 7.970629016416012], [10.359503224294428, 7.964359649977894], [10.35257720887114, 7.961672783272377], [10.345837886409356, 7.960223361219221], [10.342407227311753, 7.959485531332234], [10.342906951794419, 7.94912672002215], [10.341606140011379, 7.940418720447667], [10.340395926830581, 7.929982661870383], [10.359556197960217, 7.887592794371983], [10.360246657857033, 7.837450503737784], [10.362285614289704, 7.830621719416854], [10.36440658619506, 7.822066783555272], [10.369946480145984, 7.813665867385907], [10.373617171895035, 7.808639525893454], [10.375656128327705, 7.801811694853882], [10.376147269680814, 7.791452885342437], [10.37314701082596, 7.782666683420757], [10.376346588224521, 7.75166988355835], [10.371636390806827, 7.742806911010177], [10.368717194143244, 7.732294559346485], [10.368967056384577, 7.727115631681102], [10.369376183164377, 7.718483925193027], [10.364665984847363, 7.709621905926269], [10.361576079772306, 7.702562808826599], [10.356786727625433, 7.695426941100493], [10.326605797219827, 7.681957721971344], [10.321725844672017, 7.676547527346543], [10.315226554861681, 7.669335842275359], [10.31563663492284, 7.660703659146577], [10.359246253811591, 7.572699547945831], [10.3628263469584, 7.569400787016775], [10.375197411131694, 7.561306476712559], [10.380657196172706, 7.554631710285264], [10.384325981358984, 7.549606799614139], [10.388236999837716, 7.539401531355622], [10.397196770015, 7.531153678899216], [10.40623664910214, 7.52117967670074], [10.413476944305557, 7.512855530258548], [10.418776512426177, 7.50963258667457], [10.424067497417127, 7.506410599969286], [10.43977642144472, 7.500196933941425], [10.505825995972998, 7.515279770644952], [10.535346030794756, 7.542558669746882], [10.54046630917287, 7.542788505884914], [10.547057151766182, 7.548275471136151], [10.551936150133258, 7.553685664861575], [10.558607100737163, 7.557445526190122], [10.561776161440719, 7.562778472648461], [10.593736648727429, 7.574597836021383], [10.615205764634368, 7.591133594939492], [10.654095649694511, 7.601533890176938], [10.684266090407789, 7.615001677585383], [10.704106330842535, 7.629734516135045], [10.712566375637778, 7.631845474089403], [10.717616080617688, 7.633802890790832], [10.724447249940681, 7.634109496655981], [10.733077048966663, 7.632767676686967], [10.7382869717664, 7.631271838824375], [10.745367050049367, 7.626400471204818], [10.755395889308886, 7.617162704395355], [10.759366034614857, 7.620109557909814], [10.766117095927257, 7.622143745237679], [10.771157265395516, 7.624100686197778], [10.831896782110846, 7.678735732568043], [10.878906250223338, 7.698151588325175], [10.887045860278306, 7.707167624586248], [10.884667397182682, 7.720901489012533], [10.88246631636747, 7.731183528796862], [10.880347251924206, 7.739738941299152], [10.88155651092427, 7.750173569054994], [10.881306647783617, 7.755352496720377], [10.896185875277979, 7.766402721208692], [10.90798664067097, 7.77039384769796], [10.91823577875823, 7.770854473255383], [10.96670627557421, 7.795526504844361], [10.969956397569717, 7.79913282402066], [10.9763870241419, 7.80807161391391], [11.003107071034549, 7.857717513852208], [11.033837318137785, 7.895431519149327], [11.068225860734913, 7.928120612876057], [11.072007643937638, 7.933385509433776], [11.074646949996804, 7.937059879409958], [11.07781600980104, 7.942392825868239], [11.127176285057544, 7.984405517700509], [11.172396659878018, 8.005471230113244], [11.223406791790069, 8.012955666071207], [11.296875953962171, 8.016260146688467], [11.303485870276745, 8.018822670429927], [11.306966781691699, 8.020174025910592], [11.313987732248108, 8.024029731586893], [11.331997871204862, 8.021456719052367], [11.341521262696176, 8.018668174996321], [11.341537475673988, 8.022101401658404], [11.342720985285268, 8.027819632969738], [11.347361565284075, 8.030097007770735], [11.347383419709104, 8.030082509800025], [11.34741296243834, 8.030097007770735], [11.350874799232656, 8.027800560147796], [11.354290088916514, 8.026665575256118], [11.354341406031097, 8.026648521412199], [11.354368107801974, 8.032369614366246], [11.3520640312301, 8.034663200346472], [11.346860784097942, 8.035819054006197], [11.346308606656919, 8.041541100241659], [11.3626183452605, 8.064387321018103], [11.390527625049913, 8.092926978797095], [11.504372596917847, 8.194497107655422], [11.546277046348678, 8.245888710395718], [11.601167679145135, 8.352170944133832], [11.629787914380813, 8.386566553603586], [11.612894521165288, 8.403721100948076], [11.618118263846839, 8.406770391740224], [11.633010038682414, 8.411311585861029], [11.638273996347891, 8.413839902989196], [11.642973761629833, 8.426852819602004], [11.64592205585825, 8.433122742720457], [11.648307962642434, 8.442368473026647], [11.655805109618143, 8.445361917718401], [11.661788348653431, 8.449779945188368], [11.670218789565524, 8.451773027203501], [11.679499931576629, 8.462579997668797], [11.690173816768265, 8.464607271008788], [11.699448300198924, 8.468853553149017], [11.7090455530099, 8.465303732980942], [11.716274261348133, 8.465179443076863], [11.724391936938389, 8.468593596917003], [11.730189322978902, 8.470869064255965], [11.780158042659593, 8.514232634928192], [11.785982132269623, 8.522228241040523], [11.790654182244737, 8.531371116783646], [11.794547101867295, 8.546234131300196], [11.7900008337715, 8.572766354783482], [11.766763123719215, 8.596907212597841], [11.759707985435227, 8.60746941008523], [11.757611853704134, 8.6172123458731], [11.710777283045218, 8.63349437726373], [11.707197188999146, 8.636794090574881], [11.698237418821861, 8.645041466390637], [11.685947417739214, 8.651409150312077], [11.675367355219294, 8.657853127320038], [11.645656585882762, 8.670357703944944], [11.636946677946867, 8.67342567455529], [11.5939865107689, 8.676683426399052], [11.587226868125526, 8.674649239071186], [11.576976775857588, 8.674188614413083], [11.568596839972258, 8.670351981558724], [11.531097412015981, 8.666934012794513]]]}}, {"type": "Feature", "properties": {"name": "Wukari", "state": "ta"}, "geometry": {"type": "Polygon", "coordinates": [[[10.272326618878424, 8.066930281807117], [10.27109797319298, 8.072195908614333], [10.269955830597155, 8.103985509423751], [10.316212552667196, 8.141485813319662], [10.331658908831628, 8.14532705519946], [10.32422828740556, 8.188565254083244], [10.313098907288804, 8.209812163700462], [10.313210794642487, 8.219267725625059], [10.312138133667986, 8.224745246196221], [10.309711083799527, 8.227624394250427], [10.301486014767818, 8.228938103210965], [10.299408912691206, 8.232359885999983], [10.295898436963341, 8.238142014142682], [10.274650574064765, 8.250283241278623], [10.246320723622546, 8.257366180305041], [10.237083435252373, 8.257609366878853], [10.216659545601601, 8.258147239703419], [10.207873343679921, 8.25837802912281], [10.19921112139616, 8.255537988087724], [10.198243140608497, 8.25522041319158], [10.146154404102504, 8.238142014142682], [10.0601530075553, 8.234094619770929], [10.056989764566026, 8.234410318681284], [10.052564202575923, 8.234937687424406], [10.032835006830169, 8.237130165324913], [9.973266601672378, 8.296087265315066], [9.97040081034919, 8.29497337312273], [9.94630983163347, 8.285604739667065], [9.938738823338099, 8.282660484293956], [9.89927959367833, 8.256354332386593], [9.885114669806228, 8.231060028397621], [9.867914200380085, 8.180470468037697], [9.85132226261237, 8.147286594300908], [9.835536957364752, 8.115715982007032], [9.804171562267811, 8.09143352503719], [9.794280052182728, 8.08909130102279], [9.78614657190684, 8.087177108436833], [9.765724182325187, 8.082327842555912], [9.756863593879814, 8.082549094665012], [9.725253104747026, 8.083339692273], [9.712519646164765, 8.08916950336993], [9.633113861315678, 8.106392859642824], [9.60604236116609, 8.105521039764199], [9.563367843850983, 8.101551056336234], [9.537060737762886, 8.092445373854957], [9.523907660909856, 8.077268600265711], [9.491530417894523, 8.070186615420027], [9.47129535709513, 8.059056282021857], [9.434870719707988, 8.039833069140855], [9.398435592628573, 8.025259017589633], [9.384282111730101, 8.019597054160784], [9.358986855359149, 7.998349667003595], [9.305362700927958, 7.96900796864287], [9.179125786226109, 7.90808343889961], [9.18093681308352, 7.903859137988889], [9.183191299239127, 7.895742893220017], [9.18183803629637, 7.891685009155879], [9.17823123868078, 7.888528824046034], [9.174623488683096, 7.887176036844664], [9.17217063906378, 7.88663101171187], [9.170429229625313, 7.882276058193554], [9.162518500628323, 7.869092463746256], [9.162012130155745, 7.868719346720525], [9.149993896101478, 7.859863757606377], [9.140106200940465, 7.848657607762448], [9.124285698026597, 7.826904773736373], [9.115716934189209, 7.808447360557295], [9.12033081061844, 7.79328632420453], [9.130218505779453, 7.788012981214138], [9.156585692875467, 7.79790067727447], [9.174534689624295, 7.804587253598925], [9.19020461994728, 7.810424805160665], [9.22514152506136, 7.818335056617627], [9.268401870649882, 7.822541042834928], [9.272602081420985, 7.822949408788247], [9.314789772330187, 7.834815025193279], [9.378071784885037, 7.843384266570695], [9.386640548722369, 7.844702721253611], [9.56132412011209, 7.838776200661187], [9.56726769634713, 7.837412098189816], [9.575851356554892, 7.835442073892636], [9.60153484305863, 7.829541205562236], [9.643062591665341, 7.7998781200792], [9.669429778761355, 7.76296377216039], [9.690544309971983, 7.728491271555015], [9.701729773610225, 7.710229397069043], [9.74721336380577, 7.654858111712542], [9.797699928409031, 7.614686011949914], [9.812353133790168, 7.63114070867681], [9.815083504300333, 7.633218764934099], [9.833513259729216, 7.647260666046975], [9.86487865392678, 7.687732220265787], [9.880717278179873, 7.697423935166512], [9.888845444361834, 7.702283382272299], [9.921538353012636, 7.72516822803135], [9.948856353737767, 7.731238841599293], [9.950667380595178, 7.73279094734437], [9.963021277609926, 7.743380071433194], [9.964159965909744, 7.74512100243237], [9.974874495961274, 7.761498927633454], [9.980288931788834, 7.769876467724828], [10.027776422843715, 7.820280558201262], [10.072294234691242, 7.857711792365365], [10.088636398351127, 7.867768764217146], [10.092110776191419, 7.869906853818293], [10.111753464350954, 7.881994724177218], [10.149189948757169, 7.921453953836931], [10.169425011355258, 7.947760582385001], [10.205341339331369, 8.00486087822702], [10.238226890858357, 8.041855811696394], [10.243185043055348, 8.045501709136602], [10.272326618878424, 8.066930281807117]]]}}, {"type": "Feature", "properties": {"name": "Kurmi", "state": "ta"}, "geometry": {"type": "Polygon", "coordinates": [[[10.267479897179555, 7.278253078916521], [10.263503075306744, 7.267913818867669], [10.249982834040622, 7.261551379792365], [10.23805332170349, 7.240873813875453], [10.235668182041024, 7.22337722827649], [10.23487281802619, 7.206675529152392], [10.23805332170349, 7.181225777347777], [10.237257956789335, 7.163729190849551], [10.232486725082367, 7.140665531089439], [10.224717061043577, 7.120942151259328], [10.222147941674223, 7.11442041437067], [10.213398933014389, 7.093742846655118], [10.199878692647587, 7.073064804097498], [10.188660944247204, 7.065155380916167], [10.16499900779803, 7.021110534223851], [10.167221068897277, 7.019165993116133], [10.175832748382675, 7.007222175263223], [10.18055534385411, 6.99833297758488], [10.187776565336264, 6.978332519330365], [10.188055038609207, 6.951665878677431], [10.1897220624233, 6.933054924245425], [10.191110611165811, 6.92749977059799], [10.194999695179831, 6.917777060562969], [10.204999923407797, 6.900554656672114], [10.215276718345933, 6.8902769075533], [10.223609924558446, 6.884444236612296], [10.237777710073317, 6.878054619125407], [10.269444465289894, 6.874721526577218], [10.367760452183177, 6.876065162277484], [10.368780887727837, 6.876079108064459], [10.513332367294936, 6.878054619125407], [10.559999466202441, 7.021666526589001], [10.609467685285495, 7.063888463681678], [10.61499977132246, 7.068610191307357], [10.61666488677514, 7.056943893445975], [10.619998931705368, 7.053610801797106], [10.629720687559711, 7.049165725417936], [10.667049674203156, 7.032206108824937], [10.678841833983483, 7.026848597384912], [10.682953541572715, 7.020452604604088], [10.683867254570202, 7.016493181914882], [10.7003807147982, 7.013495060748483], [10.704720851985769, 7.00626149966854], [10.70852798887563, 6.99902793858854], [10.720482400742242, 6.988291811318106], [10.725431680227928, 6.98928166631589], [10.729813696145186, 6.98884130698076], [10.733240119436005, 6.991601481922885], [10.73600029437813, 6.989317200328571], [10.738379754821892, 6.988555772231166], [10.740759216164918, 6.983511314795408], [10.743349592809523, 6.979830726007265], [10.747442266247617, 6.976023589117403], [10.747156729699384, 6.972026093629381], [10.747442266247617, 6.969456276386097], [10.76688676990858, 6.955510769106752], [10.769902023159887, 6.961903107042815], [10.779068392792169, 6.96720995067875], [10.784013406793349, 6.965762629441826], [10.786546219632385, 6.961903107042815], [10.789440863005495, 6.960214564250805], [10.795015701013824, 6.961721276715593], [10.798366011981898, 6.962626766312269], [10.807773601370684, 6.958767243013881], [10.82497912228871, 6.957659518372111], [10.842001142838512, 6.958250217373688], [10.844314605634565, 6.960270495786801], [10.849861388392412, 6.968591145664902], [10.908436774737424, 7.010898590297757], [10.91664600400992, 7.018187522636083], [10.921607017849624, 7.021871566619552], [10.929737090594301, 7.030887603779945], [10.936077117664922, 7.041553496696565], [10.936993638345768, 7.042916167447231], [10.940876961302763, 7.048689842862018], [10.971676825824886, 7.084677695719108], [10.991746902397665, 7.130562781946878], [10.996835709000834, 7.16712474760908], [10.994636535647658, 7.177405834111994], [10.994055748074345, 7.189489840983413], [10.998435974340794, 7.20525789273762], [10.994956970387932, 7.277766704869578], [10.98916626001494, 7.291346549603645], [10.981757163862085, 7.303123473969208], [10.978006363203122, 7.309875487663646], [10.95609664874138, 7.338301659094327], [10.928867340055774, 7.406280518631092], [10.92191696199825, 7.44403076211006], [10.920426368981794, 7.475105761621649], [10.916425705182178, 7.487036704780166], [10.91235637724509, 7.50069379768064], [10.910396576440917, 7.5057954789782], [10.904686928259196, 7.517649650610963], [10.900775908881144, 7.52785491886948], [10.89686584458309, 7.538059711386609], [10.89123725859264, 7.548187733277302], [10.885787009962598, 7.554861546423297], [10.873247146638562, 7.566408633751507], [10.85199737537863, 7.581023692589383], [10.808747291954035, 7.625791550139979], [10.80166721277169, 7.630663871940214], [10.792797088814666, 7.637183666293197], [10.789056777848089, 7.63962793368222], [10.785956383080645, 7.636876582888021], [10.771157265395516, 7.624100686197778], [10.747736930914698, 7.612665652597855], [10.606837272622101, 7.480030537279504], [10.562106132592021, 7.448606491096712], [10.539675713363522, 7.416456699217349], [10.503576278922196, 7.383690833964863], [10.4810667040652, 7.353265762804767], [10.4390020368146, 7.337547779006854], [10.420178413403107, 7.318017961160024], [10.408248901065974, 7.278253078916521], [10.40745353705114, 7.264732837650399], [10.404457092221094, 7.259739398754277], [10.403273242666046, 7.25776621064216], [10.402681351163494, 7.256779671444747], [10.393933295785018, 7.263937472736245], [10.388365745882538, 7.262346744706576], [10.38279914926136, 7.250417233268763], [10.370383182837656, 7.252268032643656], [10.36212062826445, 7.252007961298432], [10.358144759672996, 7.248826505239094], [10.350191115927316, 7.250417233268763], [10.342238426362314, 7.256779671444747], [10.333490371883215, 7.255984305631273], [10.323150635193713, 7.247236252051437], [10.313607215800403, 7.248826505239094], [10.288952827111359, 7.259165765287889], [10.273841857815512, 7.274276257043653], [10.267479897179555, 7.278253078916521]]]}}, {"type": "Feature", "properties": {"name": "Ibi", "state": "ta"}, "geometry": {"type": "Polygon", "coordinates": [[[10.245595932106653, 8.804408074273283], [10.188146591392126, 8.748394011974142], [10.177096366903868, 8.728865623150057], [10.11644744879078, 8.672503471058405], [10.097175597875605, 8.645686149895937], [10.087177277109674, 8.640045165851745], [10.051827431191043, 8.591742515804526], [10.00417709359806, 8.549806596397332], [9.997756957617526, 8.540867804705499], [9.971326827870882, 8.520648002703183], [9.950106620923862, 8.498931885298305], [9.920263289719117, 8.47855758696312], [9.890913963308833, 8.447825432397849], [9.869446753964553, 8.431289672580363], [9.761323929056118, 8.369710922021511], [9.756654738925135, 8.367341996236178], [9.695590973444723, 8.37451457968416], [9.65275382992536, 8.384195328251849], [9.646133437408253, 8.381022630689927], [9.634487129677325, 8.381845626374627], [9.622463669662693, 8.383156093279126], [9.620464026193929, 8.383374038581053], [9.621109635101618, 8.381402346940831], [9.623197342883088, 8.375026478289385], [9.626287179609676, 8.369853251426434], [9.625098781283782, 8.366913888365332], [9.621058226256196, 8.368912657693045], [9.617255350354185, 8.37102899089524], [9.61683597220241, 8.371847741779902], [9.614020347760913, 8.36040210697172], [9.611920357038912, 8.350004195837016], [9.612112999015721, 8.340802194165974], [9.612330437100013, 8.330449104342733], [9.613750457617584, 8.317818642416455], [9.617529869308044, 8.302932739254572], [9.615386962938032, 8.294836043948294], [9.609673499832184, 8.291272162880034], [9.54688644355457, 8.305003165663607], [9.51801013895681, 8.302137375239738], [9.483206748992302, 8.306058884310119], [9.420156479138257, 8.33244323676604], [9.408443450704738, 8.339118958273332], [9.40140628806978, 8.343584060755859], [9.389717101563008, 8.349109650090327], [9.382753372170441, 8.350123404571491], [9.376966475822258, 8.350010872403914], [9.367830275746655, 8.344078063751681], [9.363276482123979, 8.34053707132881], [9.342466354338853, 8.283742904711346], [9.335693358561684, 8.275555610802826], [9.330030440952157, 8.2696914671875], [9.32551956207817, 8.263849258036885], [9.323423386280297, 8.253451346902182], [9.324937766364883, 8.24856106294277], [9.325902938569811, 8.245444297816164], [9.329566955550604, 8.236310006101974], [9.3712491986916, 8.215107917796217], [9.390469550829152, 8.201828003259777], [9.397533417033628, 8.196212768604425], [9.405823707598074, 8.187169074593157], [9.411823272925744, 8.176929473816188], [9.406276703307242, 8.165313720551808], [9.400613784798395, 8.159449576936481], [9.391429900869298, 8.155817031730692], [9.386946677946867, 8.148825644587873], [9.391909599248663, 8.13281154641578], [9.395036696686248, 8.09374809310009], [9.398653029813545, 8.086914062134326], [9.403423309138475, 8.080102920713273], [9.414026260303729, 8.071104049812106], [9.415376663402355, 8.061924934088495], [9.404143333348202, 8.045594215200936], [9.346026421382305, 8.001879692194109], [9.3393230439234, 7.990242003565641], [9.335517882844044, 7.985507965120519], [9.358986855359149, 7.998349667003595], [9.384282111730101, 8.019597054160784], [9.398435592628573, 8.025259017589633], [9.434870719707988, 8.039833069140855], [9.47129535709513, 8.059056282021857], [9.491530417894523, 8.070186615420027], [9.523907660909856, 8.077268600265711], [9.537060737762886, 8.092445373854957], [9.563367843850983, 8.101551056336234], [9.60604236116609, 8.105521039764199], [9.633113861315678, 8.106392859642824], [9.712519646164765, 8.08916950336993], [9.725253104747026, 8.083339692273], [9.756863593879814, 8.082549094665012], [9.765724182325187, 8.082327842555912], [9.78614657190684, 8.087177108436833], [9.794280052182728, 8.08909130102279], [9.804171562267811, 8.09143352503719], [9.835536957364752, 8.115715982007032], [9.85132226261237, 8.147286594300908], [9.867914200380085, 8.180470468037697], [9.885114669806228, 8.231060028397621], [9.89927959367833, 8.256354332386593], [9.938738823338099, 8.282660484293956], [9.94630983163347, 8.285604739667065], [9.97040081034919, 8.29497337312273], [9.973266601672378, 8.296087265315066], [9.971732783641073, 8.298272725805703], [9.971756578803138, 8.299605225201049], [9.974412058269934, 8.302870795750664], [9.981574578304219, 8.30592092561028], [9.9847574229168, 8.311907768228991], [9.989717484374466, 8.315591812212404], [9.99288749656074, 8.320924758670742], [9.999477385872694, 8.326412200562629], [10.006056786391639, 8.331898689173215], [10.012645720623539, 8.337385177783801], [10.038327216927541, 8.37314224212082], [10.043287276586568, 8.37682628610429], [10.046546935892422, 8.380432128639882], [10.057686805701564, 8.392797470426956], [10.084406852594213, 8.447878837738244], [10.08415699035288, 8.453058242943598], [10.105046271967922, 8.481679916195219], [10.147896766822385, 8.51647949213492], [10.188626288872172, 8.559833527295496], [10.231396674816722, 8.596360207157886], [10.250323865054384, 8.629417674885815], [10.2497527937565, 8.632748920226561], [10.251132881677222, 8.64131497890321], [10.253029275780477, 8.643991105005568], [10.254707336074773, 8.645851135021928], [10.26120567260375, 8.653065680836562], [10.267796516096382, 8.658550261985056], [10.274466515217568, 8.662311554134988], [10.309685706730022, 8.677736281604155], [10.319936752279318, 8.678196907161578], [10.33010673473808, 8.68038463574237], [10.33873748794474, 8.679042815773357], [10.342262000291157, 8.675597000401297], [10.383751999854951, 8.683539999771199], [10.387617110641202, 8.69508266423361], [10.381997107780364, 8.705210686124303], [10.379877090055686, 8.713765144445915], [10.354626655895515, 8.74031162308296], [10.349336624185923, 8.743534088227648], [10.333876610017569, 8.744568824791486], [10.328837394730044, 8.742611885630083], [10.321996688996023, 8.742303848044173], [10.313457488572283, 8.741919518271175], [10.308166503581333, 8.745141983415863], [10.30449676511364, 8.750166893187611], [10.304165839781717, 8.757072449034354], [10.295296669106051, 8.763593674208721], [10.290086746306372, 8.765089988712077], [10.281545639319859, 8.764705658939079], [10.276246071199296, 8.76792812318439], [10.274207114766568, 8.77475643176399], [10.268916129775619, 8.777978897807941], [10.263627052246704, 8.781200408771895], [10.245595932106653, 8.804408074273283]]]}}, {"type": "Feature", "properties": {"name": "Gassol", "state": "ta"}, "geometry": {"type": "MultiPolygon", "coordinates": [[[[10.342407227311753, 7.959485531332234], [10.345837886409356, 7.960223361219221], [10.35257720887114, 7.961672783272377], [10.359503224294428, 7.964359649977894], [10.358933281645704, 7.970629016416012], [10.35093829336762, 7.978243291095055], [10.357029712751114, 7.987761134668688], [10.355126143856523, 7.991568271558549], [10.341420448894667, 7.989283989964235], [10.341420448894667, 7.99727897914164], [10.330384622552344, 8.00205891628599], [10.328226622860427, 8.004654770701165], [10.326665878227743, 8.002030372703587], [10.325296402307174, 7.995047569589701], [10.32758712844327, 7.983039855804748], [10.342407227311753, 7.959485531332234]]], [[[10.89166641237506, 8.82502269843883], [10.882077216590346, 8.810750007906563], [10.841265678168554, 8.769122125185959], [10.764567375184242, 8.72587966891166], [10.73381614689771, 8.724495888374577], [10.718436240739948, 8.723804474297083], [10.703056334582243, 8.723113060219589], [10.684097290357727, 8.725720406171831], [10.673767090079195, 8.726984977974382], [10.661173905951046, 8.744569671053512], [10.610964861339312, 8.75615299926153], [10.60241326286183, 8.755768667689892], [10.590375032381871, 8.756956946405978], [10.576873864837069, 8.752889525930925], [10.560577393032304, 8.730544089937837], [10.547076224588125, 8.726476670362104], [10.543786000023943, 8.719173999980171], [10.507652000139728, 8.717264000033651], [10.490018249942352, 8.710147717743041], [10.475785499201493, 8.703452633832057], [10.451890999869818, 8.695614999932332], [10.342262000291157, 8.675597000401297], [10.33873748794474, 8.679042815773357], [10.33010673473808, 8.68038463574237], [10.319936752279318, 8.678196907161578], [10.309685706730022, 8.677736281604155], [10.267796516096382, 8.658550261985056], [10.251132881677222, 8.64131497890321], [10.2497527937565, 8.632748920226561], [10.250323865054384, 8.629417674885815], [10.231396674816722, 8.596360207157886], [10.188626288872172, 8.559833527295496], [10.147896766822385, 8.51647949213492], [10.105046271967922, 8.481679916195219], [10.08415699035288, 8.453058242943598], [10.084406852594213, 8.447878837738244], [10.057686805701564, 8.392797470426956], [10.046546935892422, 8.380432128639882], [10.043287276586568, 8.37682628610429], [10.038327216927541, 8.37314224212082], [10.012645720623539, 8.337385177783801], [9.971732783641073, 8.298272725805703], [10.032835006830169, 8.237130165324913], [10.052564202575923, 8.234937687424406], [10.056989764566026, 8.234410318681284], [10.0601530075553, 8.234094619770929], [10.146154404102504, 8.238142014142682], [10.198243140608497, 8.25522041319158], [10.19921112139616, 8.255537988087724], [10.207873343679921, 8.25837802912281], [10.216659545601601, 8.258147239703419], [10.237083435252373, 8.257609366878853], [10.246320723622546, 8.257366180305041], [10.274650574064765, 8.250283241278623], [10.295898436963341, 8.238142014142682], [10.299408912691206, 8.232359885999983], [10.301486014767818, 8.228938103210965], [10.309711083799527, 8.227624394250427], [10.312138133667986, 8.224745246196221], [10.313210794642487, 8.219267725625059], [10.313098907288804, 8.209812163700462], [10.32422828740556, 8.188565254083244], [10.331658908831628, 8.14532705519946], [10.344488367344354, 8.148517519767779], [10.401595430584678, 8.14680430767271], [10.47926103896583, 8.173644628996499], [10.536567195020098, 8.149045476667482], [10.567976080431833, 8.147141907772891], [10.608902809417145, 8.226615906199186], [10.614203912680466, 8.227184359570572], [10.62616896082892, 8.228467409743189], [10.653707198328561, 8.209256210905437], [10.655715942037148, 8.210602760409131], [10.66425704992298, 8.21098709108145], [10.682637214935596, 8.220463752899946], [10.752085686305406, 8.272030829559185], [10.763795853096212, 8.277748107589161], [10.796147345823385, 8.317265511694075], [10.812737465161945, 8.328392029268798], [10.819327353574579, 8.333878516980008], [10.82932663031977, 8.339518546843522], [10.842746734774039, 8.34531307303996], [10.847706795332385, 8.348996161943376], [10.8525867460815, 8.354406356568177], [10.862506866298872, 8.361773491253643], [10.919166565384728, 8.430065154783108], [10.97455596938255, 8.453318595776636], [11.01277732811127, 8.477529526066803], [11.016027451006096, 8.481135367703132], [11.020985603203087, 8.484818459304506], [11.030826568691225, 8.49391269791272], [11.071396828001241, 8.540719031658057], [11.077285366626427, 8.575009703734906], [11.110397338666303, 8.631417274287799], [11.10280609112823, 8.635558128005243], [11.097517013599372, 8.638779639868517], [11.087257384920406, 8.638319016109733], [11.080347060868235, 8.639738084245266], [11.071636199650925, 8.642806053056972], [11.067886353172696, 8.64955806675141], [11.059177399417479, 8.652626038261133], [11.032365547032441, 8.67731185196044], [11.032224607080025, 8.724288486724333], [11.029178897388249, 8.731522048703653], [11.012941695402958, 8.747759250688944], [10.997579655176992, 8.76312129091491], [10.996935794551348, 8.76321787000876], [10.982351104919587, 8.765405574307863], [10.975688614238209, 8.771116280092315], [10.965790056166213, 8.776255916377465], [10.958366138286692, 8.785583403151577], [10.946373653621265, 8.799289098113434], [10.935523311551663, 8.803667307200499], [10.924219709372153, 8.812498246796679], [10.91816633041185, 8.815050608199044], [10.914739906221769, 8.813051861354381], [10.911170714656805, 8.813515855772152], [10.89166641237506, 8.82502269843883]]]]}}, {"type": "Feature", "properties": {"name": "Sardauna", "state": "ta"}, "geometry": {"type": "Polygon", "coordinates": [[[10.978006363203122, 7.309875487663646], [10.981757163862085, 7.303123473969208], [10.98916626001494, 7.291346549603645], [10.994956970387932, 7.277766704869578], [10.998435974340794, 7.20525789273762], [10.994055748074345, 7.189489840983413], [10.994636535647658, 7.177405834111994], [10.996835709000834, 7.16712474760908], [10.988817215142433, 7.120050906923836], [10.971676825824886, 7.084677695719108], [10.921607017849624, 7.021871566619552], [10.849861388392412, 6.968591145664902], [10.844314605634565, 6.960270495786801], [10.842001142838512, 6.958250217373688], [10.844618550405812, 6.956870128553646], [10.849091937443006, 6.948304069876997], [10.854166031137481, 6.946944235588035], [10.86277770972356, 6.928333282055348], [10.86472129844924, 6.923333168391082], [10.874484269333607, 6.892541717026688], [10.879165649774961, 6.8777771000332], [10.88166618324783, 6.866944312729913], [10.881109237601265, 6.839444160619564], [10.882776261415358, 6.827776908577505], [10.903055191144233, 6.806943893046252], [10.938610077093415, 6.779999733301111], [10.94333267256485, 6.778055191294072], [10.95638847334942, 6.776944160744449], [10.969444275033311, 6.777499198928922], [10.999999999700265, 6.780833245657789], [11.01366806073247, 6.780509948375482], [11.019165039035386, 6.778610228579225], [11.026091576065426, 6.771448135722949], [11.043609618589073, 6.753333091748857], [11.07583236707012, 6.711666108304314], [11.078332901442309, 6.70749950429871], [11.082221984557009, 6.697777748444366], [11.078209115158586, 6.679385829292642], [11.064333754099493, 6.66308109541626], [11.059717743579029, 6.642548027169767], [11.06232129709025, 6.596391431119685], [11.066629591082801, 6.57261204231196], [11.072031010123055, 6.558209927646089], [11.081015973008789, 6.545770575251879], [11.084548713252559, 6.54149914806726], [11.095275878778807, 6.498055457693283], [11.110277175751094, 6.458055496264194], [11.114442825575964, 6.448610306220701], [11.116943359048832, 6.444166183122888], [11.12444305380393, 6.438055038009622], [11.129165649275365, 6.435832976910376], [11.140832901317367, 6.433610915811187], [11.181665420922513, 6.433332443437564], [11.191944122423365, 6.433888435802714], [11.197498321890066, 6.434999467251657], [11.202220915562862, 6.43694400656068], [11.273054123449072, 6.433332443437564], [11.340276717896245, 6.440833092373339], [11.371944427293556, 6.449721337669644], [11.376943588575784, 6.451665877877986], [11.412776946898646, 6.484443665442882], [11.413055420171531, 6.498332977684811], [11.414164543259119, 6.509721755554608], [11.415005791584065, 6.516134166358711], [11.434999466252407, 6.586111068571029], [11.437221527351653, 6.590832709861729], [11.444999693581053, 6.596943854974995], [11.454721451234036, 6.600832938989015], [11.473331450586045, 6.602499961903789], [11.504999160882619, 6.600276946623808], [11.510555266912093, 6.601666450446373], [11.514720916736962, 6.604166032436524], [11.51833152657872, 6.607499122286697], [11.535978004881088, 6.629656519932496], [11.555276871430522, 6.653888702101995], [11.55805397071424, 6.658055305208222], [11.580831527353155, 6.718610763975619], [11.584720611367175, 6.735554694593532], [11.588609695381194, 6.759444236862066], [11.589166641927022, 6.779999733301111], [11.585832596097475, 6.790277482419924], [11.583332061725343, 6.794444083727512], [11.55472183234673, 6.821110725279823], [11.556388855261503, 6.833333016405618], [11.57972145098421, 6.879444122947973], [11.58597608292996, 6.889718713647767], [11.587499618112929, 6.892221449560282], [11.637777328660832, 6.94388866393075], [11.646110534873344, 6.949166297586601], [11.69437632170991, 6.972692975100756], [11.618927001679822, 7.013446807624121], [11.610669700946005, 7.014120139033253], [11.604721048937336, 7.012632976031057], [11.59728523302715, 7.007576620564635], [11.579439276101766, 6.999843372773455], [11.576167517317117, 7.009658650026722], [11.570218864409128, 7.040889074870961], [11.563972778720824, 7.048622323561403], [11.564857483186358, 7.069837569848005], [11.533606528618463, 7.078812598822424], [11.525067329093986, 7.078428744790813], [11.513106345881226, 7.077890872865567], [11.506186485418027, 7.079308510179658], [11.457125663718443, 7.066721916283484], [11.392617225904303, 7.055168629029083], [11.388544255712873, 7.048989997890146], [11.391861034559156, 7.033159919894445], [11.402866708431873, 7.005570355387647], [11.392162560154077, 7.005118067444926], [11.378443158624918, 7.010545521858376], [11.358693252391731, 7.016877553056702], [11.325525469324987, 7.022606533964392], [11.304245549192785, 7.018083349666881], [11.288541107386266, 7.022366379904554], [11.28488731389848, 7.052053927846544], [11.27601718904208, 7.05857467727958], [11.272437095895327, 7.061873913950024], [11.268687247618459, 7.068625926745199], [11.267163376988321, 7.070307265068266], [11.259647369430581, 7.078599929842937], [11.252475739264014, 7.085197925643797], [11.243605614407613, 7.091718674177514], [11.234725952240979, 7.098240851733976], [11.21094608319521, 7.130042552921509], [11.196947097730401, 7.136332512035835], [11.191567420699982, 7.141281605361826], [11.186276435708976, 7.144503592966487], [11.155905724069953, 7.170819759724168], [11.148575782646276, 7.180869579267721], [11.139616013368368, 7.189117908364835], [11.13415622742798, 7.19579267569145], [11.130086898591571, 7.209449767692661], [11.13608515810364, 7.262817216041753], [11.128579461273148, 7.260341034411283], [11.120965185694786, 7.259579607213141], [11.10059700005155, 7.260531391210804], [11.099645215154624, 7.271001018782044], [11.128366470336402, 7.316638470389137], [11.124286651807608, 7.330296515671705], [11.122246742093523, 7.337124826049944], [11.115085601619285, 7.343723774232842], [11.107996941106023, 7.348594666111012], [11.102626801385838, 7.353543757638363], [11.097416877686783, 7.355038643118917], [11.092206954887104, 7.356534480981566], [11.083497046951209, 7.359603882413296], [11.076666831808893, 7.35929679990744], [11.069826126074929, 7.358988762321587], [11.064574241807861, 7.352367401234631], [11.033487319983863, 7.331402778915162], [11.030225754115293, 7.327795505558186], [11.023727416686995, 7.320582867205587], [10.998596191261242, 7.309071541418575], [10.991756438808636, 7.308763503832665], [10.983216286002857, 7.308379649801054], [10.978006363203122, 7.309875487663646]]]}}]}